{"type":"FeatureCollection","features":[{"type":"Feature","properties":{"seq":0,"std_name":"America/Phoenix","clock":"MST","time":"1:00","land":"Hopi","t0":0.0,"t1":0.059849,"km":15.85},"geometry":{"type":"LineString","coordinates":[[-111.22925,36.11935],[-111.22848,36.11871],[-111.22795,36.11824],[-111.22779,36.11812],[-111.22765,36.118],[-111.2274,36.11777],[-111.22709,36.11745],[-111.22686,36.11719],[-111.22656,36.11683],[-111.22642,36.11666],[-111.22597,36.1161],[-111.22558,36.1156],[-111.22523,36.11516],[-111.22493,36.11484],[-111.22456,36.11454],[-111.22428,36.11437],[-111.2241,36.11429],[-111.22396,36.11422],[-111.22372,36.11414],[-111.22341,36.11406],[-111.22297,36.11397],[-111.22259,36.11392],[-111.22225,36.11385],[-111.22186,36.11378],[-111.22171,36.11373],[-111.22157,36.11367],[-111.2213,36.11355],[-111.22098,36.11335],[-111.22082,36.11321],[-111.2206,36.11299],[-111.22039,36.11273],[-111.22035,36.11268],[-111.22025,36.11251],[-111.22004,36.11216],[-111.21977,36.11165],[-111.21971,36.11155],[-111.21967,36.11149],[-111.21955,36.11129],[-111.21949,36.11119],[-111.21931,36.11079],[-111.21914,36.11039],[-111.21885,36.10959],[-111.21859,36.10902],[-111.21847,36.10883],[-111.21829,36.10867],[-111.21808,36.1085],[-111.21805,36.10849],[-111.21782,36.10837],[-111.21773,36.10832],[-111.21749,36.10824],[-111.21725,36.10818],[-111.21694,36.10816],[-111.21624,36.10817],[-111.21489,36.10825],[-111.21432,36.10827],[-111.21416,36.10828],[-111.21388,36.10826],[-111.21359,36.1082],[-111.21331,36.10811],[-111.21303,36.10797],[-111.21287,36.10788],[-111.21274,36.1078],[-111.21196,36.10725],[-111.21089,36.10649],[-111.20993,36.10577],[-111.20953,36.10549],[-111.20925,36.10532],[-111.20902,36.10523],[-111.20878,36.10516],[-111.20852,36.10513],[-111.20825,36.10512],[-111.20803,36.10514],[-111.2078,36.10518],[-111.20753,36.10527],[-111.20711,36.10546],[-111.20661,36.10576],[-111.20623,36.10595],[-111.20602,36.10604],[-111.20578,36.1061],[-111.20551,36.10614],[-111.20514,36.10616],[-111.20508,36.10615],[-111.20482,36.10614],[-111.20464,36.10609],[-111.20438,36.10601],[-111.20414,36.1059],[-111.20388,36.10573],[-111.20361,36.1055],[-111.20306,36.1049],[-111.20285,36.10469],[-111.20265,36.10448],[-111.202,36.10384],[-111.20199,36.10383],[-111.2017,36.1036],[-111.20168,36.10359],[-111.20145,36.10328],[-111.20117,36.10301],[-111.20095,36.10287],[-111.20086,36.10281],[-111.20065,36.10268],[-111.20039,36.10257],[-111.19989,36.10241],[-111.19861,36.10206],[-111.19795,36.10188],[-111.1971,36.10162],[-111.19679,36.10148],[-111.19646,36.10129],[-111.19628,36.10112],[-111.19611,36.10093],[-111.19593,36.10067],[-111.19578,36.10037],[-111.19507,36.09883],[-111.19456,36.09774],[-111.19418,36.09692],[-111.19411,36.09671],[-111.19404,36.09647],[-111.194,36.09624],[-111.19398,36.09596],[-111.19398,36.09569],[-111.19402,36.09542],[-111.19406,36.09523],[-111.19411,36.09511],[-111.19417,36.09485],[-111.19419,36.09474],[-111.1942,36.09453],[-111.1942,36.09432],[-111.19413,36.09384],[-111.1941,36.09372],[-111.19396,36.09333],[-111.19388,36.09307],[-111.19377,36.09276],[-111.19361,36.09225],[-111.19323,36.09116],[-111.19304,36.09076],[-111.19295,36.09059],[-111.19284,36.09039],[-111.19264,36.09012],[-111.19248,36.0899],[-111.19232,36.08972],[-111.19204,36.08941],[-111.19189,36.08928],[-111.19146,36.0889],[-111.19103,36.08853],[-111.19066,36.08821],[-111.19016,36.08779],[-111.18988,36.08754],[-111.18941,36.08714],[-111.18825,36.08615],[-111.18814,36.08604],[-111.18777,36.08565],[-111.18752,36.08534],[-111.18711,36.08465],[-111.18695,36.08429],[-111.18681,36.08385],[-111.18669,36.08341],[-111.18652,36.08249],[-111.18632,36.08145],[-111.18616,36.08066],[-111.18602,36.07995],[-111.18596,36.07962],[-111.18583,36.07893],[-111.18567,36.07816],[-111.1849,36.07407],[-111.18468,36.07301],[-111.18417,36.07025],[-111.18329,36.06572],[-111.18319,36.06518],[-111.18311,36.06478],[-111.18289,36.06357],[-111.18267,36.06252],[-111.18246,36.06141],[-111.18214,36.05982],[-111.18116,36.05468],[-111.18101,36.05381],[-111.18097,36.05331],[-111.18093,36.05265],[-111.18093,36.05199],[-111.18095,36.05137],[-111.18099,36.05088],[-111.18101,36.05065],[-111.18114,36.04979],[-111.18125,36.04926],[-111.18145,36.04853],[-111.18169,36.04781],[-111.18196,36.0471],[-111.1823,36.04631],[-111.18293,36.04494],[-111.18338,36.044],[-111.18411,36.04239],[-111.18443,36.04167],[-111.18527,36.03987],[-111.18548,36.03939],[-111.18557,36.03916],[-111.18562,36.03898],[-111.18565,36.03876],[-111.18567,36.03855],[-111.18566,36.03827],[-111.1856,36.03802],[-111.18553,36.03778],[-111.18546,36.0376],[-111.18536,36.03743],[-111.1852,36.03717],[-111.18506,36.03699],[-111.18505,36.03697],[-111.1849,36.03683],[-111.18471,36.03665],[-111.18457,36.03654],[-111.18445,36.03646],[-111.18427,36.03635],[-111.18409,36.03625],[-111.18383,36.03615],[-111.18351,36.03604],[-111.18314,36.03594],[-111.17129,36.03254],[-111.16448,36.03058],[-111.15164,36.0269],[-111.14514,36.02503],[-111.13902,36.02327]]}},{"type":"Feature","properties":{"seq":1,"std_name":"America/Denver","clock":"MDT","time":"2:00","land":"Navajo Nation","t0":0.062324,"t1":0.109743,"km":12.56},"geometry":{"type":"LineString","coordinates":[[-111.13215,36.0213],[-111.13093,36.02097],[-111.13019,36.0208],[-111.12953,36.02066],[-111.12892,36.02055],[-111.12819,36.02045],[-111.12779,36.0204],[-111.12732,36.02036],[-111.1266,36.02031],[-111.12596,36.02027],[-111.12522,36.02022],[-111.12502,36.02022],[-111.12432,36.02017],[-111.12251,36.02008],[-111.12167,36.02001],[-111.11738,36.01976],[-111.1168,36.01972],[-111.11615,36.01965],[-111.11549,36.01956],[-111.11544,36.01955],[-111.11474,36.01944],[-111.11407,36.01931],[-111.11247,36.019],[-111.11236,36.01897],[-111.10289,36.01714],[-111.09688,36.01598],[-111.09654,36.01592],[-111.09543,36.01571],[-111.0909,36.01483],[-111.08782,36.01423],[-111.07193,36.01117],[-111.06688,36.01019],[-111.06556,36.00992],[-111.06389,36.00956],[-111.06289,36.00933],[-111.06252,36.00923],[-111.06136,36.00896],[-111.06038,36.0087],[-111.05836,36.00819],[-111.05752,36.00794],[-111.05721,36.00786],[-111.05666,36.00772],[-111.05596,36.00752],[-111.05573,36.00745],[-111.0552,36.00729],[-111.05444,36.00707],[-111.05343,36.00676],[-111.05239,36.00642],[-111.0513,36.00607],[-111.04889,36.00526],[-111.04766,36.00482],[-111.04671,36.00447],[-111.04572,36.0041],[-111.0446,36.00367],[-111.04269,36.00292],[-111.04232,36.00277],[-111.03905,36.00144],[-111.037,36.00061],[-111.03637,36.00035],[-111.03615,36.00026],[-111.03558,36.00002],[-111.03511,35.99987],[-111.0335,35.99923],[-111.03295,35.999],[-111.03284,35.99898],[-111.03203,35.99867],[-111.0309,35.9982],[-111.03042,35.99801],[-111.03,35.99784],[-111.02839,35.99719],[-111.02721,35.99669],[-111.02678,35.99653],[-111.0262,35.99629],[-111.02612,35.99623],[-111.02484,35.99571],[-111.02285,35.9949],[-111.02152,35.99437],[-111.02066,35.99401],[-111.01964,35.9936],[-111.01826,35.99304],[-111.01511,35.99175],[-111.01276,35.9908],[-111.00935,35.98941],[-111.00801,35.98887],[-111.00691,35.98843],[-111.00244,35.98661],[-111.00103,35.98604],[-111.00084,35.98596],[-111.00076,35.98593]]}},{"type":"Feature","properties":{"seq":2,"std_name":"America/Phoenix","clock":"MST","time":"1:00","land":"Hopi","t0":0.110031,"t1":0.514895,"km":107.25},"geometry":{"type":"LineString","coordinates":[[-111.00002,35.9856],[-110.99357,35.98298],[-110.98593,35.97988],[-110.97542,35.97561],[-110.97228,35.97433],[-110.96888,35.97295],[-110.96196,35.97014],[-110.95918,35.96901],[-110.95875,35.96884],[-110.94506,35.96327],[-110.94475,35.96315],[-110.94387,35.96278],[-110.94221,35.9621],[-110.93983,35.96114],[-110.93871,35.96066],[-110.93758,35.96019],[-110.93753,35.96016],[-110.93702,35.9599],[-110.9361,35.95945],[-110.9346,35.95866],[-110.93389,35.95825],[-110.93264,35.95748],[-110.93114,35.95648],[-110.931,35.95638],[-110.92909,35.95515],[-110.92603,35.95312],[-110.92565,35.95287],[-110.92456,35.95215],[-110.92101,35.9498],[-110.91941,35.94873],[-110.91083,35.94305],[-110.90951,35.94217],[-110.90315,35.93795],[-110.90299,35.93784],[-110.9026,35.9376],[-110.90247,35.93752],[-110.90154,35.93689],[-110.90022,35.93602],[-110.89786,35.93447],[-110.89672,35.9337],[-110.89597,35.93321],[-110.89542,35.93284],[-110.89484,35.93244],[-110.89474,35.93238],[-110.89429,35.93209],[-110.89327,35.93142],[-110.89127,35.93008],[-110.89082,35.92976],[-110.89046,35.92949],[-110.89015,35.9292],[-110.88976,35.92883],[-110.88935,35.92836],[-110.88892,35.92779],[-110.88863,35.92733],[-110.88841,35.92694],[-110.88819,35.92646],[-110.88799,35.9259],[-110.88784,35.92533],[-110.88774,35.92482],[-110.8876,35.92426],[-110.88758,35.92416],[-110.88746,35.92361],[-110.88481,35.91196],[-110.8843,35.9097],[-110.88417,35.90922],[-110.88406,35.90892],[-110.88391,35.90866],[-110.88387,35.9086],[-110.88372,35.90838],[-110.88341,35.90803],[-110.88307,35.90773],[-110.8829,35.90761],[-110.88268,35.90748],[-110.88237,35.90731],[-110.88209,35.9072],[-110.88173,35.90708],[-110.88148,35.907],[-110.88115,35.90694],[-110.88085,35.90691],[-110.88057,35.9069],[-110.88025,35.9069],[-110.87989,35.90692],[-110.87958,35.90696],[-110.87923,35.90704],[-110.87893,35.90714],[-110.87847,35.90734],[-110.87636,35.90826],[-110.87612,35.90837],[-110.87537,35.90871],[-110.87502,35.90886],[-110.87462,35.90906],[-110.87309,35.90975],[-110.87191,35.91027],[-110.87102,35.91068],[-110.86949,35.91135],[-110.86358,35.914],[-110.86311,35.91422],[-110.86275,35.91441],[-110.86245,35.91459],[-110.86216,35.91478],[-110.8618,35.91504],[-110.86129,35.91544],[-110.86103,35.91567],[-110.86093,35.91576],[-110.86073,35.91596],[-110.86042,35.91629],[-110.86018,35.91659],[-110.8599,35.91698],[-110.85973,35.91722],[-110.85953,35.91756],[-110.85935,35.91789],[-110.8592,35.91822],[-110.85898,35.91873],[-110.85871,35.91939],[-110.85375,35.93125],[-110.85369,35.9314],[-110.8535,35.93192],[-110.85337,35.93236],[-110.8533,35.93255],[-110.85322,35.9329],[-110.85313,35.93328],[-110.85305,35.93368],[-110.85296,35.93424],[-110.85286,35.93505],[-110.85283,35.93545],[-110.85283,35.9355],[-110.85282,35.9362],[-110.8528,35.93752],[-110.85277,35.93809],[-110.85271,35.94215],[-110.8527,35.9427],[-110.85255,35.95254],[-110.85249,35.95674],[-110.85245,35.95744],[-110.85245,35.95756],[-110.85238,35.958],[-110.85222,35.95876],[-110.85202,35.9594],[-110.85182,35.95996],[-110.85152,35.96063],[-110.85121,35.96119],[-110.85066,35.96202],[-110.85044,35.96229],[-110.85032,35.96245],[-110.8498,35.96303],[-110.84935,35.96351],[-110.84562,35.96731],[-110.84381,35.96914],[-110.8432,35.9697],[-110.84285,35.96999],[-110.84236,35.97031],[-110.84177,35.97064],[-110.84112,35.97094],[-110.84055,35.97116],[-110.84018,35.97127],[-110.83996,35.97134],[-110.83935,35.97149],[-110.83866,35.97161],[-110.83809,35.97167],[-110.83727,35.9717],[-110.83623,35.97165],[-110.83164,35.97123],[-110.82976,35.97106],[-110.82712,35.97082],[-110.82368,35.9705],[-110.8156,35.96976],[-110.81456,35.96967],[-110.81302,35.96953],[-110.81252,35.96946],[-110.8116,35.96937],[-110.81124,35.96933],[-110.81036,35.96925],[-110.80981,35.9692],[-110.80939,35.96917],[-110.80785,35.96908],[-110.80628,35.96904],[-110.80486,35.96905],[-110.80286,35.96914],[-110.80147,35.96924],[-110.80013,35.96939],[-110.79865,35.96959],[-110.78936,35.97112],[-110.78786,35.97137],[-110.7811,35.97248],[-110.77725,35.97311],[-110.77606,35.97331],[-110.77381,35.97368],[-110.77142,35.97408],[-110.76908,35.97446],[-110.76705,35.97479],[-110.76011,35.97593],[-110.75936,35.97606],[-110.75801,35.97628],[-110.75668,35.97649],[-110.75177,35.9773],[-110.75069,35.97748],[-110.75003,35.97759],[-110.74966,35.97765],[-110.7485,35.97785],[-110.74808,35.97791],[-110.74481,35.97845],[-110.74387,35.97861],[-110.74217,35.9789],[-110.74098,35.97908],[-110.73111,35.9807],[-110.73004,35.98087],[-110.72643,35.98146],[-110.71712,35.98299],[-110.71105,35.98398],[-110.70985,35.98418],[-110.70964,35.98419],[-110.70944,35.98419],[-110.70922,35.98417],[-110.70894,35.98412],[-110.70861,35.98402],[-110.70829,35.98389],[-110.70799,35.98371],[-110.70768,35.98347],[-110.70728,35.98311],[-110.70685,35.98271],[-110.70609,35.98198],[-110.70536,35.98131],[-110.70379,35.97986],[-110.70281,35.97897],[-110.70151,35.97776],[-110.70063,35.97696],[-110.70026,35.97663],[-110.7002,35.97657],[-110.69881,35.97528],[-110.6977,35.97425],[-110.69714,35.97371],[-110.69682,35.97336],[-110.69645,35.97294],[-110.69594,35.97229],[-110.69415,35.96994],[-110.69353,35.96912],[-110.69302,35.96844],[-110.69119,35.96603],[-110.69047,35.9651],[-110.69016,35.9647],[-110.68921,35.96342],[-110.68773,35.96148],[-110.68753,35.96118],[-110.68731,35.9609],[-110.68679,35.96021],[-110.68636,35.95964],[-110.68521,35.95811],[-110.68511,35.95798],[-110.68469,35.95743],[-110.68426,35.95687],[-110.68387,35.95635],[-110.6835,35.95587],[-110.68293,35.95511],[-110.68233,35.95434],[-110.68189,35.95374],[-110.68161,35.95337],[-110.68134,35.95304],[-110.68041,35.95181],[-110.67989,35.95112],[-110.67932,35.95037],[-110.67882,35.94973],[-110.67721,35.94757],[-110.67664,35.94683],[-110.67597,35.94595],[-110.67528,35.94501],[-110.6752,35.94492],[-110.67483,35.94442],[-110.67434,35.9438],[-110.67409,35.94353],[-110.67403,35.94346],[-110.67338,35.94282],[-110.67311,35.9426],[-110.67274,35.94233],[-110.67231,35.94203],[-110.67172,35.94169],[-110.67136,35.9415],[-110.67061,35.94116],[-110.6703,35.94102],[-110.66978,35.94079],[-110.66906,35.94047],[-110.66835,35.94017],[-110.66758,35.93983],[-110.66701,35.93959],[-110.66622,35.93923],[-110.6654,35.93887],[-110.66466,35.93854],[-110.66451,35.93846],[-110.66434,35.93835],[-110.66397,35.93811],[-110.66364,35.93786],[-110.66342,35.93766],[-110.66331,35.93754],[-110.66313,35.93737],[-110.66301,35.93721],[-110.66291,35.93708],[-110.66278,35.93688],[-110.66253,35.93641],[-110.66229,35.93601],[-110.66174,35.93508],[-110.66139,35.93445],[-110.66121,35.93409],[-110.66112,35.93386],[-110.66104,35.93366],[-110.66085,35.93304],[-110.66078,35.93275],[-110.66073,35.93247],[-110.66058,35.9314],[-110.66037,35.92978],[-110.66029,35.92899],[-110.66029,35.92884],[-110.66029,35.92869],[-110.66031,35.92853],[-110.66036,35.92821],[-110.66043,35.92791],[-110.66053,35.92756],[-110.66068,35.92716],[-110.66083,35.92683],[-110.66091,35.92669],[-110.66107,35.92643],[-110.66152,35.92571],[-110.66182,35.9252],[-110.66202,35.9249],[-110.6621,35.92477],[-110.66221,35.92459],[-110.66226,35.9245],[-110.6623,35.92442],[-110.66244,35.9242],[-110.66262,35.92391],[-110.66272,35.92369],[-110.6628,35.9235],[-110.66288,35.92324],[-110.66299,35.92293],[-110.66306,35.92275],[-110.6631,35.9226],[-110.66312,35.92249],[-110.66319,35.92216],[-110.66322,35.92189],[-110.66328,35.92141],[-110.66336,35.92068],[-110.66337,35.9205],[-110.66343,35.92006],[-110.66347,35.91967],[-110.6635,35.91938],[-110.66357,35.91874],[-110.66365,35.91804],[-110.66367,35.91784],[-110.66368,35.91771],[-110.66393,35.91551],[-110.66404,35.91438],[-110.66413,35.91355],[-110.66415,35.91345],[-110.66426,35.91283],[-110.66441,35.91221],[-110.66442,35.91215],[-110.66448,35.91201],[-110.66453,35.91188],[-110.66464,35.91154],[-110.66486,35.91107],[-110.66508,35.9107],[-110.6651,35.91066],[-110.66516,35.91054],[-110.66527,35.91032],[-110.66573,35.90939],[-110.66587,35.90913],[-110.66599,35.90891],[-110.6661,35.90869],[-110.66624,35.90838],[-110.66635,35.9081],[-110.66636,35.90806],[-110.66645,35.90785],[-110.66652,35.90762],[-110.66656,35.90741],[-110.66659,35.90718],[-110.66661,35.90688],[-110.66662,35.90656],[-110.66662,35.90645],[-110.6666,35.90617],[-110.66656,35.90585],[-110.6665,35.90561],[-110.66617,35.90439],[-110.66615,35.9043],[-110.66602,35.90391],[-110.66596,35.90366],[-110.6658,35.90301],[-110.66561,35.90235],[-110.66538,35.90152],[-110.66517,35.90071],[-110.66474,35.89923],[-110.66427,35.89747],[-110.66401,35.89664],[-110.66392,35.89642],[-110.66383,35.89623],[-110.66376,35.89611],[-110.66362,35.89589],[-110.66339,35.89566],[-110.66314,35.89545],[-110.66293,35.89532],[-110.66269,35.89516],[-110.6625,35.89508],[-110.66215,35.89494],[-110.66045,35.89436],[-110.65917,35.89394],[-110.65834,35.89368],[-110.65757,35.89347],[-110.65721,35.89339],[-110.65692,35.89334],[-110.65653,35.89326],[-110.65565,35.89312],[-110.65504,35.89301],[-110.65476,35.89295],[-110.65453,35.89288],[-110.65423,35.89279],[-110.65383,35.89262],[-110.65354,35.89247],[-110.65327,35.89231],[-110.65298,35.89212],[-110.65271,35.8919],[-110.65245,35.89165],[-110.6522,35.89138],[-110.65204,35.8912],[-110.65183,35.89082],[-110.65166,35.89048],[-110.65159,35.89033],[-110.65154,35.89021],[-110.65149,35.89],[-110.65144,35.88975],[-110.65141,35.88945],[-110.65137,35.88855],[-110.65132,35.88777],[-110.65122,35.88612],[-110.65117,35.88498],[-110.65113,35.88468],[-110.6511,35.88448],[-110.65105,35.88429],[-110.65096,35.88397],[-110.65069,35.88343],[-110.65031,35.88285],[-110.64999,35.88247],[-110.64961,35.88213],[-110.64936,35.88193],[-110.64905,35.88172],[-110.64872,35.88153],[-110.64852,35.88142],[-110.64818,35.88127],[-110.6476,35.88107],[-110.64724,35.88096],[-110.64676,35.88087],[-110.64652,35.88082],[-110.64618,35.88079],[-110.64564,35.88077],[-110.64517,35.88079],[-110.645,35.8808],[-110.64474,35.88085],[-110.64439,35.88089],[-110.64422,35.88092],[-110.64375,35.88104],[-110.6433,35.88121],[-110.64316,35.88126],[-110.64304,35.88131],[-110.6425,35.88155],[-110.64197,35.88179],[-110.64146,35.88202],[-110.64092,35.88226],[-110.64067,35.88236],[-110.63984,35.88276],[-110.6388,35.88323],[-110.63837,35.88343],[-110.63812,35.88354],[-110.6378,35.88368],[-110.63702,35.88403],[-110.63643,35.8843],[-110.63626,35.88439],[-110.63567,35.88467],[-110.63499,35.88497],[-110.63438,35.88524],[-110.63407,35.88537],[-110.63386,35.88546],[-110.63356,35.88556],[-110.6333,35.88564],[-110.63322,35.88566],[-110.63285,35.88573],[-110.63275,35.88574],[-110.63257,35.88577],[-110.6322,35.88579],[-110.63172,35.88582],[-110.63057,35.8858],[-110.63032,35.88576],[-110.63011,35.88572],[-110.62959,35.88548],[-110.6294,35.88533],[-110.62923,35.88516],[-110.62912,35.88504],[-110.62902,35.88489],[-110.62889,35.88454],[-110.62849,35.88367],[-110.62822,35.88318],[-110.62801,35.88287],[-110.62767,35.88245],[-110.62744,35.88221],[-110.62691,35.88173],[-110.62664,35.88148],[-110.6264,35.88123],[-110.62618,35.88096],[-110.62597,35.88071],[-110.62578,35.8805],[-110.62563,35.88039],[-110.62548,35.88032],[-110.62534,35.88026],[-110.62522,35.88024],[-110.62504,35.88023],[-110.62492,35.88023],[-110.62464,35.88027],[-110.62439,35.88034],[-110.62423,35.88042],[-110.62412,35.88051],[-110.6241,35.88053],[-110.62399,35.88063],[-110.62382,35.88084],[-110.62326,35.88165],[-110.62285,35.8822],[-110.62265,35.8824],[-110.6225,35.88254],[-110.62238,35.88264],[-110.62232,35.88269],[-110.62206,35.88286],[-110.62185,35.88297],[-110.62163,35.88307],[-110.62124,35.88321],[-110.62118,35.88323],[-110.62094,35.88328],[-110.62068,35.88332],[-110.62031,35.88335],[-110.62007,35.88336],[-110.61967,35.88332],[-110.61936,35.88328],[-110.61916,35.88322],[-110.61895,35.88316],[-110.61848,35.88297],[-110.61833,35.88289],[-110.61813,35.88278],[-110.61783,35.88259],[-110.61747,35.88234],[-110.61714,35.88213],[-110.61662,35.88182],[-110.61606,35.88147],[-110.61574,35.88125],[-110.61479,35.88066],[-110.61427,35.88032],[-110.61355,35.87987],[-110.61294,35.87947],[-110.61277,35.87937],[-110.61217,35.879],[-110.61188,35.87882],[-110.61147,35.87858],[-110.61121,35.87842],[-110.61069,35.87807],[-110.61048,35.87795],[-110.61041,35.8779],[-110.61007,35.87769],[-110.6096,35.87739],[-110.60912,35.87709],[-110.6086,35.87678],[-110.60832,35.87661],[-110.60813,35.87648],[-110.60793,35.87633],[-110.60771,35.8762],[-110.60761,35.87614],[-110.60728,35.87593],[-110.60692,35.8757],[-110.60674,35.87559],[-110.60635,35.87536],[-110.60587,35.87503],[-110.60529,35.87469],[-110.60485,35.87445],[-110.60454,35.87429],[-110.60433,35.8742],[-110.60385,35.874],[-110.60348,35.87387],[-110.60306,35.87373],[-110.60274,35.87364],[-110.60218,35.8735],[-110.60188,35.87344],[-110.6017,35.87341],[-110.60138,35.87335],[-110.60108,35.87332],[-110.60075,35.87328],[-110.60033,35.87326],[-110.59999,35.87325],[-110.5987,35.87322],[-110.59437,35.87318],[-110.59365,35.87318],[-110.59303,35.87318],[-110.59228,35.87317],[-110.59157,35.87316],[-110.58734,35.87313],[-110.5844,35.87311],[-110.58334,35.87309],[-110.57385,35.873],[-110.56924,35.87296],[-110.56651,35.87294],[-110.56536,35.87292],[-110.56284,35.8729],[-110.56264,35.87288],[-110.56151,35.87288],[-110.56047,35.87286],[-110.55935,35.87286],[-110.55837,35.87284],[-110.5574,35.87284],[-110.55677,35.87283],[-110.55667,35.87283],[-110.55577,35.87283],[-110.55471,35.87279],[-110.55403,35.87271],[-110.55365,35.87264],[-110.5532,35.87253],[-110.55276,35.87238],[-110.55247,35.87228],[-110.55218,35.87215],[-110.55193,35.87204],[-110.55171,35.87191],[-110.55145,35.87176],[-110.55088,35.87137],[-110.54755,35.86888],[-110.54711,35.86857],[-110.54654,35.86816],[-110.54583,35.86762],[-110.54524,35.86719],[-110.54465,35.86675],[-110.54409,35.86634],[-110.54355,35.86593],[-110.54288,35.86542],[-110.54143,35.86435],[-110.54041,35.86359],[-110.53996,35.86325],[-110.53967,35.86301],[-110.53945,35.8628],[-110.53921,35.86255],[-110.53901,35.8623],[-110.53882,35.86205],[-110.53863,35.86172],[-110.53844,35.8613],[-110.53835,35.86106],[-110.53822,35.86064],[-110.53819,35.86044],[-110.53813,35.85981],[-110.53816,35.85934],[-110.53825,35.85889],[-110.53834,35.85857],[-110.53852,35.85812],[-110.53865,35.85787],[-110.53892,35.85744],[-110.53909,35.85721],[-110.53938,35.85689],[-110.53954,35.85673],[-110.53965,35.85663],[-110.53974,35.85655],[-110.54011,35.85626],[-110.54067,35.85585],[-110.54092,35.85567],[-110.54112,35.85549],[-110.54129,35.85525],[-110.54143,35.85503],[-110.54151,35.85483],[-110.54158,35.85463],[-110.54161,35.85438],[-110.54169,35.85406],[-110.54179,35.85385],[-110.54187,35.85371],[-110.54216,35.85337],[-110.54254,35.85295],[-110.54278,35.85266],[-110.54287,35.85248],[-110.54291,35.85237],[-110.54292,35.85223],[-110.54292,35.85209],[-110.54288,35.85195],[-110.54282,35.85179],[-110.54269,35.8516],[-110.54253,35.85146],[-110.54236,35.85135],[-110.54221,35.85129],[-110.54196,35.85124],[-110.54168,35.85119],[-110.54098,35.85114],[-110.54082,35.85112],[-110.5404,35.85108],[-110.53991,35.85103],[-110.53965,35.85099],[-110.5395,35.85097],[-110.5391,35.85087],[-110.53873,35.85077],[-110.5387,35.85075],[-110.53845,35.85068],[-110.53814,35.85056],[-110.5378,35.85042],[-110.53752,35.85027],[-110.53725,35.85012],[-110.53697,35.84996],[-110.53675,35.8498],[-110.53649,35.8496],[-110.53617,35.84934],[-110.53579,35.849],[-110.5351,35.84841],[-110.5335,35.84699],[-110.53296,35.84654],[-110.53285,35.84646],[-110.53248,35.84615],[-110.53185,35.84561],[-110.53111,35.84495],[-110.53053,35.84444],[-110.53016,35.84412],[-110.53006,35.84403],[-110.52934,35.84338],[-110.52876,35.84287],[-110.52854,35.84269],[-110.52841,35.84258],[-110.52807,35.84227],[-110.52774,35.84192],[-110.52744,35.84154],[-110.52729,35.84126],[-110.52717,35.84104],[-110.5271,35.84091],[-110.52693,35.84056],[-110.5269,35.84051],[-110.52678,35.8401],[-110.52677,35.84005],[-110.52672,35.83981],[-110.52668,35.83958],[-110.52664,35.83922],[-110.5267,35.83837],[-110.52673,35.83817],[-110.52676,35.83807],[-110.52683,35.83778],[-110.52701,35.83726],[-110.52707,35.83711],[-110.52757,35.83623],[-110.52765,35.8361],[-110.52805,35.83546],[-110.52814,35.8353],[-110.52866,35.83445],[-110.52891,35.83404],[-110.52916,35.83364],[-110.52926,35.83347],[-110.52975,35.83268],[-110.52993,35.83237],[-110.53029,35.83177],[-110.53071,35.83107],[-110.53082,35.8309],[-110.53122,35.83025],[-110.53157,35.8297],[-110.53166,35.82953],[-110.5319,35.82913],[-110.5321,35.82874],[-110.53218,35.82854],[-110.5323,35.82824],[-110.53234,35.82809],[-110.53236,35.828],[-110.53239,35.82791],[-110.53246,35.82758],[-110.53249,35.82723],[-110.53251,35.82691],[-110.53246,35.82627],[-110.53241,35.82572],[-110.53236,35.82523],[-110.53226,35.82408],[-110.53225,35.82399],[-110.53218,35.82331],[-110.53206,35.82198],[-110.53205,35.82195],[-110.53199,35.82167],[-110.53194,35.82144],[-110.53186,35.82108],[-110.53158,35.82031],[-110.53118,35.81943],[-110.53077,35.81851],[-110.53057,35.81807],[-110.53022,35.8173],[-110.52999,35.8168],[-110.52979,35.81634],[-110.52905,35.81467],[-110.529,35.81458],[-110.52886,35.81426],[-110.52871,35.81396],[-110.52858,35.8136],[-110.5285,35.81336],[-110.52845,35.81309],[-110.52845,35.81288],[-110.52847,35.8126],[-110.52851,35.81253],[-110.52855,35.81236],[-110.52866,35.81194],[-110.5287,35.81161],[-110.52871,35.81146],[-110.52871,35.81115],[-110.52868,35.81097],[-110.52858,35.8107],[-110.5285,35.81057],[-110.52833,35.81033],[-110.52817,35.8102],[-110.528,35.8101],[-110.52776,35.80996],[-110.52754,35.80988],[-110.52739,35.80983],[-110.52726,35.8098],[-110.52705,35.80978],[-110.52677,35.80977],[-110.52636,35.8098],[-110.52603,35.80982],[-110.52558,35.80985],[-110.52532,35.80986],[-110.52505,35.80986],[-110.52476,35.80985],[-110.52462,35.80983],[-110.52434,35.80978],[-110.52405,35.80972],[-110.52385,35.80968],[-110.52361,35.80961],[-110.52343,35.80954],[-110.52333,35.80953],[-110.52313,35.80947],[-110.52282,35.80935],[-110.5227,35.80929],[-110.52252,35.8092],[-110.52238,35.80909],[-110.52223,35.80894],[-110.52209,35.80874],[-110.522,35.80855],[-110.52189,35.80815],[-110.5218,35.80776],[-110.52169,35.80741],[-110.52162,35.80725],[-110.52157,35.80713],[-110.52146,35.80693],[-110.52138,35.80683],[-110.52123,35.80669],[-110.52109,35.80658],[-110.5208,35.80644],[-110.52064,35.80638],[-110.52051,35.80634],[-110.52034,35.80632],[-110.52019,35.80631],[-110.51994,35.80633],[-110.51956,35.80638],[-110.51929,35.80642],[-110.51863,35.8065],[-110.51815,35.80656],[-110.51787,35.80658],[-110.51752,35.80659],[-110.51731,35.80657],[-110.51715,35.80653],[-110.51701,35.80648],[-110.51688,35.80641],[-110.51674,35.80633],[-110.51663,35.80625],[-110.51651,35.80615],[-110.51636,35.80599],[-110.51629,35.80588],[-110.5161,35.80549],[-110.51573,35.80452],[-110.51555,35.80408],[-110.5154,35.80365],[-110.51503,35.80266],[-110.51447,35.80116],[-110.5138,35.79939],[-110.51307,35.79752],[-110.51286,35.79711],[-110.51254,35.79658],[-110.51236,35.79633],[-110.51203,35.79598],[-110.51172,35.7957],[-110.51118,35.79529],[-110.51095,35.79514],[-110.51087,35.79509],[-110.51059,35.79493],[-110.51026,35.79476],[-110.50992,35.79461],[-110.50941,35.79442],[-110.50906,35.79432],[-110.50788,35.794],[-110.50745,35.79388],[-110.50644,35.7936],[-110.5058,35.79343],[-110.50523,35.79332],[-110.5046,35.7932],[-110.50421,35.79314],[-110.5039,35.79313],[-110.50328,35.7931],[-110.50246,35.79306],[-110.502,35.79304],[-110.50108,35.793],[-110.50023,35.79297],[-110.50004,35.79296],[-110.49917,35.79292],[-110.49844,35.79289],[-110.49746,35.79286],[-110.49718,35.79285],[-110.49617,35.7928],[-110.49564,35.79278],[-110.49554,35.79277],[-110.49431,35.79272],[-110.49356,35.79268],[-110.49256,35.79265],[-110.49238,35.79264],[-110.49222,35.79263],[-110.49203,35.79262],[-110.4913,35.79258],[-110.48896,35.79249],[-110.4884,35.79248],[-110.48789,35.79248],[-110.48746,35.7925],[-110.48691,35.79254],[-110.48599,35.79261],[-110.48535,35.79268],[-110.48506,35.79273],[-110.48461,35.79279],[-110.48347,35.79302],[-110.48287,35.79313],[-110.48237,35.79323],[-110.48149,35.79342],[-110.48091,35.79353],[-110.48015,35.79369],[-110.47985,35.79374],[-110.47778,35.79416],[-110.4773,35.79425],[-110.47669,35.79438],[-110.47567,35.79458],[-110.47399,35.79492],[-110.47391,35.79494],[-110.47261,35.7952],[-110.47203,35.79531],[-110.47141,35.79543],[-110.47065,35.79559],[-110.46922,35.79587],[-110.46677,35.79635],[-110.46646,35.79641],[-110.4651,35.7967],[-110.46498,35.79673],[-110.4647,35.79678],[-110.46434,35.79686],[-110.46215,35.79729],[-110.46167,35.79739],[-110.46155,35.79742],[-110.46129,35.79747],[-110.46089,35.79754],[-110.45917,35.79789],[-110.45827,35.79807],[-110.45677,35.79836],[-110.45641,35.79843],[-110.45587,35.79855],[-110.45512,35.7987],[-110.45423,35.79888],[-110.45365,35.799],[-110.45354,35.79903],[-110.45237,35.79926],[-110.45068,35.7996],[-110.45022,35.79969],[-110.4499,35.79975],[-110.44898,35.79993],[-110.44842,35.80005],[-110.44799,35.80014],[-110.44631,35.80046],[-110.44575,35.80058],[-110.44485,35.80078],[-110.44337,35.80107],[-110.44255,35.80123],[-110.44196,35.80135],[-110.43758,35.80222],[-110.43701,35.80231],[-110.4365,35.80241],[-110.43609,35.80249],[-110.43436,35.80285],[-110.43316,35.80311],[-110.43236,35.80326],[-110.42887,35.80392],[-110.42757,35.80415],[-110.42632,35.80441],[-110.42513,35.80466],[-110.42442,35.80481],[-110.42427,35.80484],[-110.42413,35.80487],[-110.42239,35.80522],[-110.42137,35.80547],[-110.42095,35.80559],[-110.42068,35.80567],[-110.41957,35.80614],[-110.41906,35.80639],[-110.41861,35.80667],[-110.41693,35.80775],[-110.41626,35.80817],[-110.41348,35.80993],[-110.41247,35.81057],[-110.41018,35.81206],[-110.40986,35.81225],[-110.4087,35.81298],[-110.40678,35.81418],[-110.40591,35.81471],[-110.40576,35.81482],[-110.40548,35.815],[-110.40484,35.8154],[-110.40412,35.81587],[-110.4037,35.81615],[-110.40341,35.81634],[-110.40277,35.81676],[-110.4024,35.817],[-110.40197,35.81727],[-110.40089,35.81795],[-110.40014,35.81843],[-110.39966,35.81875],[-110.39853,35.81945],[-110.39803,35.81979],[-110.39766,35.82002],[-110.3966,35.82069],[-110.39551,35.8214],[-110.39531,35.82152],[-110.39454,35.822],[-110.39451,35.82202],[-110.39333,35.82278],[-110.39275,35.82314],[-110.39219,35.8235],[-110.3917,35.82381],[-110.39084,35.82436],[-110.39031,35.8247],[-110.39006,35.82486],[-110.39001,35.82489],[-110.38995,35.82493],[-110.38983,35.82501],[-110.38964,35.82513],[-110.3895,35.82522],[-110.38932,35.82534],[-110.38927,35.82537],[-110.38889,35.82562],[-110.38849,35.82587],[-110.38828,35.826],[-110.38795,35.82622],[-110.38777,35.82633],[-110.38763,35.82641],[-110.38751,35.82648],[-110.38727,35.82664],[-110.38714,35.82672],[-110.38699,35.82681],[-110.38579,35.82761],[-110.38549,35.8278],[-110.38525,35.82798],[-110.38491,35.82823],[-110.38466,35.82843],[-110.38431,35.82872],[-110.38397,35.82901],[-110.38382,35.82915],[-110.38314,35.82981],[-110.3831,35.82984],[-110.38259,35.83041],[-110.38225,35.83077],[-110.38194,35.83117],[-110.38153,35.83171],[-110.38151,35.83173],[-110.38123,35.83215],[-110.38104,35.83245],[-110.38102,35.83249],[-110.38081,35.83282],[-110.38037,35.83358],[-110.38035,35.83361],[-110.38028,35.83374],[-110.37991,35.8344],[-110.37976,35.83467],[-110.37942,35.83527],[-110.37935,35.8354],[-110.37905,35.83599],[-110.37881,35.8364],[-110.37861,35.83674],[-110.37839,35.83707],[-110.37818,35.83736],[-110.37803,35.83751],[-110.37791,35.83762],[-110.37775,35.83777],[-110.37741,35.83805],[-110.37697,35.83833],[-110.37675,35.83844],[-110.37631,35.83865],[-110.37547,35.83903],[-110.37502,35.83923],[-110.37466,35.83938],[-110.37365,35.83981],[-110.37273,35.84021],[-110.3722,35.84045],[-110.37215,35.84047],[-110.37207,35.8405],[-110.37152,35.84074],[-110.3715,35.84075],[-110.37127,35.84084],[-110.37095,35.84097],[-110.37037,35.84117],[-110.37006,35.84124],[-110.36975,35.84128],[-110.36939,35.84131],[-110.36887,35.84134],[-110.36867,35.84134],[-110.36827,35.84129],[-110.36779,35.8412],[-110.3676,35.84117],[-110.36688,35.84102],[-110.36593,35.8408],[-110.36521,35.84063],[-110.36361,35.84027],[-110.36354,35.84026],[-110.36305,35.84018],[-110.36231,35.84006],[-110.36116,35.8399],[-110.36106,35.83988],[-110.36015,35.83982],[-110.35835,35.83972],[-110.35725,35.83973],[-110.35638,35.83975],[-110.35575,35.8398],[-110.3529,35.84001],[-110.35232,35.84006],[-110.34496,35.84062],[-110.34421,35.84068],[-110.34311,35.84076],[-110.34136,35.84089],[-110.34014,35.84098],[-110.335,35.84136],[-110.33309,35.8415],[-110.33158,35.84163],[-110.32766,35.84192],[-110.32668,35.84199],[-110.32619,35.84199],[-110.32582,35.84198],[-110.32502,35.84192],[-110.32232,35.84151],[-110.32123,35.84133],[-110.31604,35.84054],[-110.31307,35.84006],[-110.3127,35.84],[-110.31252,35.83995],[-110.31132,35.83977],[-110.30894,35.83939],[-110.30804,35.83926],[-110.30792,35.83924],[-110.30691,35.83907],[-110.30612,35.83894],[-110.30561,35.83886],[-110.30536,35.83881],[-110.30509,35.83873],[-110.30476,35.83862],[-110.30439,35.83847],[-110.30412,35.83834],[-110.30382,35.83816],[-110.30317,35.83777],[-110.30265,35.83745],[-110.30189,35.83697],[-110.30129,35.83662],[-110.30045,35.83609],[-110.30022,35.83595],[-110.2996,35.83557],[-110.29836,35.83482],[-110.29788,35.83451],[-110.29736,35.8342],[-110.29704,35.83401],[-110.29671,35.83381],[-110.2963,35.83355],[-110.2956,35.83312],[-110.295,35.83276],[-110.29384,35.83205],[-110.29359,35.83189],[-110.29323,35.83169],[-110.29253,35.83136],[-110.29217,35.83121],[-110.29179,35.83106],[-110.29135,35.83092],[-110.29095,35.83081],[-110.29059,35.83072],[-110.29058,35.83072],[-110.29007,35.83062],[-110.28946,35.83053],[-110.28879,35.83043],[-110.28786,35.83031],[-110.28717,35.83021],[-110.28672,35.83016],[-110.28466,35.82988],[-110.28424,35.82983],[-110.28368,35.82975],[-110.28311,35.82968],[-110.28223,35.82965],[-110.28149,35.82966],[-110.28113,35.82968],[-110.28066,35.82971],[-110.27893,35.82988],[-110.27863,35.82991],[-110.27783,35.83],[-110.2774,35.83004],[-110.27656,35.83014],[-110.27637,35.83017],[-110.27607,35.83022],[-110.2758,35.83027],[-110.27512,35.83044],[-110.27433,35.83067],[-110.27399,35.83078],[-110.27379,35.83085],[-110.27358,35.83092],[-110.27336,35.83101],[-110.27281,35.83122],[-110.27219,35.8315],[-110.27119,35.83203],[-110.27056,35.83237],[-110.27013,35.83259],[-110.26963,35.83286],[-110.26919,35.83309],[-110.26857,35.83342],[-110.26818,35.83364],[-110.26766,35.83391],[-110.26728,35.83411],[-110.26694,35.83428],[-110.26526,35.83518],[-110.26484,35.8354],[-110.26358,35.83608],[-110.26313,35.8363],[-110.26297,35.83639],[-110.26228,35.83676],[-110.26136,35.83725],[-110.26092,35.83748],[-110.26054,35.83768],[-110.25995,35.83799],[-110.2598,35.83807],[-110.25963,35.83816],[-110.25911,35.83844],[-110.25804,35.83901],[-110.25737,35.83936],[-110.25685,35.83959],[-110.25656,35.83972],[-110.25607,35.83991],[-110.25602,35.83993],[-110.25569,35.84004],[-110.25532,35.84016],[-110.25492,35.84028],[-110.2545,35.84039],[-110.25391,35.84053],[-110.25346,35.84062],[-110.25165,35.84104],[-110.251,35.84118],[-110.25057,35.84128],[-110.25024,35.84136],[-110.25003,35.8414],[-110.2483,35.8418],[-110.24745,35.84199],[-110.24692,35.84209],[-110.24684,35.8421],[-110.24649,35.84216],[-110.24617,35.84219],[-110.24535,35.84222],[-110.24465,35.84221],[-110.2441,35.84216],[-110.24341,35.84203],[-110.24304,35.84194],[-110.24273,35.84185],[-110.24224,35.84172],[-110.24203,35.84166],[-110.24135,35.84147],[-110.24056,35.84124],[-110.24038,35.84119],[-110.2387,35.8407],[-110.23713,35.84025],[-110.23448,35.83949],[-110.23329,35.83913],[-110.23291,35.839],[-110.23288,35.83899],[-110.23258,35.83886],[-110.23231,35.83871],[-110.23203,35.83854],[-110.23173,35.83833],[-110.23132,35.83798],[-110.2313,35.83795],[-110.23099,35.83761],[-110.23066,35.83717],[-110.23003,35.83635],[-110.2284,35.8342],[-110.22792,35.83362],[-110.22743,35.83307],[-110.22684,35.83246],[-110.22544,35.83102],[-110.22286,35.82839],[-110.22211,35.82759],[-110.22187,35.82728],[-110.22178,35.82715],[-110.22164,35.82695],[-110.22147,35.82664],[-110.22131,35.82637],[-110.22099,35.82584],[-110.22035,35.82478],[-110.21943,35.82319],[-110.21917,35.82274],[-110.21901,35.82247],[-110.21882,35.82214],[-110.218,35.82076],[-110.21793,35.82064],[-110.2175,35.81989],[-110.21724,35.81943],[-110.2168,35.81873],[-110.21661,35.81845],[-110.21642,35.81822],[-110.21606,35.81787],[-110.21581,35.81767],[-110.21556,35.8175],[-110.21527,35.81731],[-110.215,35.81718],[-110.21469,35.81704],[-110.21429,35.8169],[-110.214,35.81682],[-110.21368,35.81674],[-110.21316,35.81667],[-110.21211,35.81659],[-110.21136,35.81654],[-110.20962,35.81644],[-110.20897,35.81638],[-110.20884,35.81637],[-110.20828,35.81627],[-110.2082,35.81626],[-110.20773,35.81617],[-110.20746,35.81609],[-110.20742,35.81608],[-110.20694,35.81591],[-110.20662,35.81578],[-110.20625,35.81559],[-110.20618,35.81555],[-110.20578,35.81531],[-110.20566,35.81522],[-110.20546,35.81509],[-110.20479,35.81456],[-110.20447,35.81432],[-110.20395,35.81392],[-110.20391,35.81389],[-110.20371,35.81377],[-110.20336,35.81361],[-110.20292,35.81345],[-110.20259,35.81332],[-110.20236,35.81325],[-110.20072,35.80859],[-110.20075,35.80858],[-110.20077,35.80857],[-110.20079,35.80861],[-110.20086,35.80877],[-110.20087,35.80885],[-110.20088,35.80913],[-110.20093,35.8095],[-110.20099,35.81015],[-110.20102,35.81061],[-110.20106,35.81116],[-110.20111,35.81174],[-110.20115,35.81206],[-110.2012,35.8122],[-110.20122,35.81226],[-110.20126,35.81234],[-110.20143,35.81256],[-110.20146,35.81262],[-110.20165,35.81282],[-110.20187,35.81298],[-110.20208,35.81311],[-110.20236,35.81325],[-110.20183,35.81307],[-110.20163,35.81291],[-110.2014,35.81267],[-110.20134,35.8126],[-110.2013,35.81254],[-110.20114,35.81235],[-110.20112,35.81229],[-110.20109,35.81215],[-110.20106,35.81204],[-110.20104,35.81189],[-110.20101,35.8117],[-110.20099,35.81138],[-110.20095,35.81094],[-110.20092,35.81052],[-110.20089,35.80999],[-110.20084,35.80944],[-110.20081,35.80896],[-110.20077,35.80873],[-110.20073,35.80862],[-110.20072,35.80859],[-110.20075,35.80858],[-110.20068,35.80846],[-110.20031,35.8079],[-110.20015,35.80764],[-110.19996,35.80723],[-110.19992,35.80708],[-110.1999,35.8069],[-110.19992,35.80665],[-110.19998,35.80622],[-110.2,35.80595],[-110.20001,35.80563],[-110.19998,35.80537],[-110.19994,35.80504],[-110.19984,35.80467],[-110.19968,35.80424],[-110.19959,35.80402],[-110.19944,35.80378],[-110.1993,35.80355],[-110.19898,35.80314],[-110.19881,35.80294],[-110.19854,35.80269],[-110.198,35.80225],[-110.19666,35.8012],[-110.19521,35.80007],[-110.19452,35.79951],[-110.19389,35.79903],[-110.19223,35.79771],[-110.19139,35.79706],[-110.19072,35.79651],[-110.18923,35.79535],[-110.1888,35.79502],[-110.18829,35.79461],[-110.18781,35.79425],[-110.18637,35.79308],[-110.18406,35.79125],[-110.18287,35.79031],[-110.18109,35.78892],[-110.17316,35.78267]]}},{"type":"Feature","properties":{"seq":3,"std_name":"America/Denver","clock":"MDT","time":"2:00","land":"Navajo Nation","t0":0.515167,"t1":0.551881,"km":9.73},"geometry":{"type":"LineString","coordinates":[[-110.17258,35.78222],[-110.1701,35.78026],[-110.16642,35.77736],[-110.16588,35.77694],[-110.16488,35.77616],[-110.16403,35.77547],[-110.16343,35.775],[-110.1621,35.77396],[-110.16158,35.77354],[-110.16136,35.77337],[-110.16086,35.77298],[-110.15924,35.77172],[-110.1584,35.77104],[-110.15801,35.77075],[-110.15767,35.77047],[-110.15721,35.77002],[-110.15701,35.7698],[-110.15686,35.7696],[-110.15653,35.76907],[-110.15609,35.76835],[-110.1558,35.76793],[-110.15558,35.76762],[-110.15535,35.76732],[-110.15493,35.76685],[-110.15467,35.76657],[-110.15435,35.76626],[-110.15415,35.76608],[-110.15388,35.76584],[-110.15363,35.76562],[-110.15332,35.76539],[-110.15302,35.76516],[-110.15266,35.76491],[-110.15183,35.76436],[-110.15081,35.76369],[-110.15015,35.76326],[-110.14907,35.76255],[-110.14852,35.76219],[-110.14839,35.76211],[-110.14707,35.76125],[-110.14536,35.76017],[-110.14418,35.75946],[-110.14361,35.75912],[-110.1433,35.75893],[-110.1428,35.75862],[-110.1423,35.75829],[-110.14211,35.75817],[-110.14107,35.75749],[-110.14041,35.75705],[-110.14031,35.75699],[-110.13987,35.7567],[-110.13877,35.75598],[-110.1383,35.75569],[-110.13765,35.75524],[-110.13643,35.75435],[-110.13504,35.75341],[-110.13392,35.75266],[-110.13245,35.7517],[-110.13058,35.75047],[-110.13012,35.7502],[-110.12977,35.75005],[-110.12944,35.74989],[-110.12886,35.74964],[-110.12814,35.74934],[-110.12754,35.7491],[-110.12745,35.74906],[-110.12642,35.74865],[-110.126,35.74847],[-110.12536,35.74814],[-110.12503,35.74795],[-110.12462,35.74765],[-110.12441,35.7475],[-110.12405,35.74723],[-110.12371,35.74693],[-110.12242,35.74577],[-110.12143,35.74485],[-110.12114,35.74457],[-110.12094,35.74436],[-110.12079,35.74419],[-110.12043,35.74368],[-110.12027,35.74341],[-110.12011,35.74313],[-110.11999,35.74288],[-110.1199,35.74267],[-110.11975,35.74222],[-110.11968,35.74198],[-110.11961,35.74165],[-110.11945,35.74062],[-110.11933,35.73992],[-110.11908,35.73825],[-110.11904,35.738],[-110.11894,35.7376],[-110.11883,35.73729],[-110.11871,35.73705],[-110.11852,35.73672],[-110.11835,35.73647],[-110.11824,35.73635],[-110.11816,35.73624],[-110.11802,35.73609],[-110.11772,35.73582],[-110.11744,35.73559],[-110.11713,35.7354],[-110.11674,35.73517],[-110.11637,35.73501],[-110.11599,35.73488],[-110.11559,35.73478],[-110.11519,35.7347],[-110.11485,35.73465],[-110.11467,35.73463],[-110.11371,35.73464],[-110.11316,35.73465],[-110.11203,35.73468],[-110.11161,35.7347],[-110.11131,35.73468],[-110.11105,35.73465],[-110.11073,35.73458],[-110.11019,35.7344],[-110.10996,35.7343],[-110.10978,35.7342],[-110.10939,35.73393],[-110.10913,35.73375],[-110.10893,35.73362],[-110.10874,35.73352],[-110.10853,35.73342],[-110.10841,35.73339],[-110.10824,35.73333],[-110.10793,35.73326],[-110.10743,35.73319],[-110.10724,35.73319],[-110.10703,35.7332],[-110.10656,35.73321],[-110.10191,35.73318],[-110.10041,35.73319],[-110.09998,35.73322],[-110.09954,35.73325],[-110.09922,35.73328],[-110.09904,35.73331],[-110.09882,35.73334],[-110.09848,35.7334],[-110.09815,35.73348],[-110.09689,35.73383],[-110.09367,35.73482],[-110.09241,35.7352]]}},{"type":"Feature","properties":{"seq":4,"std_name":"America/Phoenix","clock":"MST","time":"1:00","land":"Hopi","t0":0.551964,"t1":0.585246,"km":8.82},"geometry":{"type":"LineString","coordinates":[[-110.09218,35.73527],[-110.09077,35.73571],[-110.08938,35.73614],[-110.08698,35.73684],[-110.08569,35.73724],[-110.08426,35.73766],[-110.08159,35.73847],[-110.07952,35.7391],[-110.07715,35.73983],[-110.07666,35.73997],[-110.07272,35.74116],[-110.07131,35.74159],[-110.07071,35.74177],[-110.06831,35.74251],[-110.06529,35.74342],[-110.06341,35.74399],[-110.06245,35.74428],[-110.06175,35.74449],[-110.06123,35.74464],[-110.05926,35.74525],[-110.05863,35.74543],[-110.05714,35.74588],[-110.05635,35.74613],[-110.05554,35.74637],[-110.05479,35.74661],[-110.0539,35.74686],[-110.05287,35.74718],[-110.04889,35.74839],[-110.04794,35.74866],[-110.0472,35.7489],[-110.04635,35.74916],[-110.04556,35.7494],[-110.04443,35.74974],[-110.04395,35.74989],[-110.04344,35.75004],[-110.04057,35.75086],[-110.03807,35.75163],[-110.0362,35.7522],[-110.03606,35.75224],[-110.03507,35.75254],[-110.03256,35.75328],[-110.03154,35.75362],[-110.03074,35.75384],[-110.03041,35.75394],[-110.02399,35.7559],[-110.0218,35.75657],[-110.0158,35.75839],[-110.00751,35.76091],[-110.00639,35.76127],[-110.00575,35.76147],[-110.00422,35.7619],[-110.00327,35.76221],[-110.00244,35.76245],[-110.00067,35.76296]]}},{"type":"Feature","properties":{"seq":5,"std_name":"America/Denver","clock":"MDT","time":"2:00","land":"Navajo Nation","t0":0.585462,"t1":1.0,"km":109.81},"geometry":{"type":"LineString","coordinates":[[-110.00007,35.76314],[-109.9988,35.76353],[-109.99841,35.76365],[-109.99658,35.7642],[-109.99581,35.76444],[-109.99334,35.76519],[-109.99248,35.76547],[-109.99071,35.76599],[-109.98984,35.76627],[-109.98952,35.76637],[-109.98914,35.76649],[-109.98852,35.76665],[-109.98821,35.76672],[-109.98792,35.76675],[-109.98756,35.76678],[-109.98712,35.76679],[-109.98677,35.76676],[-109.98646,35.76673],[-109.98636,35.76672],[-109.98618,35.7667],[-109.98599,35.76666],[-109.98547,35.76652],[-109.98518,35.76641],[-109.98489,35.7663],[-109.98203,35.76532],[-109.98139,35.7651],[-109.9797,35.76453],[-109.97811,35.76397],[-109.97701,35.7636],[-109.97564,35.76314],[-109.97451,35.76274],[-109.97352,35.76239],[-109.97296,35.7622],[-109.97265,35.76209],[-109.97032,35.7613],[-109.96857,35.76071],[-109.96483,35.75941],[-109.96405,35.75916],[-109.96199,35.75845],[-109.96153,35.7583],[-109.96143,35.75826],[-109.95418,35.75577],[-109.95359,35.75556],[-109.94987,35.75429],[-109.94924,35.75407],[-109.94744,35.75345],[-109.9424,35.75173],[-109.94036,35.751],[-109.9401,35.75092],[-109.93792,35.75017],[-109.93743,35.75002],[-109.93695,35.74982],[-109.93609,35.74953],[-109.93531,35.74931],[-109.93441,35.74908],[-109.93373,35.74893],[-109.93288,35.74878],[-109.9321,35.74867],[-109.93115,35.74857],[-109.93034,35.74852],[-109.92704,35.74841],[-109.92624,35.74839],[-109.92286,35.74828],[-109.92231,35.74827],[-109.92029,35.74822],[-109.91788,35.74813],[-109.91776,35.74813],[-109.91712,35.74814],[-109.91658,35.74817],[-109.91632,35.74819],[-109.91596,35.74823],[-109.91535,35.74832],[-109.9148,35.74844],[-109.9139,35.74868],[-109.91327,35.74889],[-109.91173,35.7495],[-109.91091,35.74982],[-109.9103,35.75001],[-109.90592,35.7517],[-109.90061,35.75376],[-109.89965,35.75412],[-109.89942,35.75419],[-109.89856,35.75439],[-109.89796,35.75448],[-109.89774,35.7545],[-109.89706,35.75455],[-109.89656,35.75455],[-109.89594,35.75452],[-109.895,35.75439],[-109.89459,35.75429],[-109.89415,35.75417],[-109.89284,35.7538],[-109.88987,35.75296],[-109.88928,35.75279],[-109.88731,35.75223],[-109.88666,35.75205],[-109.88421,35.75135],[-109.88292,35.751],[-109.88108,35.75048],[-109.88071,35.75038],[-109.87996,35.75016],[-109.87941,35.75001],[-109.87927,35.74998],[-109.87863,35.74983],[-109.87752,35.74952],[-109.87577,35.74902],[-109.87534,35.7489],[-109.87503,35.74877],[-109.87444,35.7486],[-109.87117,35.74768],[-109.87076,35.74757],[-109.86991,35.74731],[-109.86831,35.7469],[-109.86766,35.74677],[-109.86671,35.74663],[-109.86563,35.74653],[-109.8655,35.74653],[-109.86536,35.74652],[-109.86424,35.74646],[-109.86362,35.74646],[-109.863,35.74648],[-109.86282,35.74649],[-109.86235,35.74652],[-109.86184,35.74654],[-109.86026,35.74663],[-109.85917,35.74669],[-109.85876,35.74671],[-109.85841,35.74673],[-109.85646,35.74682],[-109.85564,35.74687],[-109.85431,35.74697],[-109.85378,35.74705],[-109.85342,35.74711],[-109.85299,35.74721],[-109.8523,35.74743],[-109.85109,35.74784],[-109.84999,35.74824],[-109.84972,35.74833],[-109.84922,35.74858],[-109.84853,35.74893],[-109.8463,35.75004],[-109.84584,35.75028],[-109.84425,35.75109],[-109.84351,35.75149],[-109.84321,35.75164],[-109.84307,35.75171],[-109.84151,35.7525],[-109.84094,35.75281],[-109.83949,35.75354],[-109.83881,35.75389],[-109.83672,35.75498],[-109.83634,35.75515],[-109.83569,35.75538],[-109.8347,35.7557],[-109.83411,35.75581],[-109.83362,35.75589],[-109.83273,35.75599],[-109.83221,35.75602],[-109.83103,35.75603],[-109.82947,35.75606],[-109.82893,35.75607],[-109.82838,35.75607],[-109.8269,35.75611],[-109.82553,35.75613],[-109.8248,35.75614],[-109.82408,35.75614],[-109.82364,35.75616],[-109.82318,35.75616],[-109.82255,35.7562],[-109.82202,35.75629],[-109.82166,35.75636],[-109.82159,35.75638],[-109.82116,35.7565],[-109.82055,35.75671],[-109.82012,35.7569],[-109.81965,35.75714],[-109.81937,35.75732],[-109.81755,35.7586],[-109.81728,35.75881],[-109.81694,35.75904],[-109.81662,35.75926],[-109.81623,35.75947],[-109.81562,35.75979],[-109.8153,35.75993],[-109.81501,35.76006],[-109.81449,35.76024],[-109.81423,35.76033],[-109.81391,35.76043],[-109.81367,35.7605],[-109.81326,35.7606],[-109.81174,35.76099],[-109.81048,35.76133],[-109.80967,35.76157],[-109.80918,35.76174],[-109.80867,35.76194],[-109.8085,35.76202],[-109.808,35.76225],[-109.80771,35.76241],[-109.80672,35.76302],[-109.80609,35.76345],[-109.80521,35.76401],[-109.80463,35.76435],[-109.80414,35.76462],[-109.80276,35.76528],[-109.80246,35.76541],[-109.80122,35.76596],[-109.80015,35.76644],[-109.79914,35.76689],[-109.7979,35.76744],[-109.79665,35.768],[-109.79641,35.76808],[-109.79605,35.76818],[-109.79563,35.76824],[-109.79551,35.76825],[-109.79508,35.76826],[-109.79482,35.76825],[-109.79452,35.76821],[-109.79395,35.76806],[-109.79376,35.76798],[-109.79333,35.76776],[-109.7918,35.76686],[-109.79167,35.76678],[-109.79088,35.7663],[-109.78986,35.76573],[-109.78936,35.7654],[-109.78853,35.76489],[-109.78808,35.76461],[-109.78564,35.76317],[-109.78504,35.76278],[-109.78471,35.76259],[-109.78455,35.7625],[-109.78428,35.76236],[-109.78402,35.76224],[-109.78365,35.76209],[-109.78315,35.76189],[-109.78277,35.76175],[-109.78239,35.76164],[-109.78173,35.76148],[-109.78114,35.76139],[-109.78066,35.76132],[-109.77751,35.76089],[-109.77607,35.76072],[-109.77487,35.76058],[-109.77401,35.76052],[-109.77321,35.76047],[-109.77225,35.76043],[-109.77139,35.7604],[-109.77067,35.7604],[-109.77047,35.7604],[-109.76887,35.76041],[-109.76783,35.76042],[-109.76772,35.76043],[-109.76735,35.76044],[-109.76664,35.76047],[-109.76536,35.76047],[-109.7651,35.76048],[-109.7645,35.76049],[-109.76376,35.76051],[-109.76165,35.76053],[-109.75974,35.76057],[-109.7592,35.76057],[-109.75893,35.76058],[-109.75776,35.7606],[-109.75758,35.76061],[-109.75733,35.76062],[-109.75687,35.76067],[-109.7565,35.76074],[-109.75584,35.76091],[-109.75532,35.76107],[-109.7547,35.76133],[-109.75432,35.76154],[-109.75404,35.7617],[-109.75277,35.76257],[-109.75259,35.76269],[-109.75217,35.76295],[-109.75214,35.76297],[-109.75203,35.76304],[-109.75072,35.76395],[-109.74997,35.76449],[-109.7498,35.76457],[-109.74743,35.76617],[-109.74681,35.76659],[-109.74548,35.76748],[-109.74513,35.76773],[-109.74404,35.76844],[-109.74308,35.76911],[-109.74244,35.76954],[-109.74165,35.77007],[-109.74119,35.77037],[-109.7408,35.77063],[-109.74018,35.77105],[-109.73734,35.77297],[-109.73661,35.77345],[-109.7349,35.7746],[-109.7342,35.77507],[-109.73386,35.7753],[-109.73356,35.77551],[-109.73315,35.77579],[-109.73268,35.7761],[-109.731,35.77723],[-109.7299,35.77793],[-109.72919,35.77835],[-109.72889,35.77852],[-109.72836,35.77881],[-109.72773,35.77916],[-109.72751,35.77928],[-109.72691,35.77958],[-109.72547,35.78027],[-109.72539,35.7803],[-109.72513,35.78041],[-109.72407,35.78086],[-109.7237,35.78101],[-109.72244,35.78151],[-109.72192,35.78169],[-109.72105,35.78198],[-109.72012,35.78226],[-109.71912,35.78255],[-109.71852,35.78273],[-109.71804,35.78285],[-109.71626,35.78324],[-109.7156,35.78337],[-109.71479,35.78352],[-109.71424,35.78362],[-109.71334,35.78375],[-109.71258,35.78386],[-109.71189,35.78396],[-109.71162,35.784],[-109.71095,35.78409],[-109.70974,35.78427],[-109.70937,35.78432],[-109.70851,35.78444],[-109.70578,35.78483],[-109.705,35.78495],[-109.70351,35.78515],[-109.70325,35.78518],[-109.70304,35.78521],[-109.70093,35.78551],[-109.70047,35.78558],[-109.7001,35.78564],[-109.69656,35.78612],[-109.6951,35.78634],[-109.69446,35.78642],[-109.69427,35.78645],[-109.69204,35.78676],[-109.69128,35.78687],[-109.6908,35.78695],[-109.68994,35.78706],[-109.68957,35.78713],[-109.68893,35.78722],[-109.68837,35.78729],[-109.68818,35.78731],[-109.6878,35.78737],[-109.68522,35.78772],[-109.68346,35.78796],[-109.68228,35.78811],[-109.68069,35.7882],[-109.67973,35.7882],[-109.67853,35.78815],[-109.67777,35.7881],[-109.67696,35.78799],[-109.67627,35.78789],[-109.67596,35.78784],[-109.67508,35.78766],[-109.67434,35.78749],[-109.67307,35.78713],[-109.67227,35.78686],[-109.67134,35.7865],[-109.67091,35.78632],[-109.67006,35.78594],[-109.66947,35.78561],[-109.66821,35.78494],[-109.6669,35.78427],[-109.66488,35.7832],[-109.66457,35.78304],[-109.66405,35.78276],[-109.66356,35.78251],[-109.66297,35.7822],[-109.66148,35.78133],[-109.66009,35.78044],[-109.65956,35.78007],[-109.659,35.77969],[-109.65871,35.77948],[-109.65638,35.7777],[-109.65591,35.77732],[-109.65525,35.77681],[-109.65121,35.77366],[-109.64935,35.7722],[-109.64598,35.76957],[-109.64325,35.76744],[-109.64199,35.76647],[-109.63997,35.76489],[-109.63959,35.76459],[-109.63678,35.76241],[-109.63493,35.76096],[-109.63317,35.75958],[-109.63248,35.75905],[-109.63174,35.75847],[-109.63042,35.75744],[-109.63007,35.75717],[-109.6285,35.75595],[-109.62785,35.75542],[-109.62707,35.75469],[-109.62691,35.75454],[-109.62633,35.75394],[-109.62611,35.75372],[-109.62581,35.7533],[-109.62559,35.75299],[-109.62547,35.75284],[-109.625,35.75225],[-109.62266,35.74938],[-109.62231,35.74896],[-109.62203,35.74862],[-109.62183,35.74837],[-109.62159,35.74806],[-109.62129,35.74769],[-109.62103,35.74737],[-109.62077,35.74705],[-109.62036,35.74659],[-109.62029,35.74652],[-109.62016,35.7464],[-109.6198,35.74605],[-109.6197,35.74597],[-109.6195,35.74579],[-109.61883,35.74533],[-109.61849,35.74511],[-109.6177,35.74466],[-109.61719,35.74443],[-109.61669,35.74426],[-109.6161,35.74402],[-109.614,35.74324],[-109.61339,35.74298],[-109.61288,35.74271],[-109.61247,35.74247],[-109.61213,35.74226],[-109.61191,35.7421],[-109.61179,35.74202],[-109.61135,35.7417],[-109.61107,35.74145],[-109.60985,35.74037],[-109.60971,35.74024],[-109.60923,35.73982],[-109.60744,35.73826],[-109.60696,35.73784],[-109.60508,35.7362],[-109.60492,35.73606],[-109.60443,35.73565],[-109.60367,35.73498],[-109.60324,35.73461],[-109.60246,35.73398],[-109.60205,35.73367],[-109.60134,35.7332],[-109.60101,35.733],[-109.60023,35.73254],[-109.59968,35.73225],[-109.59882,35.73184],[-109.59832,35.73161],[-109.59713,35.73104],[-109.59651,35.73078],[-109.59551,35.7303],[-109.59538,35.73024],[-109.59474,35.72995],[-109.59385,35.72951],[-109.59161,35.72848],[-109.59032,35.72788],[-109.58852,35.72704],[-109.58755,35.72657],[-109.58695,35.72627],[-109.58607,35.72587],[-109.5845,35.72513],[-109.58409,35.72494],[-109.5838,35.7248],[-109.58286,35.72437],[-109.58265,35.72427],[-109.58144,35.7237],[-109.57808,35.72214],[-109.5761,35.72122],[-109.57487,35.72064],[-109.57358,35.72003],[-109.57249,35.71952],[-109.57231,35.71944],[-109.57194,35.71928],[-109.57155,35.71912],[-109.57002,35.71851],[-109.56827,35.71784],[-109.56819,35.71781],[-109.56796,35.71772],[-109.56712,35.71734],[-109.56664,35.71712],[-109.56624,35.71691],[-109.56552,35.71655],[-109.56528,35.71643],[-109.56374,35.71567],[-109.56254,35.71507],[-109.56199,35.71478],[-109.56126,35.71437],[-109.56101,35.71423],[-109.56084,35.71413],[-109.56069,35.71404],[-109.55958,35.71338],[-109.55927,35.71321],[-109.55912,35.71313],[-109.55887,35.71301],[-109.55785,35.71252],[-109.55742,35.71232],[-109.55439,35.71089],[-109.55416,35.71078],[-109.55377,35.7106],[-109.55353,35.71049],[-109.55331,35.71038],[-109.55273,35.7101],[-109.55188,35.7097],[-109.55091,35.70924],[-109.55027,35.709],[-109.54993,35.70889],[-109.54962,35.70881],[-109.54959,35.7088],[-109.54944,35.70878],[-109.54889,35.70867],[-109.54856,35.70863],[-109.54823,35.70861],[-109.548,35.7086],[-109.54765,35.7086],[-109.54707,35.70862],[-109.54623,35.70867],[-109.54491,35.70878],[-109.54389,35.70883],[-109.54299,35.70889],[-109.54224,35.70893],[-109.5415,35.70899],[-109.5408,35.70902],[-109.54047,35.70904],[-109.54023,35.70906],[-109.53912,35.70914],[-109.53884,35.70915],[-109.53864,35.70916],[-109.53751,35.70922],[-109.5367,35.70927],[-109.53497,35.70938],[-109.53413,35.70944],[-109.53333,35.70949],[-109.53288,35.70952],[-109.53147,35.70961],[-109.53032,35.70967],[-109.52991,35.7097],[-109.52903,35.70974],[-109.52809,35.70981],[-109.52648,35.70992],[-109.52539,35.70997],[-109.52458,35.71002],[-109.52365,35.71009],[-109.52305,35.71011],[-109.52241,35.71016],[-109.51918,35.71038],[-109.51818,35.71045],[-109.51765,35.71048],[-109.5168,35.71054],[-109.51607,35.7106],[-109.51521,35.71064],[-109.51485,35.71065],[-109.51413,35.71069],[-109.51269,35.71077],[-109.51067,35.7109],[-109.50733,35.71113],[-109.50712,35.71114],[-109.50651,35.71118],[-109.50566,35.71123],[-109.50216,35.71146],[-109.50014,35.71156],[-109.49985,35.71158],[-109.49825,35.71168],[-109.49721,35.71175],[-109.49563,35.71186],[-109.49501,35.71192],[-109.49426,35.71202],[-109.49375,35.7121],[-109.49289,35.71227],[-109.49211,35.71245],[-109.49147,35.71264],[-109.49064,35.71287],[-109.48969,35.71322],[-109.48945,35.71332],[-109.48633,35.71462],[-109.48507,35.71515],[-109.47994,35.7173],[-109.47954,35.71746],[-109.47923,35.71758],[-109.47888,35.71769],[-109.47862,35.71778],[-109.47828,35.71789],[-109.47767,35.71806],[-109.47672,35.7183],[-109.47566,35.71852],[-109.4747,35.71869],[-109.47407,35.71876],[-109.47354,35.71881],[-109.4723,35.71889],[-109.47213,35.71889],[-109.47185,35.71891],[-109.47109,35.7189],[-109.47063,35.71889],[-109.46999,35.71885],[-109.46896,35.71877],[-109.46861,35.71872],[-109.46767,35.7186],[-109.46615,35.71837],[-109.46495,35.71819],[-109.46438,35.71811],[-109.4634,35.71797],[-109.46257,35.71785],[-109.46176,35.71772],[-109.46153,35.71769],[-109.46022,35.7175],[-109.45882,35.71729],[-109.45851,35.71725],[-109.45637,35.71693],[-109.45543,35.71678],[-109.45451,35.71665],[-109.45305,35.71643],[-109.45219,35.71632],[-109.45198,35.71628],[-109.4487,35.71581],[-109.44773,35.71565],[-109.44613,35.71542],[-109.44572,35.71536],[-109.44465,35.71526],[-109.44437,35.71525],[-109.44375,35.71522],[-109.44326,35.71522],[-109.443,35.71521],[-109.44279,35.7152],[-109.44192,35.71522],[-109.44145,35.71524],[-109.44089,35.71528],[-109.4406,35.71529],[-109.43856,35.71542],[-109.43816,35.71546],[-109.43643,35.71554],[-109.4287,35.71602],[-109.42739,35.7161],[-109.42452,35.71628],[-109.42227,35.71643],[-109.42145,35.71647],[-109.42064,35.71652],[-109.42038,35.71654],[-109.41653,35.71678],[-109.41562,35.71683],[-109.41231,35.71704],[-109.41258,35.71672],[-109.4122,35.71675],[-109.41134,35.7168],[-109.41032,35.71686],[-109.4093,35.71693],[-109.40851,35.71697],[-109.40819,35.71699],[-109.40707,35.71707],[-109.40701,35.71707],[-109.40579,35.71712],[-109.40344,35.71728],[-109.40311,35.71729],[-109.40287,35.7173],[-109.40198,35.71736],[-109.39977,35.71748],[-109.39949,35.71749],[-109.39789,35.7176],[-109.39147,35.71799],[-109.39101,35.71802],[-109.39095,35.71803],[-109.39003,35.71808],[-109.38867,35.71818],[-109.38665,35.71829],[-109.3857,35.71835],[-109.38498,35.71838],[-109.38422,35.71844],[-109.38344,35.71848],[-109.38249,35.71853],[-109.38118,35.71862],[-109.37982,35.71871],[-109.37722,35.71888],[-109.37617,35.71896],[-109.37407,35.71905],[-109.37309,35.71911],[-109.37218,35.71918],[-109.37149,35.71921],[-109.37042,35.71927],[-109.36981,35.71926],[-109.36927,35.71924],[-109.36861,35.71923],[-109.36798,35.71919],[-109.36614,35.71899],[-109.36554,35.71891],[-109.36516,35.71883],[-109.36372,35.71862],[-109.36262,35.71847],[-109.36064,35.71816],[-109.36041,35.71813],[-109.36028,35.71811],[-109.36015,35.71809],[-109.35813,35.71781],[-109.35762,35.71772],[-109.35719,35.71765],[-109.35608,35.71752],[-109.35542,35.71742],[-109.35275,35.71702],[-109.35165,35.71686],[-109.35043,35.71666],[-109.3497,35.71656],[-109.34817,35.71636],[-109.34779,35.7163],[-109.34598,35.71601],[-109.3445,35.7158],[-109.34357,35.71569],[-109.34312,35.7156],[-109.34246,35.71548],[-109.34144,35.71529],[-109.34034,35.71507],[-109.3399,35.71497],[-109.33819,35.71442],[-109.33735,35.71414],[-109.33498,35.71341],[-109.33451,35.71327],[-109.33312,35.71282],[-109.3319,35.71247],[-109.33127,35.71224],[-109.33091,35.71211],[-109.33029,35.7119],[-109.32893,35.71144],[-109.32822,35.71123],[-109.32752,35.711],[-109.32681,35.7108],[-109.32657,35.71076],[-109.32641,35.71075],[-109.32619,35.71077],[-109.32578,35.71077],[-109.41231,35.71704],[-109.41148,35.71709],[-109.41007,35.71718],[-109.40941,35.71722],[-109.40829,35.71729],[-109.40737,35.71734],[-109.40517,35.71747],[-109.40447,35.71752],[-109.40312,35.7176],[-109.4019,35.71767],[-109.39986,35.71781],[-109.39349,35.71819],[-109.39223,35.71827],[-109.39097,35.71834],[-109.39072,35.71835],[-109.38682,35.7186],[-109.38544,35.71868],[-109.38386,35.71878],[-109.37664,35.71922],[-109.37502,35.71931],[-109.37465,35.71933],[-109.37407,35.71937],[-109.37356,35.71939],[-109.37145,35.71952],[-109.37066,35.71956],[-109.36986,35.71957],[-109.36974,35.71958],[-109.36865,35.71955],[-109.36819,35.71953],[-109.36725,35.71944],[-109.36643,35.71933],[-109.36613,35.7193],[-109.365,35.71914],[-109.36349,35.7189],[-109.36283,35.71881],[-109.36246,35.71875],[-109.36159,35.71863],[-109.36113,35.71855],[-109.3608,35.71851],[-109.36036,35.71844],[-109.3602,35.71841],[-109.35826,35.71813],[-109.35699,35.71794],[-109.35674,35.71791],[-109.35633,35.71784],[-109.35578,35.71777],[-109.35503,35.71766],[-109.35392,35.7175],[-109.35319,35.71739],[-109.35259,35.71729],[-109.35011,35.71693],[-109.34927,35.71681],[-109.34809,35.71663],[-109.34693,35.71646],[-109.34575,35.71629],[-109.34474,35.71614],[-109.34424,35.71607],[-109.34356,35.71596],[-109.34302,35.71589],[-109.34229,35.71577],[-109.34172,35.71568],[-109.34144,35.71563],[-109.34071,35.71547],[-109.34007,35.71532],[-109.33974,35.71523],[-109.33886,35.71496],[-109.33604,35.71405],[-109.33567,35.71393],[-109.33359,35.71327],[-109.33312,35.71313],[-109.33263,35.71296],[-109.33213,35.71281],[-109.33156,35.71262],[-109.33112,35.71248],[-109.32995,35.7121],[-109.32948,35.71196],[-109.32871,35.7117],[-109.32803,35.71149],[-109.32761,35.71137],[-109.32721,35.71122],[-109.32635,35.71095],[-109.32578,35.71077],[-109.32497,35.71051],[-109.32375,35.71013],[-109.32225,35.70963],[-109.32199,35.70954],[-109.32151,35.7094],[-109.3211,35.70926],[-109.32065,35.70912],[-109.32024,35.70898],[-109.31985,35.70887],[-109.3184,35.7084],[-109.31792,35.70824],[-109.31727,35.70803],[-109.31651,35.70778],[-109.31596,35.70761],[-109.31553,35.70748],[-109.31509,35.70733],[-109.3147,35.70721],[-109.31428,35.70707],[-109.31283,35.70661],[-109.31254,35.70652],[-109.31242,35.70646],[-109.3116,35.70619],[-109.31102,35.70599],[-109.30881,35.70528],[-109.30639,35.70451],[-109.30599,35.70439],[-109.30549,35.70426],[-109.30424,35.70393],[-109.30326,35.70366],[-109.30268,35.70352],[-109.30218,35.70339],[-109.29896,35.70255],[-109.29858,35.70245],[-109.29778,35.70225],[-109.29592,35.70175],[-109.29441,35.70138],[-109.29396,35.70125],[-109.29289,35.70098],[-109.29215,35.70078],[-109.29004,35.70023],[-109.28954,35.70011],[-109.2892,35.70001],[-109.28905,35.69997],[-109.28811,35.69973],[-109.28598,35.69919],[-109.28563,35.69908],[-109.28492,35.69891],[-109.28437,35.69875],[-109.28327,35.69848],[-109.28237,35.69823],[-109.28192,35.69812],[-109.27966,35.69753],[-109.27896,35.69734],[-109.27838,35.69716],[-109.27721,35.69683],[-109.27685,35.69672],[-109.27547,35.69632],[-109.27476,35.6961],[-109.27427,35.69597],[-109.27212,35.69533],[-109.27045,35.69485],[-109.26953,35.69456],[-109.26897,35.6944],[-109.26707,35.69382],[-109.26664,35.6937],[-109.26505,35.69325],[-109.26448,35.69308],[-109.26385,35.69291],[-109.26252,35.69251],[-109.26233,35.69246],[-109.26205,35.69238],[-109.25961,35.69164],[-109.2581,35.69121],[-109.25642,35.69071],[-109.25603,35.6906],[-109.25493,35.69028],[-109.25451,35.69015],[-109.2524,35.68953],[-109.25146,35.68925],[-109.24787,35.68821],[-109.24651,35.68783],[-109.24531,35.68745],[-109.2451,35.68738],[-109.2446,35.68722],[-109.2437,35.68696],[-109.24221,35.68653],[-109.24105,35.68619],[-109.24045,35.68604],[-109.23936,35.6858],[-109.23735,35.6854],[-109.2369,35.68532],[-109.23623,35.68518],[-109.23551,35.68505],[-109.23462,35.68486],[-109.22808,35.68353],[-109.22668,35.68324],[-109.22614,35.68313],[-109.22575,35.68306],[-109.225,35.6829],[-109.22433,35.68277],[-109.22378,35.68267],[-109.2211,35.68212],[-109.22039,35.68198],[-109.2204,35.68196],[-109.21666,35.68117],[-109.21598,35.68102],[-109.21557,35.68091],[-109.21512,35.68082],[-109.21418,35.68062],[-109.21393,35.68056],[-109.21355,35.6805],[-109.21325,35.68043],[-109.21285,35.68035],[-109.21155,35.68008],[-109.21126,35.68002],[-109.21088,35.67995],[-109.21019,35.67981],[-109.20938,35.67966],[-109.20729,35.67923],[-109.20645,35.67905],[-109.20584,35.67893],[-109.20475,35.67871],[-109.20454,35.67866],[-109.20341,35.67842],[-109.20312,35.67837],[-109.2029,35.67832],[-109.20146,35.67803],[-109.2011,35.67797],[-109.20049,35.67785],[-109.20002,35.67775],[-109.19881,35.67751],[-109.1967,35.67708],[-109.19629,35.677],[-109.19501,35.67674],[-109.19409,35.67656],[-109.19383,35.6765],[-109.19291,35.67633],[-109.19251,35.67624],[-109.19183,35.6761],[-109.1899,35.6757],[-109.1895,35.67563],[-109.18798,35.67531],[-109.18741,35.67519],[-109.18579,35.67487],[-109.1837,35.67445],[-109.183,35.67431],[-109.18268,35.67424],[-109.18196,35.6741],[-109.17999,35.67371],[-109.17921,35.67355],[-109.1779,35.67328],[-109.17618,35.67292],[-109.17481,35.67264],[-109.17165,35.67202],[-109.17114,35.67192],[-109.17112,35.67191],[-109.17008,35.67169],[-109.16936,35.67149],[-109.16883,35.67131],[-109.16815,35.67103],[-109.16753,35.67072],[-109.16709,35.67047],[-109.16677,35.67027],[-109.16632,35.66994],[-109.16603,35.66971],[-109.16566,35.6694],[-109.16532,35.66907],[-109.16506,35.6688],[-109.16459,35.66825],[-109.16223,35.66534],[-109.162,35.66506],[-109.16166,35.66463],[-109.16093,35.66372],[-109.15759,35.65962],[-109.15692,35.65881],[-109.15632,35.65818],[-109.15588,35.65782],[-109.15559,35.6576],[-109.15516,35.65731],[-109.1546,35.657],[-109.15414,35.65679],[-109.15406,35.65676],[-109.15367,35.65661],[-109.15322,35.65646],[-109.15241,35.65624],[-109.15183,35.65615],[-109.15109,35.65608],[-109.15052,35.65607],[-109.15042,35.65607],[-109.14976,35.6561],[-109.14897,35.65617],[-109.14616,35.65654],[-109.1451,35.65667],[-109.14413,35.65679],[-109.14165,35.6571],[-109.14007,35.6573],[-109.13754,35.65761],[-109.12789,35.65884],[-109.12358,35.65938],[-109.12301,35.65943],[-109.12257,35.65947],[-109.12181,35.65949],[-109.12146,35.6595],[-109.12069,35.65954],[-109.11914,35.65947],[-109.11818,35.65936],[-109.1174,35.65924],[-109.11717,35.65921],[-109.1164,35.65907],[-109.11556,35.6589],[-109.11519,35.65881],[-109.11485,35.65872],[-109.11431,35.65857],[-109.11396,35.65847],[-109.11379,35.65843],[-109.11295,35.65816],[-109.11192,35.65778],[-109.11144,35.65758],[-109.11095,35.65738],[-109.11073,35.65729],[-109.11035,35.65715],[-109.10949,35.65681],[-109.10938,35.65677],[-109.10894,35.65659],[-109.10863,35.65647],[-109.10808,35.65625],[-109.10731,35.65599],[-109.10698,35.65588],[-109.10666,35.65578],[-109.10613,35.65563],[-109.10595,35.65559],[-109.10512,35.65541],[-109.10482,35.65534],[-109.1048,35.65534],[-109.10434,35.65526],[-109.1035,35.65516],[-109.10316,35.65514],[-109.10263,35.6551],[-109.10225,35.6551],[-109.10173,35.65511],[-109.10149,35.65512],[-109.10124,35.65512],[-109.10075,35.65515],[-109.10002,35.65523],[-109.09996,35.65523],[-109.09969,35.65527],[-109.09861,35.65549],[-109.09821,35.65558],[-109.09806,35.6556],[-109.09754,35.6557],[-109.09617,35.65596],[-109.09588,35.65602],[-109.09334,35.65652],[-109.09252,35.65668],[-109.09185,35.65681],[-109.09067,35.65704],[-109.09002,35.65716],[-109.0892,35.65732],[-109.0884,35.65746],[-109.08761,35.65762],[-109.08753,35.65764],[-109.08739,35.65767],[-109.0843,35.65828],[-109.08293,35.65853],[-109.08116,35.65888],[-109.08011,35.65908],[-109.07942,35.65921],[-109.0792,35.65925],[-109.07619,35.65985],[-109.0753,35.66002],[-109.07398,35.66027],[-109.07391,35.66028],[-109.07335,35.66038],[-109.07036,35.66097],[-109.06937,35.66117],[-109.0676,35.66152],[-109.06722,35.66159],[-109.06522,35.66196],[-109.06465,35.66207],[-109.0639,35.66221],[-109.06336,35.66231],[-109.06179,35.66261],[-109.06065,35.66284],[-109.0602,35.66292],[-109.05974,35.66301],[-109.05908,35.66313],[-109.05845,35.66327],[-109.05828,35.66329],[-109.05746,35.6634],[-109.05703,35.66342],[-109.05666,35.66345],[-109.05627,35.66345],[-109.05581,35.66346],[-109.05542,35.66344],[-109.05448,35.66341],[-109.05328,35.66335],[-109.05218,35.66329],[-109.05143,35.66325],[-109.05102,35.66322],[-109.04913,35.66308],[-109.04894,35.66306],[-109.04879,35.66304],[-109.04831,35.66297],[-109.04788,35.66288],[-109.04777,35.66285],[-109.04725,35.66268],[-109.04694,35.66255],[-109.04649,35.66234],[-109.04621,35.66218]]}}]}