{"type":"FeatureCollection","features":[{"type":"Feature","properties":{"std_name":"ESB to the Idaho sliver","miles":1893,"std_note":"Great circle, WGS84, from the pin to a representative point in Yellowstone's Idaho sliver."},"geometry":{"type":"LineString","coordinates":[[-73.985654,40.748428],[-74.24883,40.82058],[-74.51258,40.89214],[-74.7769,40.96309],[-75.04178,41.03343],[-75.30722,41.10316],[-75.57322,41.17228],[-75.83978,41.24078],[-76.10689,41.30866],[-76.37455,41.37591],[-76.64277,41.44255],[-76.91153,41.50856],[-77.18083,41.57393],[-77.45068,41.63868],[-77.72106,41.70279],[-77.99198,41.76626],[-78.26343,41.82909],[-78.53541,41.89127],[-78.80792,41.95281],[-79.08094,42.0137],[-79.35449,42.07394],[-79.62855,42.13353],[-79.90312,42.19246],[-80.1782,42.25073],[-80.45378,42.30834],[-80.72987,42.36529],[-81.00645,42.42157],[-81.28352,42.47717],[-81.56108,42.53211],[-81.83912,42.58638],[-82.11765,42.63997],[-82.39665,42.69288],[-82.67612,42.7451],[-82.95605,42.79665],[-83.23645,42.84751],[-83.51731,42.89768],[-83.79862,42.94716],[-84.08037,42.99594],[-84.36257,43.04404],[-84.64521,43.09143],[-84.92828,43.13813],[-85.21178,43.18412],[-85.4957,43.22941],[-85.78004,43.27399],[-86.06479,43.31787],[-86.34994,43.36103],[-86.6355,43.40348],[-86.92146,43.44522],[-87.2078,43.48625],[-87.49453,43.52655],[-87.78164,43.56613],[-88.06912,43.60499],[-88.35696,43.64313],[-88.64517,43.68054],[-88.93373,43.71723],[-89.22265,43.75318],[-89.5119,43.7884],[-89.80149,43.82289],[-90.09141,43.85665],[-90.38166,43.88966],[-90.67222,43.92194],[-90.96309,43.95349],[-91.25427,43.98428],[-91.54574,44.01434],[-91.83751,44.04365],[-92.12955,44.07222],[-92.42188,44.10003],[-92.71448,44.1271],[-93.00734,44.15342],[-93.30046,44.17899],[-93.59382,44.20381],[-93.88743,44.22787],[-94.18128,44.25117],[-94.47535,44.27372],[-94.76965,44.29551],[-95.06416,44.31654],[-95.35887,44.33682],[-95.65379,44.35633],[-95.9489,44.37508],[-96.24419,44.39306],[-96.53966,44.41029],[-96.83529,44.42675],[-97.1311,44.44244],[-97.42705,44.45736],[-97.72315,44.47152],[-98.01939,44.48491],[-98.31577,44.49753],[-98.61226,44.50939],[-98.90888,44.52047],[-99.2056,44.53078],[-99.50242,44.54032],[-99.79934,44.54909],[-100.09634,44.55709],[-100.39342,44.56431],[-100.69056,44.57076],[-100.98777,44.57644],[-101.28504,44.58134],[-101.58235,44.58548],[-101.87969,44.58883],[-102.17707,44.59141],[-102.47447,44.59322],[-102.77189,44.59426],[-103.06931,44.59452],[-103.36673,44.594],[-103.66414,44.59271],[-103.96153,44.59065],[-104.2589,44.58781],[-104.55624,44.58419],[-104.85353,44.57981],[-105.15078,44.57465],[-105.44797,44.56871],[-105.7451,44.56201],[-106.04215,44.55453],[-106.33912,44.54627],[-106.63601,44.53725],[-106.9328,44.52746],[-107.22949,44.51689],[-107.52606,44.50555],[-107.82252,44.49344],[-108.11885,44.48057],[-108.41504,44.46692],[-108.7111,44.45251],[-109.007,44.43733],[-109.30275,44.42139],[-109.59833,44.40468],[-109.89374,44.3872],[-110.18898,44.36896],[-110.48402,44.34996],[-110.77887,44.3302],[-111.07352,44.30967]]}}]}