{"type":"FeatureCollection","features":[{"type":"Feature","properties":{"std_name":"Illinois 4th (119th Congress)"},"geometry":{"type":"Polygon","coordinates":[[[-87.96722,41.84624],[-87.95747,41.84658],[-87.9575,41.85311],[-87.95789,41.85311],[-87.95793,41.85615],[-87.95329,41.85632],[-87.9533,41.85754],[-87.94975,41.85767],[-87.94948,41.85892],[-87.94858,41.85895],[-87.94862,41.86103],[-87.93956,41.86128],[-87.93944,41.86152],[-87.93855,41.86154],[-87.93972,41.87441],[-87.94098,41.87437],[-87.94116,41.87619],[-87.93987,41.87623],[-87.93997,41.8821],[-87.93932,41.88188],[-87.93998,41.88353],[-87.93987,41.90626],[-87.92042,41.90684],[-87.92024,41.94313],[-87.91467,41.94333],[-87.9149,41.94817],[-87.90589,41.94555],[-87.89107,41.9401],[-87.88778,41.94005],[-87.88792,41.94265],[-87.88649,41.94376],[-87.88527,41.94365],[-87.88521,41.94223],[-87.87534,41.93911],[-87.8753,41.93818],[-87.87037,41.93673],[-87.87041,41.93766],[-87.85881,41.93429],[-87.85972,41.9369],[-87.84959,41.93729],[-87.84861,41.93636],[-87.84744,41.93443],[-87.84793,41.93311],[-87.8478,41.93255],[-87.84615,41.93063],[-87.84112,41.9234],[-87.83737,41.92024],[-87.83371,41.91808],[-87.83316,41.9161],[-87.83368,41.912],[-87.83353,41.91138],[-87.83237,41.91049],[-87.83149,41.91034],[-87.8301,41.91061],[-87.82852,41.91188],[-87.8268,41.91175],[-87.82546,41.91101],[-87.82545,41.90854],[-87.82451,41.90856],[-87.8248,41.9077],[-87.82602,41.9067],[-87.83075,41.9048],[-87.83237,41.90359],[-87.8335,41.90155],[-87.83465,41.89726],[-87.83595,41.89726],[-87.83591,41.89633],[-87.84077,41.89625],[-87.8407,41.89444],[-87.83949,41.89446],[-87.83938,41.89173],[-87.84059,41.89171],[-87.84046,41.88853],[-87.86395,41.89115],[-87.86401,41.89292],[-87.88826,41.89243],[-87.8884,41.89172],[-87.89407,41.89224],[-87.89429,41.89253],[-87.89551,41.89265],[-87.90327,41.89267],[-87.90325,41.88929],[-87.90812,41.88942],[-87.90814,41.8854],[-87.91022,41.88542],[-87.91023,41.88377],[-87.91073,41.88377],[-87.91076,41.88235],[-87.91142,41.88231],[-87.91142,41.88195],[-87.92061,41.8827],[-87.92042,41.86413],[-87.91939,41.85404],[-87.91921,41.84723],[-87.91976,41.83961],[-87.91908,41.83601],[-87.91895,41.83315],[-87.87423,41.83426],[-87.87376,41.83244],[-87.86805,41.83259],[-87.86855,41.84437],[-87.86628,41.84441],[-87.86626,41.84383],[-87.8669,41.84371],[-87.86686,41.84175],[-87.84968,41.8422],[-87.84966,41.84176],[-87.84902,41.84177],[-87.84866,41.84192],[-87.84892,41.8422],[-87.84234,41.84253],[-87.84271,41.84968],[-87.80808,41.85029],[-87.80835,41.85767],[-87.80394,41.85773],[-87.8042,41.86498],[-87.77659,41.86543],[-87.7766,41.86588],[-87.77415,41.86592],[-87.77414,41.86546],[-87.73993,41.86596],[-87.7392,41.84547],[-87.71376,41.85118],[-87.71378,41.85168],[-87.71114,41.85199],[-87.71089,41.85164],[-87.71013,41.85171],[-87.71014,41.85201],[-87.70529,41.85311],[-87.70531,41.85359],[-87.70288,41.8538],[-87.70289,41.85418],[-87.69918,41.85446],[-87.69921,41.85551],[-87.69557,41.85555],[-87.69556,41.85524],[-87.68727,41.85713],[-87.68584,41.85764],[-87.68583,41.85937],[-87.64422,41.85996],[-87.64415,41.85677],[-87.64519,41.85226],[-87.6449,41.85084],[-87.64416,41.84944],[-87.64442,41.84941],[-87.6438,41.84849],[-87.64671,41.84766],[-87.64948,41.84626],[-87.64922,41.8459],[-87.65084,41.8455],[-87.64981,41.84441],[-87.64643,41.84451],[-87.64542,41.80431],[-87.65027,41.80426],[-87.65029,41.80493],[-87.66,41.80475],[-87.66001,41.80503],[-87.66366,41.80498],[-87.66361,41.80315],[-87.66969,41.8031],[-87.66965,41.80128],[-87.67964,41.80117],[-87.67958,41.79518],[-87.67916,41.79475],[-87.68231,41.79476],[-87.68229,41.79383],[-87.68404,41.79388],[-87.68399,41.79203],[-87.68524,41.79201],[-87.68517,41.79019],[-87.68638,41.79018],[-87.68633,41.78835],[-87.68755,41.78833],[-87.6875,41.7865],[-87.69116,41.78645],[-87.69096,41.77915],[-87.70314,41.77897],[-87.7031,41.77714],[-87.70794,41.77706],[-87.70781,41.7716],[-87.69321,41.77182],[-87.69303,41.76454],[-87.70281,41.76439],[-87.70261,41.75722],[-87.72219,41.75684],[-87.72197,41.75136],[-87.72036,41.75138],[-87.72029,41.74953],[-87.72191,41.7495],[-87.72168,41.74218],[-87.7229,41.74216],[-87.72277,41.7385],[-87.72399,41.73847],[-87.72386,41.73483],[-87.74107,41.73452],[-87.74104,41.72736],[-87.76055,41.72702],[-87.76067,41.73061],[-87.7631,41.73057],[-87.76323,41.73414],[-87.76812,41.73405],[-87.76811,41.73362],[-87.76851,41.7336],[-87.77056,41.73357],[-87.77056,41.73401],[-87.7991,41.7335],[-87.79974,41.74813],[-87.79485,41.74821],[-87.79488,41.75178],[-87.78035,41.75211],[-87.78075,41.75544],[-87.76145,41.7561],[-87.76098,41.75614],[-87.76099,41.75643],[-87.75135,41.75656],[-87.75124,41.75449],[-87.7492,41.75453],[-87.7464,41.75641],[-87.7416,41.75649],[-87.74217,41.76812],[-87.74216,41.77478],[-87.77135,41.77421],[-87.77207,41.79254],[-87.7623,41.79274],[-87.76254,41.80006],[-87.79663,41.79958],[-87.80209,41.79785],[-87.80161,41.79481],[-87.80089,41.77657],[-87.80436,41.77239],[-87.80585,41.77239],[-87.80569,41.77443],[-87.81204,41.77438],[-87.81445,41.77631],[-87.81472,41.77595],[-87.82718,41.78374],[-87.83065,41.78381],[-87.83106,41.78513],[-87.83456,41.78223],[-87.83875,41.78383],[-87.85611,41.78373],[-87.85613,41.78395],[-87.85697,41.78358],[-87.8586,41.78361],[-87.85932,41.80161],[-87.86422,41.80153],[-87.86415,41.7997],[-87.86538,41.79967],[-87.86545,41.8015],[-87.87062,41.8014],[-87.87054,41.79957],[-87.87888,41.7994],[-87.87905,41.80304],[-87.88394,41.80296],[-87.88398,41.80476],[-87.88879,41.80465],[-87.88943,41.81967],[-87.90096,41.82069],[-87.91363,41.81864],[-87.91319,41.81048],[-87.90873,41.79878],[-87.90815,41.79637],[-87.90791,41.78962],[-87.91006,41.78941],[-87.90862,41.78908],[-87.90872,41.78529],[-87.90952,41.78422],[-87.90941,41.78295],[-87.90843,41.7821],[-87.90841,41.78083],[-87.9119,41.78093],[-87.91193,41.78013],[-87.91666,41.78022],[-87.91672,41.78173],[-87.92156,41.78164],[-87.92157,41.78203],[-87.9465,41.78152],[-87.9469,41.78861],[-87.9562,41.78859],[-87.95633,41.78949],[-87.9561,41.79038],[-87.95487,41.79141],[-87.955,41.7923],[-87.95454,41.79327],[-87.95536,41.79496],[-87.9552,41.79561],[-87.95425,41.79578],[-87.95469,41.79734],[-87.95401,41.79743],[-87.95374,41.79903],[-87.95289,41.8003],[-87.95326,41.80125],[-87.95526,41.80122],[-87.95555,41.80313],[-87.95018,41.80324],[-87.95063,41.80881],[-87.95639,41.8074],[-87.95651,41.81043],[-87.94682,41.81074],[-87.94692,41.81191],[-87.94835,41.81374],[-87.95144,41.81636],[-87.95257,41.81776],[-87.95301,41.8191],[-87.95377,41.82822],[-87.95533,41.83228],[-87.95883,41.83211],[-87.95885,41.83249],[-87.95984,41.83273],[-87.96234,41.83689],[-87.96326,41.83768],[-87.96586,41.83897],[-87.9661,41.84072],[-87.96495,41.84217],[-87.96491,41.8438],[-87.96687,41.84378],[-87.96722,41.84624]]]}},{"type":"Feature","properties":{"std_name":"North Carolina 12th (113th Congress)"},"geometry":{"type":"Polygon","coordinates":[[[-80.97464,35.24028],[-80.97403,35.24333],[-80.97293,35.24425],[-80.97357,35.24584],[-80.97154,35.24891],[-80.97072,35.24912],[-80.96977,35.25081],[-80.96729,35.25252],[-80.96713,35.25445],[-80.96656,35.25506],[-80.96595,35.25669],[-80.96499,35.25659],[-80.9648,35.2559],[-80.96256,35.25605],[-80.96236,35.25531],[-80.9612,35.25548],[-80.95981,35.25509],[-80.95804,35.25786],[-80.95711,35.25816],[-80.95522,35.25692],[-80.95463,35.25693],[-80.95277,35.25849],[-80.95335,35.259],[-80.95299,35.25928],[-80.9517,35.25868],[-80.95136,35.25843],[-80.9515,35.25808],[-80.95079,35.25782],[-80.95034,35.25817],[-80.94997,35.25983],[-80.9479,35.25922],[-80.94588,35.25921],[-80.94495,35.2604],[-80.94503,35.26089],[-80.94445,35.26129],[-80.94179,35.26038],[-80.94117,35.26054],[-80.94056,35.25975],[-80.93983,35.25986],[-80.94058,35.26562],[-80.94046,35.26763],[-80.93984,35.26933],[-80.93666,35.27509],[-80.93776,35.27925],[-80.93892,35.28062],[-80.93435,35.27924],[-80.93236,35.2791],[-80.9305,35.27942],[-80.92164,35.28234],[-80.90515,35.28208],[-80.90368,35.28173],[-80.90038,35.27982],[-80.89687,35.27678],[-80.89542,35.278],[-80.89565,35.27884],[-80.89644,35.27976],[-80.90462,35.28434],[-80.91728,35.29402],[-80.91893,35.29556],[-80.91992,35.29738],[-80.92119,35.29753],[-80.92531,35.29952],[-80.92339,35.30124],[-80.92244,35.30318],[-80.92059,35.30432],[-80.92035,35.30654],[-80.92233,35.31178],[-80.91938,35.31163],[-80.91604,35.31026],[-80.9163,35.31213],[-80.91586,35.31423],[-80.91389,35.31607],[-80.9112,35.31671],[-80.91279,35.3185],[-80.91296,35.31951],[-80.91427,35.32073],[-80.91535,35.3207],[-80.91594,35.31994],[-80.91883,35.32058],[-80.92024,35.31949],[-80.92475,35.31969],[-80.92574,35.31994],[-80.92669,35.32265],[-80.92709,35.32291],[-80.92424,35.32543],[-80.92411,35.32606],[-80.92344,35.32632],[-80.92202,35.32639],[-80.92057,35.3269],[-80.91564,35.32733],[-80.91314,35.32689],[-80.91014,35.32794],[-80.90969,35.32846],[-80.91092,35.32998],[-80.91263,35.33418],[-80.91399,35.33599],[-80.91218,35.33712],[-80.91061,35.33942],[-80.90852,35.34101],[-80.90717,35.34307],[-80.90533,35.34457],[-80.90061,35.34558],[-80.89757,35.34671],[-80.89572,35.34678],[-80.89054,35.34586],[-80.88634,35.34633],[-80.88351,35.34727],[-80.86587,35.35999],[-80.85903,35.36548],[-80.85597,35.36681],[-80.84853,35.36619],[-80.84448,35.36702],[-80.83835,35.37024],[-80.8327,35.37031],[-80.82773,35.36977],[-80.82229,35.36804],[-80.82104,35.36707],[-80.81972,35.36387],[-80.81508,35.36779],[-80.80366,35.37413],[-80.79439,35.38041],[-80.78929,35.38218],[-80.7867,35.38444],[-80.78464,35.3719],[-80.78508,35.37055],[-80.78689,35.36788],[-80.78753,35.36536],[-80.79706,35.36122],[-80.79995,35.36032],[-80.79801,35.35708],[-80.79432,35.35498],[-80.7943,35.35403],[-80.79581,35.35085],[-80.79909,35.34956],[-80.80002,35.34868],[-80.80043,35.34728],[-80.80253,35.34633],[-80.80713,35.34934],[-80.80925,35.35033],[-80.81255,35.35274],[-80.81646,35.3528],[-80.82268,35.35366],[-80.8244,35.34205],[-80.82417,35.33889],[-80.82057,35.3381],[-80.81847,35.33618],[-80.81351,35.33807],[-80.80819,35.33913],[-80.80103,35.3381],[-80.79467,35.33762],[-80.79577,35.33465],[-80.79758,35.33278],[-80.78955,35.33307],[-80.78708,35.33256],[-80.78518,35.33146],[-80.78375,35.32972],[-80.78335,35.32855],[-80.78328,35.32561],[-80.7821,35.3252],[-80.77989,35.3265],[-80.77948,35.32608],[-80.77993,35.32522],[-80.77953,35.32492],[-80.77869,35.32532],[-80.77768,35.32515],[-80.77715,35.32594],[-80.7761,35.32625],[-80.77565,35.32676],[-80.77334,35.32625],[-80.77219,35.32948],[-80.77318,35.33224],[-80.77313,35.33375],[-80.77046,35.33961],[-80.76933,35.34088],[-80.76406,35.34309],[-80.75974,35.34625],[-80.75929,35.34721],[-80.75901,35.35085],[-80.756,35.35679],[-80.75256,35.35913],[-80.74664,35.35989],[-80.74356,35.35974],[-80.74304,35.36152],[-80.74191,35.36321],[-80.74181,35.36473],[-80.7414,35.36542],[-80.73699,35.36709],[-80.73582,35.3679],[-80.73273,35.37197],[-80.74441,35.38067],[-80.75102,35.38849],[-80.75531,35.39483],[-80.76299,35.39959],[-80.76637,35.40132],[-80.7637,35.41222],[-80.75251,35.41438],[-80.76491,35.44097],[-80.77286,35.45734],[-80.77338,35.45753],[-80.77371,35.46094],[-80.7734,35.46259],[-80.77357,35.46338],[-80.77608,35.46666],[-80.7755,35.46681],[-80.77938,35.47222],[-80.78123,35.47896],[-80.78243,35.48176],[-80.7825,35.48447],[-80.78794,35.49313],[-80.78849,35.49645],[-80.78772,35.5],[-80.78479,35.50417],[-80.78427,35.50602],[-80.73728,35.50581],[-80.73704,35.50737],[-80.73762,35.50798],[-80.73757,35.50962],[-80.73631,35.51528],[-80.73696,35.52031],[-80.73728,35.52479],[-80.73703,35.5253],[-80.73882,35.53031],[-80.74003,35.5323],[-80.74043,35.53514],[-80.74105,35.53701],[-80.74077,35.5397],[-80.74103,35.5417],[-80.7398,35.54415],[-80.75546,35.60725],[-80.7551,35.611],[-80.75454,35.61208],[-80.75337,35.61329],[-80.74725,35.61701],[-80.74489,35.61775],[-80.7383,35.61744],[-80.71015,35.62296],[-80.6961,35.62329],[-80.69001,35.62309],[-80.68739,35.62352],[-80.68551,35.62458],[-80.67493,35.63312],[-80.66898,35.63583],[-80.66801,35.64473],[-80.66321,35.64835],[-80.66113,35.64923],[-80.65254,35.64845],[-80.64414,35.64906],[-80.64003,35.64805],[-80.6384,35.64735],[-80.63806,35.64676],[-80.6345,35.64772],[-80.61366,35.64876],[-80.60786,35.65074],[-80.60008,35.65031],[-80.59621,35.65136],[-80.59128,35.65344],[-80.58928,35.6539],[-80.58181,35.65338],[-80.57798,35.65257],[-80.576,35.65254],[-80.57128,35.65364],[-80.56663,35.6558],[-80.55817,35.66071],[-80.55646,35.66136],[-80.54871,35.66114],[-80.54453,35.6616],[-80.5356,35.66103],[-80.53374,35.66136],[-80.52657,35.66393],[-80.52316,35.6643],[-80.52088,35.66387],[-80.51818,35.66384],[-80.51822,35.66502],[-80.50694,35.66536],[-80.50727,35.66861],[-80.50077,35.67269],[-80.50371,35.67585],[-80.50446,35.67727],[-80.50551,35.67686],[-80.50662,35.67846],[-80.50752,35.67815],[-80.50836,35.67969],[-80.51032,35.6791],[-80.51121,35.68051],[-80.51168,35.6803],[-80.5127,35.68172],[-80.51654,35.67982],[-80.51753,35.68175],[-80.51822,35.68485],[-80.51738,35.6867],[-80.48049,35.67662],[-80.48,35.67527],[-80.47635,35.67295],[-80.46989,35.66739],[-80.4553,35.67863],[-80.44881,35.68095],[-80.45043,35.68395],[-80.45103,35.68345],[-80.45182,35.68362],[-80.45308,35.68574],[-80.45161,35.68635],[-80.45118,35.6869],[-80.45108,35.68836],[-80.45066,35.68847],[-80.45001,35.68973],[-80.45007,35.69003],[-80.45069,35.69007],[-80.44972,35.69123],[-80.44937,35.69217],[-80.44978,35.69247],[-80.44854,35.69342],[-80.44712,35.69647],[-80.4445,35.70059],[-80.44382,35.70118],[-80.44135,35.70179],[-80.43971,35.70339],[-80.43814,35.70426],[-80.43557,35.70777],[-80.43134,35.70914],[-80.43112,35.71003],[-80.43153,35.71103],[-80.42878,35.71283],[-80.42847,35.71334],[-80.42872,35.71428],[-80.4245,35.71804],[-80.42348,35.72002],[-80.42329,35.72169],[-80.4235,35.72373],[-80.42325,35.72566],[-80.42868,35.72889],[-80.44423,35.73508],[-80.44729,35.73519],[-80.45126,35.73425],[-80.45352,35.73453],[-80.45462,35.73526],[-80.45591,35.73678],[-80.45803,35.74057],[-80.45923,35.74347],[-80.45955,35.74524],[-80.45957,35.74717],[-80.45904,35.74951],[-80.45689,35.75459],[-80.45581,35.75583],[-80.45272,35.75824],[-80.4519,35.76255],[-80.45117,35.76467],[-80.45091,35.76655],[-80.45131,35.76812],[-80.45233,35.76986],[-80.45497,35.77295],[-80.4596,35.775],[-80.47346,35.78465],[-80.47443,35.7865],[-80.47669,35.78918],[-80.47695,35.79006],[-80.47691,35.7925],[-80.47595,35.79502],[-80.47386,35.79807],[-80.4718,35.79941],[-80.4662,35.80101],[-80.46462,35.80311],[-80.46452,35.80399],[-80.46561,35.80962],[-80.46709,35.81393],[-80.46386,35.8147],[-80.46275,35.81612],[-80.46083,35.8169],[-80.45918,35.81815],[-80.45672,35.81895],[-80.45418,35.8217],[-80.45231,35.82241],[-80.45124,35.82237],[-80.45014,35.82152],[-80.44826,35.82123],[-80.44744,35.82056],[-80.44618,35.82021],[-80.44523,35.8169],[-80.44437,35.8159],[-80.44288,35.81512],[-80.44174,35.81495],[-80.43963,35.81547],[-80.43733,35.81477],[-80.42867,35.80966],[-80.42248,35.81005],[-80.41966,35.80904],[-80.41579,35.8053],[-80.41486,35.80331],[-80.41214,35.80084],[-80.409,35.7966],[-80.3996,35.78688],[-80.37474,35.77379],[-80.34448,35.76858],[-80.32571,35.7697],[-80.32785,35.77437],[-80.32863,35.77665],[-80.32907,35.77935],[-80.33151,35.7842],[-80.33328,35.78883],[-80.3326,35.79134],[-80.33063,35.79211],[-80.32882,35.7942],[-80.32861,35.7953],[-80.32753,35.79679],[-80.33514,35.79924],[-80.33201,35.8053],[-80.33099,35.80822],[-80.331,35.81124],[-80.33041,35.81574],[-80.32973,35.81639],[-80.3296,35.82057],[-80.33069,35.82222],[-80.32918,35.82306],[-80.32102,35.82258],[-80.31942,35.82209],[-80.31882,35.82101],[-80.3172,35.82047],[-80.31678,35.81974],[-80.31371,35.82035],[-80.31163,35.82184],[-80.3114,35.82255],[-80.31156,35.82365],[-80.30478,35.82879],[-80.30372,35.83189],[-80.30185,35.8325],[-80.29848,35.82967],[-80.29476,35.82721],[-80.29282,35.82724],[-80.29044,35.82791],[-80.28093,35.82771],[-80.26651,35.82376],[-80.26217,35.83407],[-80.25349,35.83544],[-80.25373,35.83976],[-80.24958,35.83994],[-80.24945,35.84],[-80.2491,35.84042],[-80.24977,35.84024],[-80.24944,35.84128],[-80.24989,35.84226],[-80.2498,35.84507],[-80.25096,35.84534],[-80.25141,35.8449],[-80.25409,35.845],[-80.25462,35.84962],[-80.25442,35.85146],[-80.25243,35.85669],[-80.25012,35.86691],[-80.2463,35.86617],[-80.24009,35.8656],[-80.2379,35.86625],[-80.23057,35.86637],[-80.22763,35.86708],[-80.22551,35.8667],[-80.21942,35.86657],[-80.21866,35.86595],[-80.2183,35.8628],[-80.21656,35.86025],[-80.21755,35.85526],[-80.21732,35.85466],[-80.21615,35.85417],[-80.21259,35.85423],[-80.20903,35.85473],[-80.20811,35.85678],[-80.20748,35.85981],[-80.20409,35.86641],[-80.20381,35.86777],[-80.20416,35.87066],[-80.20161,35.87058],[-80.19879,35.8692],[-80.19825,35.86936],[-80.19773,35.87031],[-80.1971,35.87069],[-80.19555,35.87027],[-80.19396,35.87039],[-80.19362,35.87093],[-80.19388,35.8717],[-80.19486,35.87229],[-80.19498,35.87449],[-80.19369,35.87506],[-80.19155,35.87667],[-80.19158,35.87778],[-80.19329,35.87891],[-80.1936,35.87956],[-80.19222,35.88302],[-80.19085,35.88464],[-80.19062,35.88668],[-80.18994,35.88699],[-80.18917,35.88794],[-80.18664,35.88837],[-80.18486,35.8902],[-80.1841,35.8903],[-80.18334,35.89118],[-80.18173,35.89169],[-80.18019,35.89356],[-80.17981,35.89452],[-80.17798,35.89595],[-80.17488,35.89972],[-80.17159,35.90097],[-80.16864,35.90423],[-80.16771,35.90785],[-80.16681,35.90949],[-80.16577,35.91056],[-80.16581,35.9117],[-80.16521,35.91289],[-80.16562,35.91325],[-80.16563,35.91385],[-80.16332,35.9147],[-80.16188,35.91648],[-80.16167,35.91778],[-80.16044,35.91845],[-80.15901,35.92049],[-80.15896,35.92118],[-80.15941,35.92153],[-80.15909,35.92195],[-80.15932,35.92254],[-80.15877,35.92243],[-80.15837,35.9232],[-80.15925,35.92449],[-80.16216,35.92627],[-80.16244,35.927],[-80.16159,35.92723],[-80.1606,35.92887],[-80.15913,35.92964],[-80.1578,35.93093],[-80.1564,35.93128],[-80.15587,35.93237],[-80.15498,35.93312],[-80.14972,35.93455],[-80.14843,35.93561],[-80.14754,35.9359],[-80.14671,35.93845],[-80.14514,35.94024],[-80.14484,35.94199],[-80.14587,35.94385],[-80.14564,35.94561],[-80.14211,35.94717],[-80.13543,35.94815],[-80.13439,35.94903],[-80.13272,35.94867],[-80.13202,35.94889],[-80.1323,35.9492],[-80.13201,35.94964],[-80.13206,35.9509],[-80.13508,35.95215],[-80.137,35.95349],[-80.14124,35.95567],[-80.14257,35.95764],[-80.14429,35.9594],[-80.14544,35.96133],[-80.14801,35.96317],[-80.14948,35.96477],[-80.15013,35.96843],[-80.14924,35.97095],[-80.14946,35.97181],[-80.15921,35.98041],[-80.16259,35.9841],[-80.16685,35.99238],[-80.16932,35.99548],[-80.17052,35.99952],[-80.17424,36.00547],[-80.17655,36.00864],[-80.18314,36.01628],[-80.18508,36.0196],[-80.18932,36.02262],[-80.19368,36.02414],[-80.19712,36.02577],[-80.19962,36.02643],[-80.2029,36.02623],[-80.205,36.02535],[-80.20728,36.02384],[-80.20905,36.02329],[-80.21384,36.02408],[-80.21391,35.99688],[-80.22789,35.99658],[-80.26692,35.99655],[-80.26346,36.00139],[-80.26191,36.00471],[-80.26137,36.00764],[-80.26098,36.01633],[-80.25547,36.01641],[-80.25228,36.017],[-80.23765,36.02524],[-80.23429,36.02657],[-80.23171,36.02839],[-80.23236,36.02973],[-80.23236,36.03091],[-80.23002,36.03404],[-80.22959,36.03542],[-80.23007,36.03673],[-80.2334,36.04042],[-80.23382,36.04128],[-80.23387,36.0423],[-80.23262,36.04778],[-80.23925,36.04773],[-80.2398,36.05447],[-80.23962,36.0556],[-80.23906,36.05717],[-80.2383,36.05685],[-80.23573,36.05455],[-80.2329,36.05329],[-80.22531,36.05323],[-80.22549,36.06015],[-80.22605,36.0634],[-80.22302,36.06296],[-80.22157,36.06944],[-80.22551,36.0697],[-80.22784,36.07089],[-80.23015,36.07338],[-80.23462,36.07543],[-80.24138,36.08229],[-80.24039,36.08255],[-80.23993,36.08361],[-80.23863,36.08474],[-80.23708,36.0875],[-80.23771,36.09239],[-80.23813,36.09325],[-80.24021,36.09307],[-80.24452,36.09366],[-80.24792,36.09289],[-80.24877,36.09797],[-80.25366,36.09742],[-80.25403,36.09955],[-80.25146,36.09984],[-80.25159,36.10055],[-80.24932,36.10094],[-80.2493,36.1015],[-80.24973,36.10183],[-80.25095,36.10176],[-80.25207,36.10226],[-80.25506,36.10602],[-80.25553,36.10618],[-80.2564,36.10589],[-80.25789,36.10469],[-80.25988,36.10423],[-80.26239,36.10229],[-80.26504,36.1048],[-80.26676,36.10709],[-80.26778,36.10938],[-80.2667,36.11262],[-80.26451,36.11565],[-80.26092,36.11894],[-80.26052,36.11887],[-80.26006,36.12029],[-80.25822,36.12061],[-80.25848,36.12125],[-80.25755,36.12148],[-80.25878,36.12512],[-80.26346,36.13184],[-80.26454,36.13278],[-80.26799,36.13436],[-80.27266,36.138],[-80.27463,36.14004],[-80.27066,36.1399],[-80.26823,36.14071],[-80.26086,36.14228],[-80.25654,36.1448],[-80.265,36.14853],[-80.26418,36.14979],[-80.26423,36.15233],[-80.26366,36.15549],[-80.26537,36.1573],[-80.27691,36.16655],[-80.27752,36.17121],[-80.27619,36.17168],[-80.27292,36.17213],[-80.26916,36.1739],[-80.26565,36.17385],[-80.25877,36.16496],[-80.25497,36.16165],[-80.25084,36.15682],[-80.245,36.15179],[-80.24416,36.14986],[-80.24408,36.14795],[-80.24124,36.14629],[-80.23985,36.14441],[-80.2395,36.14095],[-80.23898,36.1388],[-80.23869,36.13863],[-80.23321,36.14116],[-80.22874,36.14125],[-80.22668,36.14445],[-80.22506,36.14835],[-80.22125,36.15044],[-80.21586,36.15185],[-80.21057,36.15546],[-80.20558,36.15761],[-80.20502,36.15771],[-80.20587,36.15732],[-80.20539,36.15102],[-80.20215,36.15106],[-80.20293,36.14646],[-80.20258,36.14537],[-80.20131,36.14491],[-80.20008,36.14504],[-80.19817,36.1472],[-80.19738,36.14756],[-80.19422,36.14712],[-80.19529,36.14331],[-80.19577,36.13636],[-80.20072,36.13186],[-80.20234,36.12929],[-80.20179,36.12893],[-80.2014,36.12739],[-80.19881,36.12518],[-80.19852,36.12355],[-80.19763,36.12251],[-80.19734,36.1201],[-80.1959,36.11804],[-80.19605,36.11685],[-80.19731,36.11618],[-80.19631,36.11566],[-80.19548,36.1146],[-80.19502,36.11233],[-80.19551,36.11188],[-80.19689,36.11166],[-80.19717,36.11013],[-80.19614,36.10962],[-80.19638,36.108],[-80.19603,36.10782],[-80.19318,36.11058],[-80.19086,36.11202],[-80.18825,36.11444],[-80.18416,36.11523],[-80.18254,36.11478],[-80.18006,36.11285],[-80.17003,36.11268],[-80.16114,36.11003],[-80.1597,36.10918],[-80.15861,36.1079],[-80.1589,36.10549],[-80.16075,36.10505],[-80.16282,36.1036],[-80.16531,36.10282],[-80.1656,36.10159],[-80.16458,36.1001],[-80.16534,36.09936],[-80.16659,36.09959],[-80.16836,36.10102],[-80.16935,36.10126],[-80.17056,36.10062],[-80.17131,36.09948],[-80.17253,36.0994],[-80.17325,36.09868],[-80.17386,36.09876],[-80.17365,36.09792],[-80.17385,36.09755],[-80.17525,36.09788],[-80.17562,36.09742],[-80.17667,36.09743],[-80.17691,36.09698],[-80.17791,36.09727],[-80.18058,36.09608],[-80.18134,36.09532],[-80.18182,36.09565],[-80.18203,36.09669],[-80.18302,36.09645],[-80.18309,36.09528],[-80.18443,36.09451],[-80.18354,36.09323],[-80.18215,36.09211],[-80.18184,36.09125],[-80.1821,36.09091],[-80.18322,36.09126],[-80.18506,36.09335],[-80.18574,36.09358],[-80.1878,36.09281],[-80.18913,36.09062],[-80.19006,36.09092],[-80.19131,36.09249],[-80.19184,36.09273],[-80.19334,36.09229],[-80.19126,36.08733],[-80.19099,36.08363],[-80.18198,36.07819],[-80.18141,36.07672],[-80.18138,36.07556],[-80.18329,36.07464],[-80.19472,36.07217],[-80.19714,36.07063],[-80.20016,36.06669],[-80.2022,36.06584],[-80.19957,36.06491],[-80.19866,36.06299],[-80.19467,36.06029],[-80.19864,36.05837],[-80.20093,36.05784],[-80.21349,36.05845],[-80.20878,36.05527],[-80.20256,36.04891],[-80.18275,36.04058],[-80.16532,36.02944],[-80.16203,36.02671],[-80.14978,36.0267],[-80.13177,36.02399],[-80.12959,36.02272],[-80.12919,36.02212],[-80.12883,36.01727],[-80.12753,36.01511],[-80.1267,36.01213],[-80.12788,36.00942],[-80.12115,36.00923],[-80.12018,36.00607],[-80.11868,36.00276],[-80.11915,36.00024],[-80.11888,35.99954],[-80.11891,35.99676],[-80.11764,35.99605],[-80.11558,35.99575],[-80.11091,35.99703],[-80.10446,35.99695],[-80.10064,35.99912],[-80.09966,35.99933],[-80.09523,35.999],[-80.09195,35.99702],[-80.08704,35.99248],[-80.08891,35.98798],[-80.09353,35.98351],[-80.09431,35.98188],[-80.09434,35.97683],[-80.09252,35.9676],[-80.09036,35.96765],[-80.08719,35.96833],[-80.08606,35.96889],[-80.08537,35.96967],[-80.08416,35.96908],[-80.08232,35.96669],[-80.0793,35.96541],[-80.07722,35.96259],[-80.07355,35.95904],[-80.07229,35.95514],[-80.07025,35.9512],[-80.06799,35.95077],[-80.06818,35.94987],[-80.06896,35.94875],[-80.06729,35.94773],[-80.0651,35.94707],[-80.06286,35.9476],[-80.06206,35.94658],[-80.06093,35.94608],[-80.06041,35.94624],[-80.05989,35.9456],[-80.05995,35.93959],[-80.05621,35.93923],[-80.04965,35.94045],[-80.04646,35.93974],[-80.04617,35.94542],[-80.0459,35.9455],[-80.04216,35.94439],[-80.04117,35.94341],[-80.04065,35.94392],[-80.04,35.94313],[-80.03841,35.94383],[-80.03695,35.94521],[-80.03522,35.94541],[-80.03227,35.94508],[-80.03193,35.94484],[-80.03192,35.94423],[-80.03053,35.94377],[-80.02768,35.94384],[-80.02661,35.94344],[-80.02549,35.94498],[-80.02457,35.9447],[-80.02243,35.94704],[-80.0222,35.94783],[-80.02241,35.9489],[-80.02119,35.94822],[-80.01977,35.94812],[-80.01855,35.94741],[-80.01297,35.95325],[-80.00573,35.9577],[-80.01412,35.96756],[-80.01739,35.97297],[-80.01453,35.97301],[-80.01557,35.97392],[-80.01621,35.9752],[-80.01662,35.97999],[-80.01574,35.98363],[-80.01338,35.98395],[-80.00935,35.98389],[-80.00792,35.98423],[-80.00638,35.9851],[-79.99707,35.99411],[-79.9917,36.00212],[-79.99021,36.0005],[-79.98551,35.99381],[-79.98378,35.992],[-79.98225,35.9909],[-79.98077,35.99214],[-79.97879,35.99234],[-79.97869,35.99334],[-79.97751,35.99554],[-79.97532,35.99544],[-79.97491,35.99786],[-79.97338,36.00101],[-79.97193,36.0012],[-79.97198,36.0018],[-79.97137,36.00287],[-79.97113,36.00422],[-79.97091,36.0042],[-79.97076,36.00722],[-79.97835,36.00712],[-79.97823,36.0111],[-79.97773,36.01239],[-79.97775,36.01342],[-79.97948,36.01369],[-79.97945,36.01469],[-79.97581,36.01861],[-79.97336,36.02213],[-79.97243,36.02209],[-79.97215,36.02302],[-79.97277,36.02327],[-79.97239,36.02389],[-79.97167,36.02363],[-79.97133,36.02421],[-79.97259,36.02496],[-79.96951,36.02898],[-79.96641,36.03019],[-79.96381,36.03078],[-79.9639,36.03402],[-79.96446,36.03463],[-79.96289,36.03707],[-79.96234,36.03943],[-79.96199,36.05837],[-79.9625,36.05847],[-79.96393,36.06047],[-79.9638,36.06323],[-79.96269,36.06322],[-79.96264,36.06356],[-79.9631,36.06356],[-79.96311,36.06415],[-79.96377,36.06417],[-79.96365,36.06658],[-79.96978,36.06726],[-79.96989,36.07108],[-79.97106,36.07232],[-79.97133,36.07304],[-79.97104,36.07869],[-79.97045,36.08133],[-79.97053,36.0841],[-79.95743,36.07981],[-79.95421,36.08787],[-79.95389,36.09219],[-79.95146,36.09192],[-79.94844,36.09068],[-79.93133,36.08101],[-79.9304,36.08245],[-79.92896,36.08649],[-79.92801,36.08728],[-79.92692,36.08769],[-79.91552,36.08944],[-79.89856,36.08745],[-79.8901,36.09002],[-79.88885,36.08984],[-79.88837,36.08854],[-79.88847,36.08706],[-79.89318,36.08179],[-79.89124,36.08106],[-79.8886,36.07937],[-79.88601,36.07847],[-79.88562,36.07805],[-79.88418,36.07838],[-79.88343,36.07782],[-79.88125,36.07755],[-79.87967,36.07682],[-79.87734,36.0769],[-79.8755,36.07648],[-79.87449,36.07668],[-79.87262,36.07802],[-79.8696,36.07831],[-79.86831,36.07913],[-79.86466,36.07996],[-79.86442,36.07644],[-79.8658,36.07517],[-79.86618,36.07426],[-79.86587,36.07042],[-79.85918,36.07009],[-79.85575,36.06895],[-79.85266,36.06929],[-79.84801,36.06915],[-79.84819,36.06478],[-79.85297,36.0637],[-79.85319,36.06299],[-79.85155,36.0627],[-79.85191,36.06051],[-79.84428,36.05943],[-79.84052,36.06027],[-79.82021,36.06205],[-79.81544,36.06318],[-79.80427,36.0644],[-79.79882,36.06562],[-79.79939,36.06424],[-79.79296,36.06481],[-79.79281,36.06534],[-79.79067,36.06766],[-79.78542,36.06977],[-79.78431,36.071],[-79.7842,36.07211],[-79.78579,36.07978],[-79.78587,36.08148],[-79.78166,36.09291],[-79.7805,36.10012],[-79.77983,36.10199],[-79.78115,36.10206],[-79.78115,36.10636],[-79.78065,36.10914],[-79.78104,36.11181],[-79.7802,36.11204],[-79.77928,36.11284],[-79.78034,36.11397],[-79.78018,36.11565],[-79.78047,36.1178],[-79.78083,36.11857],[-79.7858,36.12331],[-79.78615,36.12439],[-79.78708,36.12514],[-79.78707,36.12585],[-79.78807,36.12583],[-79.7888,36.127],[-79.78966,36.13412],[-79.79415,36.13218],[-79.80048,36.13076],[-79.80855,36.12701],[-79.81101,36.12507],[-79.813,36.12451],[-79.81487,36.12978],[-79.8153,36.13236],[-79.81331,36.1355],[-79.81234,36.13631],[-79.80839,36.13839],[-79.80619,36.13866],[-79.80389,36.14031],[-79.8032,36.14369],[-79.80234,36.14467],[-79.79996,36.14397],[-79.79889,36.14464],[-79.79767,36.14474],[-79.7934,36.14347],[-79.79312,36.14399],[-79.79305,36.14615],[-79.79209,36.14609],[-79.79206,36.1503],[-79.78634,36.15008],[-79.78527,36.15291],[-79.78403,36.1529],[-79.78383,36.16682],[-79.78168,36.1651],[-79.77796,36.16521],[-79.77603,36.16626],[-79.77277,36.16908],[-79.77053,36.17007],[-79.76722,36.17209],[-79.76493,36.17422],[-79.75944,36.17643],[-79.75519,36.17945],[-79.74624,36.1886],[-79.74323,36.19018],[-79.73767,36.18926],[-79.73216,36.18898],[-79.7316,36.18937],[-79.73115,36.19078],[-79.72961,36.19121],[-79.72978,36.19169],[-79.72833,36.19186],[-79.72579,36.19281],[-79.72507,36.19159],[-79.72052,36.18938],[-79.72037,36.18836],[-79.72089,36.18756],[-79.71971,36.18686],[-79.71878,36.18569],[-79.71887,36.18504],[-79.72,36.18482],[-79.71902,36.18347],[-79.71769,36.18321],[-79.71649,36.1838],[-79.71551,36.18357],[-79.71416,36.1823],[-79.71417,36.18074],[-79.71353,36.18039],[-79.71162,36.18057],[-79.70991,36.18189],[-79.70836,36.1815],[-79.70559,36.17881],[-79.70493,36.17636],[-79.70448,36.17596],[-79.7038,36.17619],[-79.70218,36.17831],[-79.69965,36.17748],[-79.69923,36.1546],[-79.71064,36.15265],[-79.71737,36.153],[-79.72496,36.15134],[-79.72937,36.15131],[-79.74449,36.13045],[-79.74159,36.13027],[-79.74142,36.12692],[-79.7421,36.12398],[-79.74305,36.12351],[-79.7443,36.12437],[-79.7456,36.12449],[-79.74621,36.12324],[-79.74615,36.12269],[-79.74545,36.12284],[-79.74557,36.11957],[-79.74495,36.11969],[-79.74492,36.1188],[-79.74423,36.11839],[-79.74416,36.11406],[-79.74509,36.1138],[-79.74438,36.11059],[-79.74379,36.11048],[-79.74311,36.11095],[-79.74196,36.11113],[-79.74158,36.11084],[-79.74142,36.1098],[-79.74087,36.10944],[-79.73905,36.10989],[-79.73817,36.10978],[-79.73613,36.11051],[-79.73603,36.10882],[-79.73386,36.10847],[-79.73371,36.10896],[-79.73544,36.10967],[-79.733,36.11118],[-79.73212,36.11304],[-79.73022,36.1137],[-79.72913,36.11358],[-79.72849,36.11416],[-79.72746,36.11414],[-79.72705,36.11529],[-79.72558,36.11669],[-79.72216,36.1168],[-79.72199,36.11715],[-79.72249,36.11789],[-79.72246,36.11889],[-79.71926,36.11923],[-79.71847,36.12158],[-79.71777,36.12228],[-79.71557,36.12287],[-79.71616,36.12103],[-79.71555,36.12074],[-79.71331,36.12266],[-79.71245,36.12295],[-79.71261,36.11644],[-79.71351,36.11558],[-79.71392,36.11464],[-79.71471,36.11169],[-79.71487,36.10925],[-79.71719,36.10265],[-79.71649,36.10244],[-79.71548,36.10277],[-79.71514,36.10211],[-79.71516,36.10037],[-79.71574,36.10036],[-79.71631,36.08758],[-79.71744,36.08763],[-79.71752,36.08656],[-79.72499,36.08745],[-79.72541,36.08643],[-79.72657,36.08607],[-79.72627,36.08532],[-79.72807,36.08515],[-79.72743,36.08183],[-79.72583,36.0818],[-79.7263,36.07863],[-79.72969,36.07861],[-79.73014,36.07779],[-79.73059,36.07784],[-79.73119,36.07542],[-79.7311,36.07457],[-79.73022,36.07292],[-79.72951,36.07226],[-79.72891,36.07227],[-79.72854,36.07074],[-79.72724,36.06981],[-79.73075,36.06952],[-79.73074,36.06999],[-79.73318,36.07008],[-79.73321,36.0694],[-79.73558,36.07005],[-79.73557,36.06971],[-79.73487,36.06969],[-79.73486,36.069],[-79.73686,36.06905],[-79.73676,36.06703],[-79.73698,36.06706],[-79.73703,36.06654],[-79.73773,36.06661],[-79.73805,36.06544],[-79.73747,36.0647],[-79.73751,36.06402],[-79.73637,36.06331],[-79.73674,36.06216],[-79.73888,36.06289],[-79.74307,36.06362],[-79.74301,36.06296],[-79.74474,36.06315],[-79.75078,36.06213],[-79.75072,36.05993],[-79.74724,36.05975],[-79.74717,36.05683],[-79.74763,36.05156],[-79.74899,36.05123],[-79.74935,36.05028],[-79.7509,36.0502],[-79.75101,36.0497],[-79.7525,36.0489],[-79.75355,36.0476],[-79.75508,36.04741],[-79.75647,36.04786],[-79.75778,36.04677],[-79.75015,36.04731],[-79.7386,36.05093],[-79.73181,36.05261],[-79.70992,36.05729],[-79.70165,36.05818],[-79.70129,36.05489],[-79.69988,36.0528],[-79.70018,36.05092],[-79.69864,36.04791],[-79.69782,36.04726],[-79.69663,36.04694],[-79.69649,36.04643],[-79.69519,36.04559],[-79.69454,36.04426],[-79.69218,36.04419],[-79.6917,36.04337],[-79.6914,36.04073],[-79.69087,36.0398],[-79.69134,36.03837],[-79.69281,36.0373],[-79.69502,36.0366],[-79.69588,36.03515],[-79.69979,36.03471],[-79.7019,36.03356],[-79.7019,36.03253],[-79.70343,36.03041],[-79.70255,36.02955],[-79.70309,36.02843],[-79.70292,36.02748],[-79.70349,36.02666],[-79.7069,36.02574],[-79.70804,36.02577],[-79.70887,36.02512],[-79.71253,36.02476],[-79.7162,36.0233],[-79.71279,36.02269],[-79.71458,36.02102],[-79.71412,36.0204],[-79.71427,36.01923],[-79.71556,36.01781],[-79.71692,36.0173],[-79.71763,36.0165],[-79.71904,36.01655],[-79.71992,36.01611],[-79.7204,36.01537],[-79.72057,36.01398],[-79.72137,36.01311],[-79.7264,36.01055],[-79.7277,36.0076],[-79.72937,36.00586],[-79.73047,36.00544],[-79.73207,36.00297],[-79.73362,36.00247],[-79.7336,36.00071],[-79.73403,35.99879],[-79.7343,35.99856],[-79.73462,35.99667],[-79.73533,35.99581],[-79.73621,35.99508],[-79.73788,35.99462],[-79.73789,35.99413],[-79.74188,35.99235],[-79.73898,35.98901],[-79.74233,35.98897],[-79.74652,35.99357],[-79.74836,35.99517],[-79.75012,35.99614],[-79.74976,35.99566],[-79.74986,35.99468],[-79.7619,35.99463],[-79.76871,35.99254],[-79.77743,35.99077],[-79.77966,35.99087],[-79.77978,36.00061],[-79.78491,36.00899],[-79.79065,36.00906],[-79.79103,36.00677],[-79.79322,36.00678],[-79.79189,36.00342],[-79.79213,36.00082],[-79.80042,36.00042],[-79.80049,36.00342],[-79.80398,36.00326],[-79.80389,36.00299],[-79.80501,36.0027],[-79.805,36.00179],[-79.80593,36.0015],[-79.80572,36.00051],[-79.8071,36.00067],[-79.80809,35.99957],[-79.81087,35.99789],[-79.81645,35.99591],[-79.82075,35.9925],[-79.82205,35.99361],[-79.82249,35.99514],[-79.83094,35.99386],[-79.84338,35.99383],[-79.84913,35.99222],[-79.84996,35.99132],[-79.84957,35.99003],[-79.85012,35.98831],[-79.84974,35.98593],[-79.85117,35.98404],[-79.85142,35.98321],[-79.85473,35.98228],[-79.85486,35.98123],[-79.87811,35.97078],[-79.87709,35.98961],[-79.87061,35.99343],[-79.86932,35.99542],[-79.86962,35.99891],[-79.87011,35.99797],[-79.87024,35.99647],[-79.8719,35.99619],[-79.87271,35.99567],[-79.87271,35.99529],[-79.87534,35.99756],[-79.87521,35.99924],[-79.87419,35.99948],[-79.87346,36.00099],[-79.87313,36.0009],[-79.87294,36.00203],[-79.87264,36.00226],[-79.87647,36.00283],[-79.87638,36.00577],[-79.87548,36.00787],[-79.87608,36.01015],[-79.87586,36.01339],[-79.87364,36.01361],[-79.87023,36.01534],[-79.86622,36.01541],[-79.86651,36.02262],[-79.86675,36.02261],[-79.86689,36.025],[-79.86718,36.02499],[-79.86669,36.02566],[-79.8661,36.02542],[-79.86622,36.02668],[-79.86915,36.02806],[-79.86959,36.02863],[-79.86855,36.02986],[-79.87476,36.03198],[-79.87591,36.03191],[-79.87592,36.03263],[-79.87743,36.03272],[-79.87747,36.03296],[-79.87946,36.03302],[-79.87967,36.03029],[-79.87938,36.02995],[-79.88019,36.02967],[-79.88039,36.03031],[-79.88307,36.03042],[-79.88362,36.03069],[-79.88503,36.03045],[-79.88052,36.03538],[-79.87559,36.047],[-79.87332,36.04999],[-79.89123,36.05656],[-79.88448,36.05936],[-79.88028,36.05976],[-79.87967,36.0635],[-79.88082,36.06429],[-79.8834,36.0644],[-79.88516,36.06522],[-79.8862,36.06689],[-79.88593,36.06751],[-79.88823,36.06946],[-79.89078,36.07378],[-79.89194,36.07505],[-79.8938,36.07612],[-79.89421,36.07281],[-79.89372,36.0703],[-79.89155,36.067],[-79.89883,36.067],[-79.89949,36.06656],[-79.89997,36.06481],[-79.90399,36.06695],[-79.90762,36.06259],[-79.91664,36.0659],[-79.91755,36.06418],[-79.91958,36.06244],[-79.92026,36.05993],[-79.92089,36.05902],[-79.92257,36.05769],[-79.92376,36.05735],[-79.92512,36.05554],[-79.92873,36.0541],[-79.92925,36.05186],[-79.93317,36.04906],[-79.9356,36.0463],[-79.93437,36.04503],[-79.93518,36.04431],[-79.93549,36.04348],[-79.93628,36.04315],[-79.9375,36.04187],[-79.93763,36.04077],[-79.93649,36.0397],[-79.93637,36.03916],[-79.93701,36.03709],[-79.93549,36.03536],[-79.93539,36.03471],[-79.93765,36.03283],[-79.93808,36.0317],[-79.93833,36.03023],[-79.93811,36.02793],[-79.93755,36.02726],[-79.93764,36.02479],[-79.93772,36.02456],[-79.93941,36.02455],[-79.93977,36.02088],[-79.94154,36.01662],[-79.94118,36.01577],[-79.93976,36.01526],[-79.93814,36.01405],[-79.94054,36.01246],[-79.94106,36.01147],[-79.94137,36.00684],[-79.94228,36.00333],[-79.94566,36.00091],[-79.94543,35.999],[-79.94621,35.99642],[-79.94857,35.99699],[-79.95009,35.99853],[-79.95289,35.9993],[-79.9552,35.99938],[-79.95515,35.99741],[-79.95588,35.99747],[-79.95781,35.99317],[-79.95706,35.99292],[-79.95808,35.99063],[-79.95625,35.99007],[-79.95584,35.98962],[-79.95518,35.98989],[-79.95201,35.98846],[-79.95163,35.98857],[-79.94634,35.98702],[-79.94906,35.98259],[-79.95319,35.97879],[-79.95302,35.9769],[-79.95422,35.9739],[-79.95426,35.97043],[-79.94763,35.97039],[-79.94763,35.96912],[-79.94903,35.96903],[-79.94781,35.96396],[-79.94936,35.95866],[-79.94704,35.95876],[-79.94578,35.95622],[-79.95162,35.95375],[-79.95778,35.9502],[-79.96009,35.94965],[-79.96608,35.9492],[-79.96874,35.9483],[-79.97646,35.94241],[-79.98518,35.93832],[-79.99761,35.93186],[-80.00544,35.92837],[-80.01833,35.9205],[-80.02038,35.91961],[-80.04671,35.92066],[-80.04692,35.91681],[-80.05155,35.91678],[-80.05115,35.91944],[-80.05758,35.91992],[-80.0577,35.92103],[-80.05905,35.92107],[-80.05906,35.92069],[-80.06131,35.92072],[-80.0613,35.9245],[-80.06304,35.92431],[-80.06288,35.92449],[-80.06393,35.9248],[-80.06376,35.92531],[-80.06403,35.92537],[-80.0641,35.92488],[-80.06471,35.92507],[-80.06498,35.92427],[-80.06434,35.92277],[-80.0655,35.92292],[-80.0654,35.92317],[-80.06583,35.92328],[-80.06594,35.92298],[-80.0684,35.92339],[-80.06847,35.92313],[-80.06953,35.92311],[-80.06975,35.92344],[-80.06981,35.92307],[-80.07147,35.92346],[-80.07135,35.92425],[-80.07224,35.92435],[-80.07215,35.92514],[-80.07093,35.92504],[-80.07088,35.92661],[-80.07782,35.92676],[-80.07798,35.92445],[-80.07762,35.92437],[-80.07766,35.92296],[-80.07742,35.92264],[-80.07834,35.92244],[-80.07831,35.92316],[-80.07874,35.92318],[-80.07871,35.92352],[-80.08002,35.92353],[-80.07974,35.92257],[-80.07868,35.92255],[-80.079,35.92222],[-80.07903,35.92138],[-80.07973,35.92141],[-80.07953,35.92044],[-80.08015,35.91985],[-80.07923,35.91984],[-80.07928,35.91884],[-80.08112,35.91902],[-80.08102,35.92018],[-80.08151,35.92018],[-80.08156,35.92148],[-80.08347,35.92117],[-80.08347,35.9198],[-80.08416,35.91979],[-80.08281,35.91746],[-80.08464,35.9175],[-80.08414,35.9162],[-80.08147,35.9162],[-80.08185,35.91533],[-80.0815,35.9153],[-80.08111,35.91335],[-80.08155,35.91173],[-80.08215,35.91161],[-80.08297,35.91088],[-80.08218,35.90982],[-80.08142,35.91013],[-80.08072,35.90899],[-80.08369,35.90826],[-80.08382,35.91063],[-80.08432,35.91028],[-80.08499,35.91064],[-80.08516,35.90769],[-80.08787,35.90576],[-80.08781,35.90511],[-80.08717,35.90464],[-80.08639,35.90453],[-80.08878,35.90367],[-80.09492,35.90059],[-80.09445,35.90002],[-80.09221,35.89909],[-80.09126,35.89805],[-80.08769,35.89781],[-80.08384,35.89897],[-80.07999,35.89853],[-80.07717,35.89894],[-80.07062,35.89627],[-80.07149,35.89337],[-80.07161,35.89171],[-80.06886,35.89171],[-80.06886,35.89102],[-80.06943,35.89091],[-80.06954,35.88838],[-80.06667,35.88991],[-80.06959,35.88821],[-80.0738,35.88634],[-80.07237,35.88362],[-80.07393,35.882],[-80.07768,35.87946],[-80.07954,35.87918],[-80.08166,35.88289],[-80.08504,35.88188],[-80.10631,35.87707],[-80.11102,35.87666],[-80.12033,35.87687],[-80.12566,35.87574],[-80.12787,35.87492],[-80.13083,35.87327],[-80.13957,35.86669],[-80.14852,35.86327],[-80.15154,35.86175],[-80.16796,35.84853],[-80.17008,35.84724],[-80.17282,35.84645],[-80.19382,35.8435],[-80.19946,35.84219],[-80.19914,35.84008],[-80.20011,35.83887],[-80.2003,35.83672],[-80.202,35.83556],[-80.20371,35.83539],[-80.20579,35.83615],[-80.206,35.83562],[-80.20656,35.83565],[-80.2088,35.83639],[-80.20875,35.83701],[-80.20915,35.83703],[-80.21063,35.83569],[-80.21097,35.83557],[-80.21121,35.83593],[-80.21139,35.83563],[-80.21186,35.83424],[-80.21153,35.83355],[-80.21192,35.83272],[-80.21131,35.83188],[-80.21323,35.83138],[-80.21443,35.83051],[-80.21528,35.83063],[-80.21677,35.83167],[-80.21877,35.83233],[-80.21982,35.83233],[-80.22213,35.83167],[-80.22235,35.83101],[-80.2216,35.82928],[-80.22238,35.82744],[-80.22235,35.8266],[-80.22143,35.82605],[-80.21859,35.82571],[-80.21829,35.8253],[-80.21838,35.82469],[-80.21951,35.82378],[-80.22156,35.82392],[-80.22395,35.82272],[-80.22478,35.82175],[-80.22545,35.81945],[-80.22825,35.81934],[-80.22991,35.81888],[-80.23157,35.81769],[-80.23203,35.81594],[-80.23403,35.81619],[-80.23264,35.81466],[-80.23719,35.8139],[-80.24408,35.81487],[-80.24195,35.81791],[-80.23857,35.8212],[-80.23971,35.82275],[-80.24313,35.82252],[-80.24718,35.82179],[-80.24915,35.82094],[-80.24941,35.82076],[-80.24843,35.81962],[-80.24954,35.81914],[-80.2491,35.81816],[-80.2491,35.81493],[-80.25033,35.81482],[-80.25048,35.81367],[-80.25124,35.81244],[-80.25141,35.81113],[-80.25312,35.81127],[-80.25438,35.81188],[-80.25497,35.81173],[-80.25552,35.81082],[-80.25733,35.81074],[-80.25741,35.8093],[-80.25626,35.80925],[-80.25628,35.8087],[-80.25166,35.80853],[-80.2523,35.80607],[-80.25314,35.79526],[-80.25359,35.79403],[-80.2592,35.78872],[-80.26032,35.78628],[-80.26038,35.78413],[-80.26166,35.78704],[-80.26244,35.78686],[-80.26424,35.79119],[-80.26587,35.79089],[-80.26633,35.79115],[-80.26723,35.79337],[-80.26729,35.795],[-80.26772,35.79552],[-80.26717,35.79557],[-80.26777,35.7978],[-80.27019,35.79348],[-80.27243,35.79118],[-80.27336,35.78884],[-80.27338,35.78548],[-80.27645,35.77996],[-80.2786,35.77703],[-80.29865,35.77694],[-80.30129,35.76998],[-80.30725,35.75954],[-80.3271,35.74366],[-80.3263,35.74242],[-80.32623,35.74001],[-80.32553,35.73795],[-80.32513,35.73206],[-80.32536,35.72901],[-80.32665,35.72549],[-80.3285,35.72203],[-80.3311,35.72034],[-80.33223,35.71905],[-80.33306,35.71992],[-80.33488,35.72079],[-80.33685,35.72125],[-80.33946,35.72138],[-80.35213,35.71904],[-80.35713,35.71766],[-80.36985,35.71624],[-80.37267,35.71655],[-80.37954,35.71894],[-80.38253,35.71959],[-80.38606,35.71901],[-80.38827,35.71915],[-80.39085,35.72046],[-80.39173,35.72226],[-80.3956,35.72098],[-80.39816,35.71931],[-80.41168,35.70426],[-80.41045,35.70339],[-80.41258,35.69866],[-80.41034,35.69828],[-80.40665,35.697],[-80.4069,35.69623],[-80.40908,35.69679],[-80.41047,35.69199],[-80.40992,35.69196],[-80.40789,35.69],[-80.4069,35.68965],[-80.4054,35.68633],[-80.40657,35.68603],[-80.40755,35.68527],[-80.40827,35.6841],[-80.41114,35.68259],[-80.41495,35.68927],[-80.41677,35.68967],[-80.41711,35.68903],[-80.41908,35.68955],[-80.41917,35.6889],[-80.41989,35.68944],[-80.42093,35.68844],[-80.41604,35.68248],[-80.41701,35.68212],[-80.41608,35.67906],[-80.41528,35.67792],[-80.44703,35.66423],[-80.44561,35.6634],[-80.43927,35.66334],[-80.43897,35.66297],[-80.43948,35.66221],[-80.43968,35.65994],[-80.43922,35.65993],[-80.43919,35.65927],[-80.43799,35.6587],[-80.43822,35.65839],[-80.44088,35.65858],[-80.44125,35.65446],[-80.43996,35.65346],[-80.44021,35.65207],[-80.439,35.65106],[-80.4389,35.64675],[-80.44089,35.64375],[-80.4436,35.63835],[-80.44662,35.64041],[-80.44769,35.63986],[-80.44913,35.63819],[-80.45126,35.63426],[-80.45437,35.63027],[-80.45629,35.62699],[-80.46085,35.62855],[-80.46021,35.63015],[-80.4599,35.63232],[-80.46389,35.63555],[-80.46646,35.63604],[-80.46982,35.63257],[-80.47516,35.63339],[-80.47541,35.63202],[-80.47831,35.62635],[-80.48657,35.62108],[-80.49364,35.61501],[-80.49473,35.6137],[-80.49711,35.60416],[-80.49734,35.59586],[-80.50499,35.59663],[-80.50846,35.59593],[-80.51058,35.5961],[-80.51605,35.5956],[-80.51803,35.59576],[-80.52406,35.59777],[-80.53344,35.60008],[-80.53988,35.60086],[-80.54229,35.60168],[-80.54643,35.59544],[-80.55811,35.59915],[-80.59444,35.60683],[-80.59463,35.60189],[-80.61431,35.59296],[-80.6368,35.58194],[-80.63757,35.57112],[-80.63882,35.5637],[-80.64149,35.56526],[-80.65057,35.56846],[-80.65565,35.5721],[-80.66047,35.5744],[-80.67077,35.57507],[-80.68082,35.5725],[-80.68344,35.56963],[-80.68619,35.56424],[-80.68495,35.56224],[-80.68405,35.55335],[-80.67933,35.54788],[-80.67025,35.54277],[-80.6669,35.54006],[-80.66642,35.53922],[-80.66568,35.53442],[-80.66636,35.53197],[-80.66903,35.52715],[-80.67022,35.51657],[-80.67151,35.51357],[-80.67281,35.50878],[-80.67336,35.50769],[-80.67296,35.50648],[-80.68836,35.50656],[-80.68812,35.50343],[-80.68844,35.48185],[-80.69115,35.47896],[-80.69309,35.47763],[-80.70008,35.47524],[-80.70059,35.47481],[-80.70217,35.47282],[-80.70321,35.46732],[-80.70175,35.46418],[-80.70075,35.46382],[-80.70023,35.46287],[-80.70081,35.45879],[-80.6919,35.4468],[-80.68838,35.43896],[-80.68808,35.42952],[-80.67944,35.42908],[-80.67865,35.42572],[-80.67747,35.42352],[-80.67475,35.42035],[-80.67282,35.41904],[-80.67547,35.41582],[-80.67849,35.41353],[-80.68144,35.41207],[-80.69108,35.40863],[-80.69439,35.40659],[-80.69688,35.40427],[-80.69934,35.40041],[-80.70675,35.37984],[-80.70861,35.37572],[-80.71236,35.3704],[-80.71962,35.36284],[-80.709,35.35547],[-80.69361,35.3468],[-80.68729,35.329],[-80.66727,35.26901],[-80.65831,35.26379],[-80.6515,35.26036],[-80.654,35.25716],[-80.65479,35.2527],[-80.65682,35.24794],[-80.66453,35.24134],[-80.66774,35.23799],[-80.66889,35.23732],[-80.66991,35.23715],[-80.67307,35.23304],[-80.67758,35.23056],[-80.68434,35.22414],[-80.68572,35.22196],[-80.68712,35.21515],[-80.68203,35.21367],[-80.67136,35.20897],[-80.67145,35.20858],[-80.68224,35.21088],[-80.68922,35.21166],[-80.69792,35.21077],[-80.7041,35.20941],[-80.70939,35.21323],[-80.70924,35.21392],[-80.70967,35.21436],[-80.70899,35.21634],[-80.71002,35.21838],[-80.71074,35.2179],[-80.71106,35.21714],[-80.71378,35.21827],[-80.71593,35.21754],[-80.72148,35.21955],[-80.72308,35.21944],[-80.72239,35.2178],[-80.7225,35.21661],[-80.72309,35.21567],[-80.72541,35.21345],[-80.72601,35.21213],[-80.72595,35.2025],[-80.72397,35.2031],[-80.72294,35.201],[-80.72084,35.19959],[-80.72583,35.19337],[-80.72943,35.18731],[-80.72997,35.1859],[-80.72408,35.17924],[-80.71958,35.17596],[-80.72201,35.17424],[-80.72442,35.17455],[-80.72507,35.17433],[-80.72537,35.17314],[-80.72584,35.17278],[-80.72465,35.172],[-80.7248,35.1714],[-80.72417,35.17086],[-80.72418,35.17022],[-80.72492,35.16915],[-80.72725,35.16666],[-80.72802,35.16624],[-80.72897,35.16623],[-80.73056,35.16456],[-80.73107,35.16327],[-80.73271,35.16246],[-80.73344,35.16167],[-80.73503,35.16105],[-80.73637,35.15977],[-80.73129,35.15503],[-80.72032,35.14258],[-80.72206,35.14264],[-80.72332,35.14167],[-80.72787,35.142],[-80.72729,35.14109],[-80.73105,35.13903],[-80.72934,35.13666],[-80.7365,35.13399],[-80.74101,35.14322],[-80.74554,35.14823],[-80.74581,35.15048],[-80.74819,35.15384],[-80.75016,35.15816],[-80.76116,35.16715],[-80.75963,35.16701],[-80.75923,35.16733],[-80.75751,35.16754],[-80.75558,35.1675],[-80.75708,35.17239],[-80.75657,35.17614],[-80.74931,35.17577],[-80.76974,35.19847],[-80.77153,35.1997],[-80.77509,35.20085],[-80.78612,35.20191],[-80.78714,35.20036],[-80.78926,35.1988],[-80.79127,35.19672],[-80.78997,35.1959],[-80.7905,35.19448],[-80.79143,35.19297],[-80.79368,35.19109],[-80.79652,35.19045],[-80.7971,35.19066],[-80.79836,35.19003],[-80.80099,35.18938],[-80.8016,35.19104],[-80.8071,35.19036],[-80.81087,35.19062],[-80.81105,35.19292],[-80.81061,35.19715],[-80.81123,35.19849],[-80.81251,35.19966],[-80.81155,35.2022],[-80.80933,35.20448],[-80.80799,35.20519],[-80.8089,35.20647],[-80.80932,35.20624],[-80.80976,35.20674],[-80.80944,35.20694],[-80.80997,35.20755],[-80.81216,35.20871],[-80.81011,35.21033],[-80.80666,35.20861],[-80.80535,35.21032],[-80.80253,35.20891],[-80.80211,35.20986],[-80.80103,35.21062],[-80.80085,35.21175],[-80.80029,35.2126],[-80.80107,35.213],[-80.79987,35.2148],[-80.79923,35.2193],[-80.80015,35.21939],[-80.80046,35.22286],[-80.79966,35.22561],[-80.79846,35.22537],[-80.79769,35.22625],[-80.79599,35.22316],[-80.7953,35.2225],[-80.7942,35.22233],[-80.79358,35.22167],[-80.7931,35.22212],[-80.7925,35.22406],[-80.79142,35.22553],[-80.78945,35.22607],[-80.78868,35.22715],[-80.78366,35.22783],[-80.78247,35.22874],[-80.78204,35.23037],[-80.7814,35.231],[-80.77848,35.23254],[-80.7774,35.23267],[-80.77619,35.23236],[-80.77452,35.23345],[-80.77462,35.23466],[-80.77565,35.23679],[-80.78259,35.23867],[-80.78534,35.23589],[-80.78842,35.23469],[-80.79348,35.23596],[-80.79454,35.23685],[-80.79897,35.23872],[-80.80037,35.23747],[-80.8054,35.2348],[-80.8077,35.23285],[-80.80883,35.23263],[-80.81107,35.2329],[-80.81198,35.22947],[-80.81293,35.22766],[-80.81775,35.22342],[-80.81855,35.22132],[-80.82165,35.22193],[-80.82756,35.22062],[-80.82893,35.22017],[-80.83194,35.21834],[-80.83394,35.21335],[-80.83745,35.21395],[-80.84452,35.21992],[-80.84855,35.21879],[-80.84997,35.21808],[-80.85507,35.21416],[-80.85976,35.20989],[-80.86051,35.2075],[-80.86494,35.2029],[-80.86772,35.19899],[-80.87224,35.19531],[-80.87513,35.19025],[-80.87559,35.18926],[-80.87567,35.18802],[-80.87658,35.13896],[-80.87633,35.13772],[-80.87458,35.13768],[-80.87416,35.137],[-80.87315,35.13703],[-80.87235,35.13662],[-80.87028,35.1366],[-80.8706,35.13405],[-80.8697,35.13177],[-80.87034,35.12792],[-80.86582,35.1278],[-80.86547,35.12884],[-80.8662,35.12988],[-80.86597,35.13094],[-80.86636,35.13177],[-80.86578,35.13186],[-80.8651,35.13171],[-80.86489,35.13137],[-80.86412,35.12769],[-80.86698,35.12327],[-80.86759,35.11951],[-80.86858,35.11707],[-80.86859,35.11518],[-80.87006,35.11212],[-80.87055,35.11006],[-80.87272,35.10828],[-80.87559,35.10435],[-80.87581,35.10225],[-80.87744,35.09826],[-80.87892,35.09995],[-80.88094,35.10147],[-80.89095,35.10567],[-80.89342,35.10718],[-80.89591,35.10936],[-80.89486,35.11002],[-80.89691,35.11381],[-80.89703,35.11452],[-80.89482,35.11796],[-80.89288,35.12284],[-80.89402,35.1224],[-80.89796,35.1239],[-80.90205,35.12178],[-80.90266,35.12185],[-80.90396,35.11928],[-80.90471,35.11842],[-80.90698,35.12032],[-80.90901,35.12154],[-80.91752,35.12526],[-80.91728,35.12562],[-80.91985,35.12747],[-80.92201,35.12983],[-80.92598,35.13654],[-80.92817,35.13909],[-80.93156,35.14169],[-80.94306,35.14919],[-80.94586,35.15199],[-80.94738,35.15437],[-80.95082,35.15316],[-80.95335,35.15265],[-80.95314,35.15382],[-80.95115,35.15664],[-80.95084,35.15782],[-80.95418,35.16662],[-80.95439,35.17051],[-80.9432,35.17044],[-80.94012,35.16787],[-80.9387,35.16586],[-80.935,35.16368],[-80.93265,35.16414],[-80.93074,35.16327],[-80.92936,35.16304],[-80.92122,35.16374],[-80.92423,35.16718],[-80.93256,35.18635],[-80.93223,35.18764],[-80.92917,35.18984],[-80.93332,35.19388],[-80.93452,35.19348],[-80.94182,35.19327],[-80.94719,35.19258],[-80.94961,35.19167],[-80.95797,35.18961],[-80.95918,35.194],[-80.96229,35.20033],[-80.96242,35.20108],[-80.96182,35.20333],[-80.96171,35.20657],[-80.95884,35.20969],[-80.95824,35.21171],[-80.95874,35.21643],[-80.96127,35.22381],[-80.9572,35.22503],[-80.95642,35.22566],[-80.95617,35.22674],[-80.95707,35.22895],[-80.95709,35.23006],[-80.95639,35.23126],[-80.9551,35.23202],[-80.95345,35.23218],[-80.95199,35.23169],[-80.94916,35.22856],[-80.9485,35.22818],[-80.94734,35.22807],[-80.94621,35.22857],[-80.95275,35.23318],[-80.95624,35.23369],[-80.95932,35.23291],[-80.95901,35.2335],[-80.95931,35.2376],[-80.96171,35.23829],[-80.97464,35.24028]]]}}]}