{"type":"FeatureCollection","features":[{"type":"Feature","properties":{"std_name":"Tulsa","kind":"incorporated","NAME":"Tulsa","LSAD":"25"},"geometry":{"type":"MultiPolygon","coordinates":[[[[-95.69906,36.14049],[-95.69071,36.14047],[-95.69071,36.14028],[-95.69906,36.14021],[-95.69906,36.14049]]],[[[-95.75819,36.15414],[-95.75742,36.15418],[-95.75741,36.15386],[-95.75818,36.15386],[-95.75819,36.15414]]],[[[-96.07458,36.16092],[-96.07342,36.16108],[-96.07341,36.16072],[-96.07424,36.16071],[-96.07408,36.1482],[-96.0652,36.14827],[-96.06517,36.14726],[-96.06341,36.1472],[-96.06339,36.14824],[-96.06148,36.14826],[-96.06148,36.14889],[-96.04861,36.15297],[-96.05037,36.1535],[-96.05174,36.15626],[-96.0472,36.15713],[-96.04729,36.16113],[-96.06298,36.16087],[-96.07336,36.16108],[-96.07272,36.24516],[-96.00141,36.2453],[-96.00131,36.25002],[-95.9957,36.24999],[-95.99569,36.24783],[-95.99293,36.24785],[-95.99296,36.24202],[-95.98497,36.24202],[-95.98451,36.24217],[-95.98456,36.24936],[-95.99423,36.24936],[-95.99481,36.24972],[-95.93748,36.24958],[-95.9379,36.27492],[-95.9376,36.29302],[-95.9377,36.33651],[-95.88457,36.33653],[-95.8843,36.27899],[-95.90216,36.27903],[-95.90212,36.26339],[-95.88447,36.2633],[-95.88417,36.24919],[-95.84637,36.24925],[-95.84638,36.2465],[-95.84147,36.2465],[-95.84147,36.24916],[-95.82926,36.24911],[-95.82928,36.24611],[-95.82438,36.24612],[-95.82439,36.24911],[-95.76156,36.24912],[-95.76156,36.24939],[-95.75858,36.24939],[-95.75858,36.24591],[-95.75541,36.24592],[-95.7554,36.24501],[-95.75315,36.24502],[-95.75315,36.24593],[-95.75039,36.24593],[-95.74761,36.24822],[-95.74609,36.24903],[-95.74452,36.24935],[-95.74284,36.24918],[-95.74512,36.2491],[-95.7464,36.2487],[-95.75029,36.24574],[-95.75291,36.24573],[-95.75291,36.24483],[-95.7554,36.24482],[-95.75564,36.24482],[-95.75564,36.24573],[-95.75881,36.24572],[-95.75882,36.2492],[-95.76132,36.2492],[-95.76132,36.24893],[-95.82377,36.24897],[-95.82376,36.24588],[-95.82974,36.24587],[-95.82975,36.24897],[-95.84099,36.24896],[-95.84096,36.24619],[-95.84276,36.24619],[-95.84685,36.24621],[-95.84695,36.24902],[-95.88435,36.24905],[-95.88464,36.26317],[-95.90247,36.26339],[-95.90253,36.27932],[-95.88453,36.27926],[-95.88477,36.33633],[-95.9375,36.33634],[-95.93726,36.29305],[-95.93732,36.27826],[-95.93759,36.27494],[-95.93714,36.24936],[-95.94274,36.24935],[-95.94266,36.24905],[-95.95836,36.24905],[-95.95841,36.23512],[-95.92949,36.23515],[-95.9271,36.23465],[-95.925,36.2351],[-95.91269,36.23516],[-95.81525,36.23507],[-95.815,36.22941],[-95.81526,36.22503],[-95.81058,36.22581],[-95.81059,36.22464],[-95.79771,36.2258],[-95.76479,36.23097],[-95.76422,36.2311],[-95.76419,36.23516],[-95.7596,36.23518],[-95.75948,36.22018],[-95.75904,36.22017],[-95.75904,36.21971],[-95.75972,36.21998],[-95.75984,36.23498],[-95.76396,36.23498],[-95.76399,36.23095],[-95.76759,36.23026],[-95.80037,36.22524],[-95.81082,36.22442],[-95.81082,36.22559],[-95.81527,36.22484],[-95.81539,36.16244],[-95.7996,36.16247],[-95.79446,36.16154],[-95.79191,36.16229],[-95.78902,36.16245],[-95.76582,36.1625],[-95.76164,36.16197],[-95.76166,36.1529],[-95.7606,36.15289],[-95.75318,36.1529],[-95.75323,36.15521],[-95.7525,36.15493],[-95.74394,36.15521],[-95.74399,36.16055],[-95.7363,36.16035],[-95.73299,36.1606],[-95.7328,36.16246],[-95.71067,36.16188],[-95.69963,36.1624],[-95.69073,36.16239],[-95.69051,36.14803],[-95.6996,36.14804],[-95.6996,36.14055],[-95.69933,36.13999],[-95.69059,36.14003],[-95.6905,36.1259],[-95.6817,36.12587],[-95.68185,36.10468],[-95.69078,36.10471],[-95.69078,36.10434],[-95.69116,36.10434],[-95.72612,36.10444],[-95.72613,36.11164],[-95.73438,36.11166],[-95.7344,36.11898],[-95.75063,36.11902],[-95.76186,36.1189],[-95.76185,36.09029],[-95.79737,36.0902],[-95.79743,36.09722],[-95.80632,36.09722],[-95.80628,36.10443],[-95.81532,36.10443],[-95.81531,36.08994],[-95.81922,36.08995],[-95.81921,36.08262],[-95.82258,36.08246],[-95.82407,36.08317],[-95.82407,36.07559],[-95.85119,36.07553],[-95.85127,36.0175],[-95.88651,36.01758],[-95.88672,36.0029],[-95.90433,36.00291],[-95.90439,35.96835],[-95.90725,35.96951],[-95.91373,35.97367],[-95.91538,35.97366],[-95.9154,35.97539],[-95.91632,35.97643],[-95.92204,35.98027],[-95.9228,35.98122],[-95.92402,35.982],[-95.92661,35.98041],[-95.92751,35.98174],[-95.9277,35.98359],[-95.92655,35.98462],[-95.92794,35.98685],[-95.93129,35.98939],[-95.93238,35.98981],[-95.93512,35.99176],[-95.9392,35.99379],[-95.94173,35.99579],[-95.94272,35.99617],[-95.94355,35.99814],[-95.94615,36.00187],[-95.94768,36.00576],[-95.94751,36.00717],[-95.94784,36.01067],[-95.94923,36.01307],[-95.95131,36.02178],[-95.95341,36.02851],[-95.9557,36.03126],[-95.95672,36.0319],[-95.96178,36.03192],[-95.96237,36.03249],[-95.96516,36.03809],[-95.97018,36.0431],[-95.97586,36.043],[-95.97589,36.03196],[-95.98496,36.03195],[-95.98589,36.03159],[-95.98589,36.03194],[-96.02952,36.03197],[-96.02955,36.07441],[-96.02958,36.07537],[-96.03037,36.07537],[-96.03038,36.07737],[-96.03106,36.07737],[-96.03107,36.08232],[-96.03407,36.08233],[-96.03406,36.08082],[-96.03853,36.08085],[-96.03853,36.07905],[-96.04362,36.07904],[-96.03656,36.08807],[-96.03409,36.08809],[-96.03408,36.08994],[-96.05318,36.08989],[-96.05337,36.09065],[-96.0548,36.092],[-96.05565,36.0938],[-96.05639,36.09381],[-96.05631,36.10452],[-96.05858,36.10453],[-96.05855,36.10994],[-96.05729,36.10993],[-96.05731,36.11178],[-96.0588,36.1118],[-96.05879,36.11262],[-96.05828,36.11262],[-96.05827,36.11384],[-96.058,36.11384],[-96.05799,36.11548],[-96.05757,36.11548],[-96.05755,36.11906],[-96.05728,36.11906],[-96.0571,36.14142],[-96.0656,36.14117],[-96.0656,36.1479],[-96.07443,36.14785],[-96.07458,36.16092]],[[-96.07281,36.19461],[-96.05084,36.19446],[-96.05085,36.19809],[-96.05514,36.19812],[-96.05515,36.20177],[-96.03718,36.20173],[-96.03721,36.19671],[-96.02842,36.19675],[-96.02839,36.2018],[-96.01105,36.20177],[-96.01089,36.20262],[-96.00697,36.20255],[-96.0034,36.20352],[-96.0018,36.20353],[-96.00182,36.20529],[-96.00126,36.20529],[-96.00128,36.21299],[-95.99638,36.20709],[-95.9935,36.20707],[-95.9935,36.20973],[-95.99393,36.21042],[-95.99581,36.21166],[-95.99646,36.21321],[-95.99372,36.21769],[-95.99618,36.21769],[-95.99621,36.22049],[-96.00116,36.22048],[-96.00146,36.22103],[-96.00146,36.22697],[-96.00024,36.22695],[-96.00025,36.2277],[-95.99372,36.22768],[-95.99373,36.23026],[-95.99609,36.23025],[-95.99609,36.2349],[-95.99373,36.23491],[-95.9936,36.24217],[-96.0014,36.24213],[-96.00141,36.24482],[-96.07266,36.2447],[-96.07281,36.19461]],[[-96.05623,36.13354],[-96.05174,36.13349],[-96.05176,36.12321],[-96.05321,36.12301],[-96.0535,36.11903],[-96.054,36.11903],[-96.05402,36.1172],[-96.0518,36.11719],[-96.05179,36.11771],[-96.04917,36.11583],[-96.04918,36.11357],[-96.04733,36.11356],[-96.04733,36.11173],[-96.05406,36.11177],[-96.05408,36.10324],[-96.05469,36.10088],[-96.05479,36.09745],[-96.05454,36.09363],[-96.05187,36.09362],[-96.05188,36.09225],[-96.04916,36.09223],[-96.04917,36.09148],[-96.04742,36.09144],[-96.04742,36.09102],[-96.04615,36.09101],[-96.04615,36.09158],[-96.03882,36.0916],[-96.03943,36.09082],[-96.03408,36.09081],[-96.03415,36.09723],[-96.03845,36.09725],[-96.0384,36.10806],[-96.03548,36.10809],[-96.03544,36.10446],[-96.03396,36.10447],[-96.03399,36.10809],[-96.0295,36.10809],[-96.02954,36.1093],[-96.0327,36.1093],[-96.03272,36.11091],[-96.03168,36.11094],[-96.03169,36.11185],[-96.02049,36.11188],[-96.02048,36.10764],[-96.01949,36.10763],[-96.01617,36.11019],[-96.01622,36.1119],[-96.01389,36.11191],[-96.01312,36.11307],[-96.01234,36.11626],[-96.01124,36.11877],[-96.00973,36.11879],[-96.00937,36.12186],[-96.00952,36.13104],[-96.00921,36.13315],[-96.01604,36.1332],[-96.01608,36.13102],[-96.01959,36.13103],[-96.0196,36.13346],[-96.01147,36.13345],[-96.01147,36.1376],[-96.00915,36.13764],[-96.00916,36.13866],[-96.00833,36.13866],[-96.00821,36.14013],[-96.0071,36.14222],[-96.00892,36.14344],[-96.01127,36.14408],[-96.01128,36.14932],[-96.016,36.15055],[-96.02087,36.15012],[-96.02109,36.15113],[-96.02373,36.15074],[-96.02419,36.15066],[-96.02415,36.14978],[-96.02639,36.1496],[-96.03066,36.14858],[-96.03604,36.1465],[-96.03603,36.14691],[-96.03651,36.1469],[-96.03947,36.14597],[-96.04655,36.14578],[-96.04652,36.14502],[-96.04724,36.145],[-96.04714,36.14318],[-96.04968,36.14229],[-96.05169,36.14184],[-96.05169,36.14271],[-96.05609,36.14207],[-96.05623,36.13354]],[[-96.03372,36.14873],[-96.02933,36.14979],[-96.02928,36.1507],[-96.03373,36.14992],[-96.03372,36.14873]],[[-96.02926,36.15286],[-96.028,36.15289],[-96.02765,36.15152],[-96.02321,36.15218],[-96.02343,36.15305],[-96.02036,36.15338],[-96.02035,36.15376],[-96.02073,36.1552],[-96.02925,36.15525],[-96.02926,36.15286]],[[-96.02786,36.15007],[-96.02484,36.15055],[-96.02487,36.15134],[-96.02785,36.15091],[-96.02786,36.15007]],[[-96.00711,36.12607],[-96.00694,36.11171],[-95.99353,36.11158],[-95.99355,36.10811],[-95.9895,36.10809],[-95.98951,36.11091],[-95.9901,36.11473],[-95.99009,36.11963],[-95.99128,36.12599],[-96.00711,36.12607]],[[-95.9324,36.17923],[-95.93238,36.17716],[-95.92524,36.1771],[-95.92518,36.17834],[-95.9236,36.17835],[-95.92361,36.17709],[-95.9225,36.17707],[-95.92252,36.18796],[-95.9247,36.18795],[-95.92469,36.1861],[-95.92912,36.18609],[-95.92914,36.18253],[-95.93117,36.18252],[-95.93114,36.17979],[-95.93162,36.17979],[-95.93163,36.17922],[-95.9324,36.17923]],[[-95.88678,36.20245],[-95.88662,36.19469],[-95.87566,36.19463],[-95.87565,36.1941],[-95.87885,36.19408],[-95.87991,36.19287],[-95.87989,36.18731],[-95.8809,36.1873],[-95.88089,36.18432],[-95.88667,36.1843],[-95.88673,36.18263],[-95.86866,36.18398],[-95.86877,36.21315],[-95.88396,36.21322],[-95.88444,36.20247],[-95.88678,36.20245]],[[-95.72178,36.12079],[-95.72177,36.11717],[-95.71272,36.11713],[-95.71274,36.12074],[-95.72178,36.12079]],[[-95.74394,36.15521],[-95.74391,36.15158],[-95.73943,36.15156],[-95.73945,36.14797],[-95.73494,36.14798],[-95.73495,36.15517],[-95.74394,36.15521]],[[-95.98451,36.24217],[-95.98452,36.23497],[-95.9589,36.23512],[-95.95888,36.2493],[-95.98422,36.24935],[-95.98414,36.24216],[-95.98451,36.24217]]]]}},{"type":"Feature","properties":{"std_name":"Paradise","kind":"cdp","NAME":"Paradise","LSAD":"57"},"geometry":{"type":"Polygon","coordinates":[[[-115.20783,36.07171],[-115.20807,36.13],[-115.19226,36.13024],[-115.19024,36.13002],[-115.19025,36.13025],[-115.18116,36.12979],[-115.18113,36.13005],[-115.17908,36.13113],[-115.17503,36.13176],[-115.16669,36.13129],[-115.16344,36.12976],[-115.16232,36.12956],[-115.1491,36.12938],[-115.14536,36.12977],[-115.12595,36.12987],[-115.08568,36.1296],[-115.08367,36.13026],[-115.08303,36.13112],[-115.08238,36.13087],[-115.08111,36.1296],[-115.06543,36.1296],[-115.06393,36.10038],[-115.06397,36.08732],[-115.06207,36.08678],[-115.06007,36.08569],[-115.06399,36.08563],[-115.06425,36.07804],[-115.07775,36.07819],[-115.07771,36.08006],[-115.07855,36.08007],[-115.07909,36.07916],[-115.07979,36.07917],[-115.07997,36.07872],[-115.08114,36.07823],[-115.08227,36.07824],[-115.08228,36.07787],[-115.08296,36.07771],[-115.08234,36.07665],[-115.08233,36.07363],[-115.08468,36.07373],[-115.0847,36.0728],[-115.08703,36.0729],[-115.08708,36.07104],[-115.08763,36.07107],[-115.08761,36.07051],[-115.08853,36.07054],[-115.0885,36.06931],[-115.08941,36.06936],[-115.08939,36.06755],[-115.09173,36.06764],[-115.09162,36.06401],[-115.09618,36.06412],[-115.09601,36.06052],[-115.10046,36.06066],[-115.1003,36.05338],[-115.10925,36.05329],[-115.10926,36.04963],[-115.11816,36.04954],[-115.11823,36.04406],[-115.11374,36.0441],[-115.11375,36.04228],[-115.116,36.04226],[-115.11603,36.04043],[-115.11827,36.04041],[-115.11838,36.03311],[-115.11388,36.03314],[-115.11399,36.02764],[-115.10046,36.02779],[-115.10062,36.02051],[-115.11861,36.02048],[-115.11878,36.01334],[-115.15466,36.01326],[-115.15437,36.04598],[-115.15456,36.07133],[-115.17872,36.07088],[-115.18983,36.07174],[-115.20783,36.07171]]]}},{"type":"Feature","properties":{"std_name":"Las Vegas","kind":"incorporated","NAME":"Las Vegas","LSAD":"25"},"geometry":{"type":"Polygon","coordinates":[[[-115.40578,36.1889],[-115.40614,36.19613],[-115.39729,36.19606],[-115.3977,36.21051],[-115.37063,36.2107],[-115.37052,36.2182],[-115.35197,36.21796],[-115.33415,36.21841],[-115.33436,36.22824],[-115.33414,36.23621],[-115.33636,36.23623],[-115.33608,36.24012],[-115.33832,36.24014],[-115.33819,36.24204],[-115.35167,36.24218],[-115.35161,36.24409],[-115.35831,36.2442],[-115.3583,36.24605],[-115.35148,36.246],[-115.35141,36.24763],[-115.34693,36.24761],[-115.34694,36.25149],[-115.35151,36.25148],[-115.3515,36.24965],[-115.35599,36.24972],[-115.35599,36.24789],[-115.36045,36.24796],[-115.36046,36.24614],[-115.36948,36.2462],[-115.36948,36.24801],[-115.36498,36.24799],[-115.36494,36.25162],[-115.36046,36.25157],[-115.36044,36.25523],[-115.35821,36.25521],[-115.3582,36.25889],[-115.35599,36.25888],[-115.35599,36.26256],[-115.35157,36.26254],[-115.35154,36.28081],[-115.347,36.28078],[-115.34699,36.28438],[-115.34472,36.28439],[-115.34471,36.288],[-115.34244,36.28802],[-115.34243,36.29165],[-115.3447,36.29162],[-115.34477,36.29527],[-115.3425,36.2953],[-115.34269,36.3081],[-115.33357,36.30816],[-115.33347,36.3209],[-115.34698,36.32111],[-115.34683,36.32872],[-115.34907,36.32867],[-115.34917,36.32678],[-115.35025,36.32679],[-115.35027,36.32585],[-115.34914,36.32584],[-115.34916,36.32493],[-115.35028,36.32494],[-115.35035,36.32117],[-115.35142,36.32119],[-115.35123,36.33054],[-115.35018,36.33054],[-115.35014,36.33241],[-115.349,36.33242],[-115.34892,36.33616],[-115.31484,36.33624],[-115.31437,36.36615],[-115.33246,36.36531],[-115.3689,36.36554],[-115.36891,36.37036],[-115.40632,36.40122],[-115.38254,36.40148],[-115.38249,36.39955],[-115.37798,36.39953],[-115.37793,36.3976],[-115.37341,36.39758],[-115.37336,36.39565],[-115.36656,36.39563],[-115.36657,36.39373],[-115.36428,36.39373],[-115.36429,36.39187],[-115.35973,36.39186],[-115.35974,36.38906],[-115.35746,36.38906],[-115.35746,36.38719],[-115.35289,36.38719],[-115.3529,36.38532],[-115.35061,36.38531],[-115.35061,36.38345],[-115.34833,36.38345],[-115.34833,36.38158],[-115.34147,36.38159],[-115.34147,36.38066],[-115.31406,36.3809],[-115.28099,36.37947],[-115.2604,36.3793],[-115.26045,36.35053],[-115.26084,36.33583],[-115.2071,36.33531],[-115.20724,36.30597],[-115.20644,36.27628],[-115.20721,36.26357],[-115.20753,36.25047],[-115.20746,36.21729],[-115.21221,36.21713],[-115.19258,36.19562],[-115.18676,36.19563],[-115.18676,36.19445],[-115.18541,36.19441],[-115.18542,36.19328],[-115.18381,36.19329],[-115.18381,36.19378],[-115.18323,36.19384],[-115.18319,36.19565],[-115.17993,36.19568],[-115.17994,36.19386],[-115.1793,36.19386],[-115.17929,36.19493],[-115.17882,36.19493],[-115.17881,36.19566],[-115.16536,36.19571],[-115.1653,36.20297],[-115.15178,36.20306],[-115.15186,36.1957],[-115.14284,36.19573],[-115.14292,36.18836],[-115.12505,36.18844],[-115.12505,36.18483],[-115.12059,36.18484],[-115.12057,36.18847],[-115.09805,36.18813],[-115.06226,36.18882],[-115.06235,36.15911],[-115.10608,36.15888],[-115.10609,36.15745],[-115.10545,36.15745],[-115.10545,36.15706],[-115.10662,36.15704],[-115.10663,36.15548],[-115.10769,36.15548],[-115.10771,36.15889],[-115.11153,36.15888],[-115.11149,36.16272],[-115.11389,36.16275],[-115.11389,36.1615],[-115.11605,36.16151],[-115.11613,36.15888],[-115.11656,36.15888],[-115.11613,36.15882],[-115.11232,36.15561],[-115.09965,36.14444],[-115.10042,36.14436],[-115.10487,36.14832],[-115.10575,36.14791],[-115.10202,36.14434],[-115.10264,36.14436],[-115.10302,36.14473],[-115.10426,36.14446],[-115.10946,36.14437],[-115.13701,36.14433],[-115.15477,36.14367],[-115.16612,36.14407],[-115.17321,36.1334],[-115.17318,36.13521],[-115.17436,36.13526],[-115.17319,36.13706],[-115.17796,36.13713],[-115.18024,36.13355],[-115.18116,36.12979],[-115.19025,36.13025],[-115.19037,36.13384],[-115.19929,36.13365],[-115.19945,36.13731],[-115.20542,36.13728],[-115.20519,36.13503],[-115.20809,36.13501],[-115.20811,36.14089],[-115.20426,36.1409],[-115.20434,36.14458],[-115.21001,36.1446],[-115.23388,36.14413],[-115.24298,36.14424],[-115.26061,36.1437],[-115.27897,36.14411],[-115.27895,36.12955],[-115.31518,36.12984],[-115.31583,36.15897],[-115.35725,36.15896],[-115.36013,36.15806],[-115.36311,36.15545],[-115.37929,36.15541],[-115.39412,36.1626],[-115.40567,36.16668],[-115.40658,36.17445],[-115.40578,36.1889]],[[-115.33328,36.26615],[-115.33327,36.26432],[-115.33212,36.26431],[-115.33213,36.26525],[-115.33102,36.26526],[-115.33099,36.26617],[-115.33328,36.26615]],[[-115.32954,36.21851],[-115.32722,36.21838],[-115.32723,36.21927],[-115.32954,36.21928],[-115.32954,36.21851]],[[-115.32865,36.27352],[-115.32864,36.27169],[-115.32766,36.2717],[-115.32767,36.27354],[-115.32865,36.27352]],[[-115.32861,36.26803],[-115.32764,36.26804],[-115.32764,36.26987],[-115.32861,36.26986],[-115.32861,36.26803]],[[-115.32843,36.2642],[-115.32704,36.2612],[-115.32523,36.25937],[-115.32528,36.26439],[-115.3264,36.26438],[-115.3264,36.26255],[-115.32757,36.26252],[-115.32751,36.26441],[-115.32843,36.2642]],[[-115.32765,36.32483],[-115.32651,36.32485],[-115.32648,36.3259],[-115.32763,36.32585],[-115.32765,36.32483]],[[-115.32649,36.27722],[-115.32534,36.27724],[-115.32533,36.27851],[-115.32474,36.27908],[-115.32648,36.27906],[-115.32649,36.27722]],[[-115.32641,36.27173],[-115.32642,36.26992],[-115.32415,36.26995],[-115.32416,36.27175],[-115.32641,36.27173]],[[-115.32591,36.23645],[-115.32612,36.23085],[-115.32494,36.23089],[-115.32474,36.23647],[-115.32591,36.23645]],[[-115.32611,36.22728],[-115.32493,36.22731],[-115.32493,36.2291],[-115.32611,36.22907],[-115.32611,36.22728]],[[-115.32424,36.3249],[-115.32307,36.32492],[-115.32304,36.32607],[-115.32421,36.32601],[-115.32424,36.3249]],[[-115.32415,36.28643],[-115.32415,36.28464],[-115.32301,36.28463],[-115.32299,36.28645],[-115.32415,36.28643]],[[-115.32414,36.26808],[-115.32411,36.26439],[-115.32067,36.26442],[-115.32067,36.26167],[-115.31954,36.26167],[-115.31952,36.2626],[-115.31837,36.26261],[-115.3184,36.25892],[-115.31611,36.25894],[-115.3161,36.26262],[-115.31159,36.26264],[-115.31162,36.2608],[-115.31268,36.2608],[-115.31273,36.25713],[-115.30508,36.25726],[-115.30508,36.25814],[-115.30616,36.25814],[-115.30616,36.25904],[-115.30397,36.25908],[-115.30399,36.25547],[-115.3029,36.25549],[-115.3029,36.25363],[-115.30401,36.2536],[-115.30509,36.2536],[-115.3051,36.25545],[-115.30617,36.25543],[-115.30618,36.24988],[-115.30777,36.24985],[-115.30838,36.24983],[-115.30837,36.25077],[-115.30728,36.25078],[-115.30728,36.25356],[-115.3083,36.25354],[-115.30836,36.25168],[-115.30947,36.25165],[-115.30945,36.25352],[-115.31054,36.2535],[-115.31056,36.25161],[-115.31274,36.25158],[-115.3127,36.25526],[-115.31379,36.25524],[-115.31384,36.24975],[-115.31501,36.24973],[-115.31543,36.23304],[-115.30758,36.23332],[-115.30755,36.23516],[-115.30644,36.23518],[-115.30641,36.23702],[-115.30752,36.23699],[-115.30748,36.23882],[-115.30527,36.23887],[-115.30531,36.23705],[-115.30199,36.23715],[-115.30208,36.2335],[-115.29764,36.23369],[-115.29754,36.23729],[-115.29642,36.23729],[-115.29644,36.2364],[-115.29528,36.2364],[-115.29527,36.23728],[-115.29296,36.23731],[-115.29295,36.23822],[-115.2918,36.23823],[-115.29182,36.2373],[-115.29067,36.23733],[-115.29067,36.23643],[-115.28668,36.23644],[-115.28668,36.23686],[-115.28721,36.23686],[-115.28721,36.23735],[-115.2849,36.23736],[-115.2849,36.23915],[-115.28604,36.23914],[-115.28602,36.24008],[-115.28719,36.24007],[-115.28717,36.24189],[-115.28602,36.24191],[-115.28601,36.24098],[-115.28378,36.24103],[-115.28374,36.24009],[-115.2826,36.2401],[-115.28259,36.23556],[-115.28143,36.23557],[-115.28143,36.23373],[-115.27566,36.23361],[-115.27565,36.23548],[-115.26983,36.23524],[-115.26985,36.23711],[-115.26285,36.2369],[-115.26283,36.23745],[-115.26351,36.23747],[-115.2635,36.23785],[-115.26281,36.23784],[-115.26273,36.2406],[-115.26153,36.24057],[-115.26153,36.2415],[-115.26036,36.24147],[-115.26033,36.24511],[-115.26271,36.24517],[-115.26272,36.24428],[-115.26976,36.24444],[-115.26978,36.24563],[-115.26858,36.24559],[-115.26856,36.2475],[-115.26972,36.24754],[-115.2697,36.24807],[-115.26739,36.248],[-115.26741,36.25175],[-115.26974,36.25179],[-115.2698,36.24807],[-115.27265,36.24817],[-115.27265,36.24964],[-115.27383,36.24968],[-115.27387,36.24818],[-115.27442,36.2482],[-115.27446,36.24453],[-115.27563,36.24457],[-115.27562,36.24822],[-115.27624,36.24823],[-115.27618,36.25014],[-115.27382,36.25006],[-115.27382,36.25106],[-115.27264,36.25104],[-115.27262,36.25186],[-115.27905,36.25198],[-115.2789,36.25699],[-115.27961,36.25698],[-115.27962,36.25657],[-115.28011,36.25656],[-115.28008,36.25746],[-115.27888,36.25748],[-115.27873,36.26298],[-115.27994,36.26291],[-115.27994,36.26474],[-115.27872,36.26478],[-115.27877,36.26659],[-115.26975,36.26662],[-115.26976,36.27026],[-115.28114,36.27015],[-115.28123,36.27192],[-115.28262,36.27191],[-115.28261,36.27144],[-115.28346,36.27192],[-115.28809,36.27188],[-115.28801,36.27368],[-115.28683,36.27367],[-115.28682,36.27459],[-115.28732,36.27459],[-115.28728,36.2755],[-115.28793,36.27549],[-115.28787,36.2773],[-115.28897,36.27729],[-115.28906,36.27549],[-115.29018,36.27548],[-115.2901,36.2791],[-115.28782,36.27904],[-115.28782,36.28092],[-115.2901,36.28092],[-115.2901,36.27912],[-115.29235,36.2791],[-115.29233,36.28092],[-115.29688,36.28091],[-115.29687,36.27729],[-115.29462,36.27731],[-115.2947,36.27545],[-115.29919,36.27544],[-115.30031,36.27545],[-115.30025,36.27728],[-115.29913,36.27728],[-115.29913,36.27913],[-115.30082,36.27913],[-115.30082,36.28014],[-115.30025,36.28013],[-115.30024,36.28089],[-115.3059,36.28099],[-115.30589,36.27913],[-115.30136,36.27913],[-115.30135,36.27729],[-115.30251,36.2773],[-115.30253,36.27638],[-115.30366,36.27638],[-115.30364,36.2773],[-115.30702,36.27732],[-115.30703,36.2764],[-115.30816,36.27639],[-115.30817,36.2755],[-115.31155,36.27549],[-115.31153,36.27734],[-115.31265,36.27735],[-115.31269,36.27459],[-115.31155,36.27459],[-115.31156,36.27375],[-115.3127,36.27368],[-115.3127,36.27184],[-115.31383,36.27187],[-115.31379,36.27551],[-115.31503,36.27552],[-115.31504,36.27368],[-115.31623,36.27368],[-115.31617,36.27551],[-115.31731,36.27549],[-115.31731,36.27368],[-115.31959,36.27364],[-115.31961,36.27179],[-115.32075,36.27178],[-115.32075,36.27734],[-115.32304,36.27726],[-115.32303,36.27362],[-115.32188,36.27361],[-115.32184,36.26626],[-115.32298,36.26624],[-115.323,36.26808],[-115.32414,36.26808]],[[-115.32296,36.26075],[-115.32181,36.26074],[-115.32181,36.26258],[-115.32296,36.26257],[-115.32296,36.26075]],[[-115.32074,36.32498],[-115.31958,36.32501],[-115.31956,36.32625],[-115.32073,36.32619],[-115.32074,36.32498]],[[-115.32071,36.28462],[-115.32072,36.28097],[-115.31958,36.28098],[-115.31955,36.28465],[-115.32071,36.28462]],[[-115.32059,36.3334],[-115.31945,36.33341],[-115.31944,36.3339],[-115.31885,36.33427],[-115.31829,36.33366],[-115.31889,36.3333],[-115.31889,36.33249],[-115.31755,36.33284],[-115.31587,36.331],[-115.3172,36.33064],[-115.31723,36.32878],[-115.31608,36.3288],[-115.31606,36.33022],[-115.31493,36.32898],[-115.31491,36.33081],[-115.31716,36.33328],[-115.31715,36.33437],[-115.31984,36.33434],[-115.32055,36.33512],[-115.32059,36.3334]],[[-115.31609,36.32698],[-115.31594,36.32554],[-115.3156,36.32516],[-115.3153,36.32513],[-115.3159,36.32589],[-115.31494,36.32592],[-115.31494,36.32703],[-115.31609,36.32698]],[[-115.315,36.27738],[-115.31376,36.27736],[-115.31374,36.27917],[-115.31499,36.27918],[-115.315,36.27738]],[[-115.31495,36.29576],[-115.31376,36.29575],[-115.31377,36.29947],[-115.31492,36.29943],[-115.31495,36.29576]],[[-115.31374,36.28839],[-115.30925,36.28834],[-115.30925,36.28644],[-115.30701,36.28648],[-115.30701,36.28557],[-115.30584,36.28556],[-115.30588,36.28831],[-115.30811,36.28834],[-115.30812,36.29017],[-115.30699,36.29015],[-115.30699,36.29381],[-115.30582,36.2938],[-115.30585,36.29746],[-115.30756,36.29749],[-115.30755,36.29794],[-115.3082,36.29795],[-115.30806,36.29749],[-115.31264,36.29757],[-115.3126,36.29022],[-115.31373,36.29024],[-115.31374,36.28839]],[[-115.31261,36.2847],[-115.3115,36.28469],[-115.31149,36.28653],[-115.31262,36.28654],[-115.31261,36.2847]],[[-115.30867,36.2212],[-115.30866,36.21933],[-115.30636,36.21937],[-115.30637,36.22124],[-115.30867,36.2212]],[[-115.30668,36.28465],[-115.30635,36.28465],[-115.30635,36.2853],[-115.30667,36.2853],[-115.30668,36.28465]],[[-115.28763,36.3285],[-115.28765,36.31853],[-115.28653,36.31854],[-115.28652,36.31762],[-115.28765,36.31763],[-115.28764,36.31581],[-115.28422,36.31575],[-115.28425,36.31391],[-115.28371,36.3139],[-115.2837,36.31482],[-115.28312,36.31482],[-115.28311,36.31763],[-115.27858,36.31759],[-115.27851,36.32218],[-115.28079,36.32219],[-115.28079,36.32308],[-115.28302,36.32309],[-115.28301,36.32398],[-115.2808,36.32396],[-115.28077,36.32485],[-115.27853,36.32483],[-115.27856,36.32835],[-115.28763,36.3285]],[[-115.28745,36.33607],[-115.28746,36.33213],[-115.28296,36.33195],[-115.28296,36.33369],[-115.28408,36.33375],[-115.28406,36.33604],[-115.28745,36.33607]],[[-115.28624,36.27598],[-115.28564,36.27599],[-115.28562,36.2764],[-115.28622,36.2764],[-115.28624,36.27598]],[[-115.2861,36.23552],[-115.28608,36.23464],[-115.2849,36.23464],[-115.2849,36.23555],[-115.2861,36.23552]],[[-115.28276,36.29543],[-115.28125,36.29358],[-115.27868,36.29358],[-115.27866,36.29541],[-115.28276,36.29543]],[[-115.27514,36.30909],[-115.27461,36.30905],[-115.2746,36.31002],[-115.27514,36.31005],[-115.27514,36.30909]],[[-115.27168,36.30855],[-115.26932,36.30843],[-115.26929,36.30975],[-115.27168,36.30989],[-115.27168,36.30855]],[[-115.26624,36.24813],[-115.25691,36.2478],[-115.25692,36.24836],[-115.25581,36.24837],[-115.25581,36.24781],[-115.25122,36.24784],[-115.25138,36.25539],[-115.26512,36.25548],[-115.2651,36.25167],[-115.26567,36.25171],[-115.26567,36.25078],[-115.26508,36.25075],[-115.26509,36.24982],[-115.26394,36.24979],[-115.26393,36.24885],[-115.26507,36.24888],[-115.26508,36.24929],[-115.26623,36.24933],[-115.26624,36.24813]],[[-115.2648,36.31932],[-115.26479,36.31552],[-115.26365,36.3155],[-115.26364,36.31363],[-115.26245,36.31361],[-115.26248,36.31439],[-115.26134,36.31439],[-115.26135,36.31547],[-115.26018,36.31545],[-115.26021,36.31929],[-115.2648,36.31932]],[[-115.26476,36.31037],[-115.26475,36.30948],[-115.26324,36.3094],[-115.26325,36.31007],[-115.26476,36.31037]],[[-115.26406,36.22951],[-115.26295,36.22946],[-115.26293,36.23038],[-115.26177,36.23033],[-115.2618,36.23223],[-115.26409,36.23231],[-115.26406,36.22951]],[[-115.26284,36.22555],[-115.26283,36.22481],[-115.26222,36.2248],[-115.26223,36.22572],[-115.26284,36.22555]],[[-115.26246,36.31264],[-115.26245,36.30935],[-115.26012,36.30924],[-115.2601,36.31141],[-115.26132,36.31145],[-115.26133,36.3126],[-115.26246,36.31264]],[[-115.2607,36.23257],[-115.25956,36.23218],[-115.25956,36.23257],[-115.2607,36.23257]],[[-115.2606,36.23549],[-115.25992,36.23548],[-115.25994,36.23495],[-115.25831,36.23494],[-115.25822,36.23775],[-115.25596,36.23774],[-115.25593,36.23866],[-115.25704,36.23868],[-115.25701,36.2396],[-115.25814,36.23961],[-115.25811,36.24055],[-115.25925,36.24054],[-115.25932,36.23871],[-115.26047,36.2387],[-115.2606,36.23549]],[[-115.26056,36.22474],[-115.25829,36.22474],[-115.25824,36.22378],[-115.25596,36.22378],[-115.25597,36.22474],[-115.25712,36.22474],[-115.25712,36.22568],[-115.26056,36.22572],[-115.26056,36.22474]],[[-115.25951,36.23125],[-115.25949,36.23032],[-115.25606,36.23033],[-115.25607,36.23124],[-115.25951,36.23125]],[[-115.25938,36.22195],[-115.25821,36.22195],[-115.25818,36.2201],[-115.25706,36.22009],[-115.25708,36.22102],[-115.25593,36.22102],[-115.25595,36.22287],[-115.25938,36.22289],[-115.25938,36.22195]],[[-115.25652,36.2396],[-115.25588,36.2396],[-115.25587,36.24052],[-115.25649,36.24053],[-115.25652,36.2396]],[[-115.25575,36.29059],[-115.25524,36.29059],[-115.25524,36.29122],[-115.2549,36.29122],[-115.2549,36.29059],[-115.25126,36.29057],[-115.25122,36.29421],[-115.25572,36.29421],[-115.25575,36.29059]],[[-115.2539,36.27257],[-115.25389,36.27065],[-115.25305,36.27067],[-115.25306,36.27],[-115.24849,36.26982],[-115.24849,36.27024],[-115.24699,36.27047],[-115.247,36.27132],[-115.24773,36.27136],[-115.24774,36.27249],[-115.24699,36.27247],[-115.247,36.27311],[-115.24996,36.27327],[-115.24996,36.27294],[-115.25073,36.27298],[-115.25073,36.27271],[-115.24995,36.27267],[-115.24995,36.27233],[-115.24996,36.27187],[-115.25073,36.2719],[-115.25072,36.27056],[-115.25157,36.27059],[-115.25158,36.27253],[-115.2539,36.27257]],[[-115.25339,36.24051],[-115.25206,36.24049],[-115.25206,36.24133],[-115.25131,36.24132],[-115.25125,36.24166],[-115.25337,36.24168],[-115.25339,36.24051]],[[-115.247,36.26978],[-115.247,36.26806],[-115.24628,36.26804],[-115.24629,36.26975],[-115.247,36.26978]],[[-115.24562,36.24326],[-115.24538,36.24326],[-115.24538,36.2428],[-115.2445,36.2428],[-115.24447,36.24418],[-115.24225,36.24417],[-115.24223,36.24467],[-115.24334,36.24468],[-115.24332,36.2463],[-115.24222,36.2463],[-115.24222,36.24663],[-115.24444,36.24663],[-115.24445,36.24599],[-115.24559,36.246],[-115.2456,36.24502],[-115.24447,36.24501],[-115.24447,36.24469],[-115.24559,36.24469],[-115.24562,36.24326]],[[-115.24355,36.2659],[-115.24241,36.26587],[-115.24243,36.2664],[-115.24356,36.26641],[-115.24355,36.2659]],[[-115.24249,36.27285],[-115.24243,36.2696],[-115.24129,36.26952],[-115.24129,36.27016],[-115.24025,36.27008],[-115.24025,36.27275],[-115.24249,36.27285]],[[-115.24229,36.22043],[-115.24229,36.22004],[-115.24121,36.21996],[-115.24122,36.21933],[-115.24023,36.21925],[-115.24023,36.21861],[-115.23918,36.21853],[-115.23916,36.21887],[-115.23872,36.21883],[-115.23872,36.21792],[-115.23817,36.21787],[-115.23816,36.21839],[-115.23754,36.21834],[-115.23754,36.21874],[-115.23711,36.2187],[-115.23735,36.21735],[-115.23813,36.21733],[-115.23801,36.21422],[-115.23477,36.21402],[-115.23472,36.21758],[-115.23538,36.21764],[-115.23537,36.21719],[-115.23602,36.21718],[-115.2361,36.21825],[-115.23402,36.21806],[-115.23401,36.21838],[-115.23251,36.21832],[-115.23251,36.21878],[-115.23193,36.21873],[-115.23193,36.21957],[-115.23297,36.21966],[-115.23296,36.22009],[-115.2309,36.22004],[-115.23091,36.21912],[-115.2299,36.21903],[-115.2299,36.21719],[-115.22838,36.21706],[-115.22837,36.21895],[-115.22578,36.21893],[-115.22578,36.21915],[-115.22677,36.21924],[-115.22677,36.21968],[-115.22577,36.2196],[-115.22577,36.22056],[-115.2263,36.2206],[-115.22631,36.2211],[-115.22576,36.22105],[-115.22576,36.2224],[-115.22674,36.22248],[-115.22674,36.2234],[-115.22575,36.22331],[-115.22574,36.22427],[-115.22347,36.22431],[-115.22334,36.2263],[-115.2238,36.2268],[-115.22299,36.22726],[-115.22418,36.22859],[-115.22496,36.22794],[-115.22437,36.22725],[-115.22562,36.22728],[-115.22563,36.22705],[-115.22977,36.22736],[-115.22985,36.2246],[-115.23133,36.22472],[-115.23134,36.22419],[-115.23182,36.22423],[-115.23189,36.22477],[-115.23396,36.22494],[-115.234,36.22127],[-115.24022,36.22176],[-115.24022,36.2208],[-115.2412,36.22083],[-115.24128,36.22043],[-115.24229,36.22043]],[[-115.23862,36.26491],[-115.23812,36.26485],[-115.23811,36.26594],[-115.23861,36.26597],[-115.23862,36.26491]],[[-115.23443,36.21453],[-115.2338,36.2145],[-115.23384,36.21502],[-115.23438,36.21506],[-115.23443,36.21453]],[[-115.23391,36.26212],[-115.23287,36.26199],[-115.23277,36.2654],[-115.23172,36.26529],[-115.23179,36.2625],[-115.23074,36.26238],[-115.23075,36.26172],[-115.22969,36.26159],[-115.22967,36.26335],[-115.22858,36.26322],[-115.22855,36.26497],[-115.22756,36.26487],[-115.22752,36.26582],[-115.22856,36.26591],[-115.22855,36.26683],[-115.22961,36.26689],[-115.22953,36.26865],[-115.23377,36.26896],[-115.23386,36.26551],[-115.23323,36.26545],[-115.23324,36.26477],[-115.23381,36.26483],[-115.23391,36.26212]],[[-115.23155,36.21292],[-115.23047,36.21286],[-115.23038,36.21198],[-115.23146,36.21203],[-115.23143,36.21116],[-115.22808,36.21098],[-115.22798,36.21009],[-115.22687,36.21],[-115.22677,36.20918],[-115.22904,36.20929],[-115.22884,36.20753],[-115.22768,36.20749],[-115.22778,36.20835],[-115.22664,36.2083],[-115.22655,36.20745],[-115.22547,36.20741],[-115.2255,36.20779],[-115.22503,36.20776],[-115.2251,36.20825],[-115.22557,36.20827],[-115.2258,36.20996],[-115.22474,36.20993],[-115.22488,36.21082],[-115.22593,36.21087],[-115.22599,36.2113],[-115.22494,36.21125],[-115.22501,36.21169],[-115.22647,36.21176],[-115.22654,36.21219],[-115.22586,36.21217],[-115.2263,36.21349],[-115.22895,36.21366],[-115.22889,36.21315],[-115.22835,36.21312],[-115.2283,36.21272],[-115.22945,36.21279],[-115.22954,36.2137],[-115.23163,36.21382],[-115.23155,36.21292]],[[-115.22707,36.26483],[-115.22659,36.26479],[-115.22657,36.26571],[-115.22705,36.26576],[-115.22707,36.26483]],[[-115.22566,36.21269],[-115.22514,36.21256],[-115.22527,36.21341],[-115.22577,36.21345],[-115.22566,36.21269]],[[-115.22549,36.26105],[-115.22394,36.26103],[-115.22393,36.26159],[-115.22319,36.26159],[-115.22321,36.26105],[-115.22242,36.26105],[-115.22242,36.2627],[-115.22167,36.26271],[-115.22169,36.26105],[-115.22095,36.26107],[-115.22088,36.26835],[-115.22241,36.26836],[-115.22241,36.266],[-115.22165,36.266],[-115.22165,36.26545],[-115.22241,36.26545],[-115.22242,36.2649],[-115.22317,36.2649],[-115.22317,36.26435],[-115.22462,36.26434],[-115.22465,36.26835],[-115.22541,36.26836],[-115.22549,36.26105]],[[-115.22545,36.14803],[-115.2254,36.14683],[-115.22325,36.14722],[-115.2232,36.14614],[-115.22161,36.14614],[-115.22163,36.14661],[-115.22105,36.14661],[-115.22104,36.14616],[-115.21836,36.14615],[-115.21779,36.14575],[-115.21781,36.14766],[-115.21678,36.14767],[-115.21676,36.14668],[-115.21609,36.1467],[-115.21608,36.14624],[-115.21458,36.14625],[-115.21459,36.14662],[-115.21385,36.14663],[-115.21385,36.1469],[-115.21459,36.14689],[-115.21459,36.14718],[-115.21385,36.14718],[-115.21385,36.14746],[-115.2146,36.14746],[-115.2146,36.14813],[-115.21244,36.14812],[-115.21242,36.1504],[-115.21353,36.15041],[-115.21352,36.14994],[-115.21461,36.14994],[-115.21465,36.15085],[-115.21616,36.15087],[-115.21617,36.15127],[-115.21677,36.15126],[-115.21676,36.15271],[-115.21789,36.15273],[-115.21791,36.15401],[-115.21903,36.15401],[-115.21904,36.1544],[-115.21792,36.1544],[-115.21792,36.15478],[-115.21904,36.15478],[-115.21907,36.15558],[-115.21907,36.15611],[-115.21845,36.1561],[-115.21845,36.15559],[-115.21743,36.15557],[-115.21743,36.15603],[-115.21793,36.15602],[-115.21794,36.15669],[-115.21678,36.15668],[-115.21681,36.15736],[-115.21796,36.15737],[-115.21794,36.15797],[-115.2191,36.15798],[-115.21909,36.15748],[-115.22134,36.15748],[-115.22131,36.15651],[-115.22242,36.15651],[-115.2224,36.15557],[-115.22463,36.15557],[-115.22449,36.15179],[-115.22282,36.1518],[-115.22281,36.15125],[-115.22336,36.15125],[-115.22333,36.14988],[-115.22441,36.14988],[-115.22401,36.14804],[-115.22545,36.14803]],[[-115.2234,36.21635],[-115.22294,36.21342],[-115.22079,36.21342],[-115.22128,36.21691],[-115.22287,36.21688],[-115.22282,36.21637],[-115.2234,36.21635]],[[-115.2195,36.18498],[-115.21839,36.18499],[-115.2195,36.1846],[-115.21619,36.18458],[-115.21619,36.18537],[-115.21675,36.18538],[-115.21675,36.18572],[-115.2162,36.18572],[-115.2162,36.18677],[-115.21675,36.18677],[-115.21675,36.18709],[-115.2162,36.18709],[-115.21621,36.18826],[-115.21783,36.1883],[-115.21783,36.18781],[-115.21675,36.18779],[-115.21675,36.18739],[-115.21731,36.18739],[-115.2173,36.18677],[-115.21841,36.18677],[-115.2184,36.18559],[-115.21896,36.18536],[-115.2184,36.18519],[-115.2195,36.18498]],[[-115.21799,36.19259],[-115.21648,36.19229],[-115.21612,36.19163],[-115.21557,36.19161],[-115.21558,36.19139],[-115.21613,36.1914],[-115.21616,36.19052],[-115.21499,36.19058],[-115.21494,36.19253],[-115.21573,36.19255],[-115.21572,36.19283],[-115.21493,36.19281],[-115.2149,36.19414],[-115.21569,36.19414],[-115.21568,36.19497],[-115.21643,36.19498],[-115.21644,36.19442],[-115.21718,36.19444],[-115.21721,36.19314],[-115.21798,36.19317],[-115.21799,36.19259]],[[-115.21619,36.18916],[-115.21563,36.18915],[-115.21561,36.18984],[-115.21501,36.18983],[-115.215,36.19021],[-115.21616,36.1903],[-115.21619,36.18916]],[[-115.21587,36.18869],[-115.21545,36.18823],[-115.21544,36.18867],[-115.21504,36.18887],[-115.21587,36.18869]],[[-115.21479,36.2017],[-115.2149,36.19561],[-115.21266,36.19557],[-115.21276,36.19282],[-115.21052,36.19278],[-115.21055,36.19141],[-115.21113,36.19142],[-115.21112,36.19187],[-115.21276,36.19187],[-115.21277,36.19143],[-115.212,36.19143],[-115.212,36.19097],[-115.21229,36.19097],[-115.21232,36.19051],[-115.21279,36.19052],[-115.21281,36.19004],[-115.21059,36.19005],[-115.21058,36.18906],[-115.20834,36.18911],[-115.20829,36.19184],[-115.20741,36.19184],[-115.2074,36.19225],[-115.20828,36.19231],[-115.2082,36.19551],[-115.20748,36.1955],[-115.20746,36.19613],[-115.20676,36.19612],[-115.2066,36.19913],[-115.20669,36.19972],[-115.20705,36.19973],[-115.20702,36.20035],[-115.20669,36.20034],[-115.20666,36.20113],[-115.20583,36.20111],[-115.20581,36.20156],[-115.20641,36.20157],[-115.20641,36.20213],[-115.20678,36.20214],[-115.2065,36.20414],[-115.20673,36.20414],[-115.20676,36.20337],[-115.20726,36.20338],[-115.20736,36.2047],[-115.20701,36.2047],[-115.207,36.2058],[-115.20777,36.2058],[-115.20776,36.20641],[-115.21017,36.20649],[-115.21019,36.20546],[-115.21298,36.20542],[-115.2127,36.20226],[-115.21308,36.20226],[-115.2131,36.20168],[-115.21479,36.2017]],[[-115.21354,36.15086],[-115.21243,36.15086],[-115.21246,36.15178],[-115.21302,36.15177],[-115.21302,36.15127],[-115.21354,36.15127],[-115.21354,36.15086]],[[-115.21297,36.20603],[-115.2113,36.20599],[-115.21128,36.20652],[-115.21296,36.20654],[-115.21297,36.20603]],[[-115.21215,36.18822],[-115.2111,36.18821],[-115.21108,36.18916],[-115.21211,36.18916],[-115.21215,36.18822]],[[-115.20695,36.19275],[-115.20602,36.19278],[-115.20602,36.19302],[-115.20695,36.19303],[-115.20695,36.19275]],[[-115.197,36.18835],[-115.19342,36.1884],[-115.19343,36.18904],[-115.19309,36.18905],[-115.19308,36.18841],[-115.19274,36.18841],[-115.19275,36.18906],[-115.19171,36.18891],[-115.19172,36.18933],[-115.19151,36.18933],[-115.19153,36.18843],[-115.18941,36.18847],[-115.18941,36.18909],[-115.19016,36.18908],[-115.19015,36.1897],[-115.18941,36.18973],[-115.18936,36.18997],[-115.1908,36.19157],[-115.19178,36.19095],[-115.19242,36.19092],[-115.1924,36.19381],[-115.19297,36.19381],[-115.19297,36.19426],[-115.19325,36.19426],[-115.19352,36.19425],[-115.19352,36.1938],[-115.19411,36.1938],[-115.1941,36.19469],[-115.19466,36.19469],[-115.19466,36.19558],[-115.19691,36.19557],[-115.197,36.18835]],[[-115.18925,36.19197],[-115.18807,36.19064],[-115.18793,36.19048],[-115.18787,36.19177],[-115.18742,36.19177],[-115.18742,36.1921],[-115.18925,36.19197]],[[-115.18589,36.1921],[-115.18561,36.19165],[-115.18558,36.1921],[-115.18589,36.1921]],[[-115.17125,36.18939],[-115.17084,36.18939],[-115.17085,36.18984],[-115.17125,36.18984],[-115.17125,36.18939]],[[-115.17078,36.18939],[-115.16981,36.18938],[-115.16978,36.18984],[-115.17078,36.18984],[-115.17078,36.18939]],[[-115.11057,36.15179],[-115.11011,36.15179],[-115.106,36.14812],[-115.10505,36.1485],[-115.10964,36.15256],[-115.11057,36.15179]],[[-115.34694,36.25149],[-115.33781,36.2515],[-115.33782,36.25334],[-115.33507,36.25334],[-115.33333,36.25334],[-115.3333,36.25152],[-115.3287,36.25148],[-115.32869,36.25335],[-115.32411,36.25333],[-115.32413,36.2515],[-115.31956,36.25154],[-115.31955,36.25339],[-115.31496,36.25342],[-115.31498,36.25526],[-115.34239,36.25516],[-115.34238,36.25333],[-115.34695,36.25333],[-115.34694,36.25149]],[[-115.3059,36.28099],[-115.3059,36.28281],[-115.30699,36.28283],[-115.307,36.28099],[-115.3059,36.28099]],[[-115.2849,36.23464],[-115.28491,36.23371],[-115.28374,36.23372],[-115.28374,36.23465],[-115.2849,36.23464]],[[-115.23326,36.31281],[-115.2266,36.31262],[-115.22669,36.31452],[-115.22441,36.31446],[-115.22449,36.3164],[-115.22788,36.31654],[-115.22796,36.3185],[-115.22902,36.31852],[-115.22913,36.32048],[-115.23341,36.32065],[-115.23326,36.31281]],[[-115.25114,36.30515],[-115.25123,36.29784],[-115.24334,36.29783],[-115.24334,36.29875],[-115.24218,36.29874],[-115.24234,36.29056],[-115.24679,36.29057],[-115.24687,36.2852],[-115.25206,36.28537],[-115.25207,36.2849],[-115.2526,36.28492],[-115.25259,36.28539],[-115.25591,36.28553],[-115.25597,36.28389],[-115.2605,36.28414],[-115.26065,36.28007],[-115.25949,36.27998],[-115.25957,36.27916],[-115.25841,36.27908],[-115.25835,36.28072],[-115.25607,36.28055],[-115.25613,36.27889],[-115.25384,36.27872],[-115.25378,36.28038],[-115.25104,36.28019],[-115.25106,36.27934],[-115.25151,36.27935],[-115.25153,36.27852],[-115.25041,36.27844],[-115.25042,36.2776],[-115.25078,36.27762],[-115.25076,36.27669],[-115.25387,36.27694],[-115.25388,36.27528],[-115.25111,36.27508],[-115.25111,36.27423],[-115.25076,36.27421],[-115.25077,36.27505],[-115.24706,36.27474],[-115.24705,36.27513],[-115.2461,36.27513],[-115.24558,36.27502],[-115.24539,36.27379],[-115.24438,36.27373],[-115.24438,36.27492],[-115.24243,36.27473],[-115.24244,36.27609],[-115.23803,36.27604],[-115.23793,36.27433],[-115.23358,36.27416],[-115.23354,36.276],[-115.22482,36.27606],[-115.22449,36.27952],[-115.22898,36.27962],[-115.22892,36.28311],[-115.22737,36.2831],[-115.22732,36.28589],[-115.22768,36.2859],[-115.22768,36.28684],[-115.22433,36.28685],[-115.2243,36.28865],[-115.22597,36.28865],[-115.22595,36.28956],[-115.22491,36.28956],[-115.22489,36.29051],[-115.22879,36.29051],[-115.22862,36.30042],[-115.22972,36.30043],[-115.22971,36.30135],[-115.22861,36.30134],[-115.22871,36.30882],[-115.23093,36.30887],[-115.23089,36.30694],[-115.23201,36.30695],[-115.23207,36.3089],[-115.23433,36.30895],[-115.23435,36.3099],[-115.23323,36.30988],[-115.23326,36.31281],[-115.2421,36.31306],[-115.24221,36.30149],[-115.24613,36.30525],[-115.25114,36.30515]],[[-115.26012,36.30924],[-115.26012,36.30512],[-115.25788,36.30508],[-115.25793,36.30717],[-115.25675,36.30717],[-115.25675,36.30614],[-115.25338,36.30615],[-115.25338,36.30507],[-115.25114,36.30515],[-115.25113,36.30819],[-115.25347,36.30818],[-115.25348,36.30925],[-115.25677,36.30925],[-115.25676,36.30819],[-115.25793,36.30819],[-115.25794,36.30925],[-115.26012,36.30924]],[[-115.24241,36.26587],[-115.2424,36.26472],[-115.24129,36.26471],[-115.24132,36.26306],[-115.23922,36.26279],[-115.23919,36.26497],[-115.2403,36.26508],[-115.24029,36.26584],[-115.24241,36.26587]],[[-115.22474,36.20993],[-115.22449,36.20823],[-115.22306,36.20822],[-115.22307,36.20748],[-115.22437,36.20747],[-115.2243,36.20697],[-115.22538,36.207],[-115.22533,36.20653],[-115.22054,36.20647],[-115.22052,36.20705],[-115.22002,36.20705],[-115.22004,36.20646],[-115.21526,36.20641],[-115.21576,36.20997],[-115.22474,36.20993]],[[-115.22317,36.2649],[-115.22317,36.26545],[-115.22392,36.26545],[-115.22393,36.2649],[-115.22317,36.2649]],[[-115.21617,36.15127],[-115.2157,36.15127],[-115.21569,36.15178],[-115.21617,36.15178],[-115.21617,36.15127]]]}}]}