{"type":"FeatureCollection","features":[{"type":"Feature","properties":{"std_name":"Idaho sliver","kind":"idaho_sliver","sq_mi":57.6,"std_note":"Yellowstone National Park inside Idaho, inside the District of Wyoming (28 USC 131). Measured 57.6 sq mi from nps_boundary x census_state; the script says ~50."},"geometry":{"type":"Polygon","coordinates":[[[-111.04909,44.13282],[-111.09803,44.13285],[-111.0981,44.1557],[-111.09743,44.22966],[-111.09709,44.48646],[-111.09197,44.48644],[-111.08056,44.48401],[-111.07838,44.48317],[-111.07479,44.48345],[-111.07016,44.4822],[-111.06467,44.47864],[-111.05997,44.47735],[-111.058,44.47732],[-111.05578,44.4768],[-111.05243,44.47841],[-111.04897,44.47407],[-111.04919,44.43806],[-111.04889,44.43635],[-111.0493,44.42783],[-111.04915,44.37493],[-111.04969,44.35363],[-111.0496,44.26798],[-111.04932,44.2644],[-111.04908,44.21989],[-111.04909,44.13282]]]}},{"type":"Feature","properties":{"std_name":"Montana sliver","kind":"montana_sliver","sq_mi":248.3,"std_note":"Yellowstone National Park inside Montana, inside the District of Wyoming (28 USC 131). Measured 248.3 sq mi from nps_boundary x census_state; the script says ~50."},"geometry":{"type":"Polygon","coordinates":[[[-111.10177,45.10773],[-111.09691,45.10353],[-111.0947,45.10321],[-111.09284,45.10245],[-111.08808,45.10301],[-111.08606,45.10262],[-111.08478,45.10177],[-111.08357,45.10042],[-111.08308,45.09925],[-111.08332,45.09757],[-111.08194,45.09646],[-111.08154,45.09528],[-111.07951,45.0939],[-111.07706,45.09369],[-111.0758,45.09211],[-111.07354,45.0902],[-111.07419,45.0878],[-111.07306,45.08648],[-111.07237,45.08445],[-111.07245,45.08382],[-111.0707,45.08105],[-111.07035,45.07879],[-111.07072,45.07715],[-111.06977,45.07548],[-111.0691,45.07504],[-111.06583,45.07431],[-111.06525,45.0733],[-111.06352,45.07189],[-111.06279,45.07007],[-111.06194,45.06927],[-111.06116,45.06904],[-111.06017,45.06819],[-111.05503,45.06606],[-111.04965,45.06706],[-111.04906,45.0684],[-111.04907,45.06994],[-111.04824,45.07252],[-111.04569,45.07386],[-111.04082,45.07506],[-111.03873,45.07656],[-111.03684,45.07738],[-111.03508,45.07772],[-111.02952,45.08116],[-111.02281,45.08083],[-111.0207,45.08108],[-111.01838,45.08226],[-111.01834,45.08289],[-111.02031,45.08547],[-111.02008,45.08617],[-111.01765,45.08736],[-111.01678,45.0886],[-111.01732,45.09216],[-111.01376,45.09441],[-111.01092,45.0952],[-111.01034,45.09565],[-111.00953,45.09666],[-111.00962,45.09865],[-111.00733,45.09799],[-111.00191,45.09741],[-111.00139,45.09748],[-111.00078,45.09812],[-111.00009,45.09759],[-110.99684,45.09647],[-110.9942,45.09439],[-110.99295,45.09411],[-110.99131,45.09301],[-110.98792,45.09222],[-110.98661,45.09229],[-110.98547,45.09176],[-110.98274,45.09154],[-110.98209,45.09191],[-110.98188,45.09079],[-110.98215,45.08957],[-110.98165,45.0881],[-110.9806,45.08769],[-110.97985,45.08666],[-110.97693,45.08453],[-110.97632,45.08368],[-110.97669,45.08325],[-110.97606,45.08192],[-110.96995,45.08117],[-110.96985,45.08152],[-110.96719,45.08187],[-110.96569,45.08267],[-110.96563,45.08331],[-110.96508,45.08361],[-110.96425,45.08296],[-110.96145,45.08236],[-110.96027,45.08154],[-110.95976,45.08079],[-110.95904,45.08077],[-110.96049,45.07933],[-110.9602,45.07843],[-110.95902,45.07687],[-110.95583,45.07607],[-110.95272,45.07601],[-110.95106,45.07495],[-110.95031,45.07353],[-110.94757,45.07325],[-110.94483,45.07385],[-110.94304,45.07492],[-110.94266,45.07578],[-110.94106,45.07328],[-110.94098,45.07203],[-110.94038,45.07146],[-110.94168,45.07005],[-110.94121,45.06945],[-110.94143,45.0688],[-110.9407,45.06862],[-110.94059,45.06814],[-110.93964,45.06758],[-110.93964,45.06708],[-110.93921,45.0666],[-110.93704,45.06488],[-110.93651,45.06483],[-110.93541,45.0659],[-110.93465,45.0662],[-110.93307,45.06641],[-110.93266,45.06713],[-110.93044,45.0677],[-110.92973,45.06743],[-110.9316,45.06538],[-110.93116,45.06386],[-110.93147,45.06268],[-110.93304,45.06121],[-110.93324,45.06074],[-110.93292,45.05991],[-110.93442,45.05832],[-110.93538,45.05642],[-110.93682,45.05538],[-110.93684,45.05494],[-110.93589,45.05427],[-110.936,45.05333],[-110.93333,45.05272],[-110.93194,45.05037],[-110.93195,45.04987],[-110.92997,45.04894],[-110.92893,45.04983],[-110.92701,45.0496],[-110.92507,45.04887],[-110.92445,45.04899],[-110.92315,45.04832],[-110.92052,45.04798],[-110.91593,45.04573],[-110.91688,45.04431],[-110.91475,45.04278],[-110.91126,45.0411],[-110.91425,45.03801],[-110.91402,45.03751],[-110.91454,45.03491],[-110.91263,45.03294],[-110.9097,45.03207],[-110.90877,45.0315],[-110.90985,45.02963],[-110.84178,45.02957],[-110.84169,45.02998],[-110.8406,45.03077],[-110.84019,45.03187],[-110.8404,45.0334],[-110.83981,45.03437],[-110.84004,45.03467],[-110.83975,45.03574],[-110.83839,45.03775],[-110.83885,45.03848],[-110.83825,45.04235],[-110.83745,45.04343],[-110.83682,45.04508],[-110.83449,45.04438],[-110.83295,45.0446],[-110.83244,45.04509],[-110.83269,45.04598],[-110.83086,45.04747],[-110.83113,45.04916],[-110.82604,45.05417],[-110.82457,45.05436],[-110.8211,45.0557],[-110.81958,45.05521],[-110.81644,45.05497],[-110.81389,45.05407],[-110.81105,45.05453],[-110.81049,45.05435],[-110.8052,45.0548],[-110.80531,45.05537],[-110.80373,45.05622],[-110.8016,45.05629],[-110.8004,45.05673],[-110.79988,45.0574],[-110.79591,45.06028],[-110.78997,45.06145],[-110.78549,45.06183],[-110.7851,45.06241],[-110.78349,45.06266],[-110.78093,45.06425],[-110.77744,45.06512],[-110.77667,45.06483],[-110.7755,45.06519],[-110.77239,45.0669],[-110.77153,45.06518],[-110.77069,45.06465],[-110.76837,45.06203],[-110.76463,45.06028],[-110.76392,45.05967],[-110.76324,45.05724],[-110.76256,45.05593],[-110.76155,45.05492],[-110.75306,45.0508],[-110.75022,45.04815],[-110.74785,45.04701],[-110.74483,45.04477],[-110.74198,45.04407],[-110.73867,45.04416],[-110.73375,45.04376],[-110.7315,45.0428],[-110.72905,45.04123],[-110.72519,45.03746],[-110.72239,45.03638],[-110.71836,45.03578],[-110.71664,45.03396],[-110.71476,45.03312],[-110.7124,45.03307],[-110.71228,45.02982],[-110.54839,45.03012],[-110.09718,45.02957],[-110.09568,45.02981],[-110.09192,45.03205],[-110.08486,45.03119],[-110.08351,45.03139],[-110.08102,45.02987],[-110.07709,45.02978],[-110.07457,45.0306],[-110.07254,45.03191],[-110.0715,45.03217],[-110.07088,45.03194],[-110.0705,45.03275],[-110.06639,45.03411],[-110.06033,45.03469],[-110.05849,45.03582],[-110.05658,45.03755],[-110.05397,45.03704],[-110.05171,45.03791],[-110.05015,45.03899],[-110.04874,45.04172],[-110.04499,45.04344],[-110.04262,45.04345],[-110.03892,45.04506],[-110.03464,45.05295],[-110.02663,45.05303],[-110.0235,45.05428],[-110.02187,45.0524],[-110.01627,45.05147],[-110.01145,45.05335],[-110.00967,45.05358],[-110.00821,45.05249],[-110.0083,45.05225],[-110.0069,45.05086],[-110.00531,45.05065],[-110.00343,45.04781],[-110.00035,45.04548],[-110.00137,45.04267],[-110.00438,45.03993],[-110.00394,45.03787],[-110.00246,45.03661],[-110.00083,45.03461],[-109.99991,45.0344],[-109.99919,45.03367],[-109.99761,45.03119],[-109.99827,45.03026],[-110.0018,45.02796],[-110.00151,45.01229],[-110.00185,45.00336],[-110.10578,45.00353],[-110.18322,44.99695],[-110.22395,44.99674],[-110.28477,44.99736],[-110.3252,44.99968],[-110.40712,44.9995],[-110.44574,44.99368],[-110.50698,44.99252],[-110.70448,44.99217],[-110.79012,45.00088],[-110.93724,45.00065],[-111.05456,45.00095],[-111.05408,44.74827],[-111.05243,44.47841],[-111.05578,44.4768],[-111.058,44.47732],[-111.05997,44.47735],[-111.06467,44.47864],[-111.07016,44.4822],[-111.07479,44.48345],[-111.07838,44.48317],[-111.08056,44.48401],[-111.09197,44.48644],[-111.09709,44.48646],[-111.09727,44.85331],[-111.09681,45.02211],[-111.0991,45.02447],[-111.10114,45.02502],[-111.10172,45.02566],[-111.10293,45.02597],[-111.10449,45.02523],[-111.10515,45.02577],[-111.10802,45.02663],[-111.1084,45.02702],[-111.10847,45.02792],[-111.10962,45.02792],[-111.11107,45.02872],[-111.11263,45.03069],[-111.11245,45.03181],[-111.11301,45.03276],[-111.11465,45.03324],[-111.1155,45.03425],[-111.11705,45.03501],[-111.11886,45.03568],[-111.12107,45.03576],[-111.12159,45.03696],[-111.12381,45.03826],[-111.12373,45.03924],[-111.1242,45.04014],[-111.12644,45.04083],[-111.12765,45.04087],[-111.12888,45.04191],[-111.13055,45.04208],[-111.13113,45.04293],[-111.13257,45.0438],[-111.13316,45.04487],[-111.13412,45.04519],[-111.1359,45.04519],[-111.1365,45.04563],[-111.1366,45.04614],[-111.13881,45.04625],[-111.13969,45.04681],[-111.14184,45.0465],[-111.14266,45.0467],[-111.14343,45.04708],[-111.14357,45.04781],[-111.14405,45.04767],[-111.14404,45.04714],[-111.14506,45.04771],[-111.14588,45.04873],[-111.15238,45.05154],[-111.15497,45.05215],[-111.15593,45.05297],[-111.15546,45.05322],[-111.15584,45.0536],[-111.15261,45.05617],[-111.1523,45.05715],[-111.14893,45.05859],[-111.14697,45.05986],[-111.14497,45.06186],[-111.14343,45.06189],[-111.14285,45.06146],[-111.14029,45.06132],[-111.14002,45.061],[-111.13475,45.06163],[-111.13523,45.06318],[-111.13618,45.06463],[-111.13599,45.06724],[-111.1374,45.06683],[-111.13758,45.06761],[-111.13815,45.06766],[-111.1379,45.06809],[-111.13895,45.06866],[-111.13858,45.06898],[-111.13884,45.06906],[-111.13865,45.06953],[-111.14096,45.07254],[-111.14055,45.07374],[-111.14113,45.07402],[-111.14128,45.07447],[-111.14096,45.07597],[-111.1406,45.07621],[-111.1416,45.07697],[-111.13777,45.08064],[-111.13661,45.08231],[-111.13539,45.08312],[-111.13144,45.08392],[-111.13009,45.0855],[-111.12973,45.08644],[-111.13016,45.0884],[-111.13101,45.08873],[-111.13162,45.08938],[-111.13393,45.08984],[-111.1344,45.09077],[-111.13394,45.09122],[-111.13394,45.09263],[-111.1332,45.09394],[-111.13148,45.09521],[-111.13053,45.09649],[-111.13103,45.09764],[-111.13211,45.09852],[-111.1316,45.10018],[-111.132,45.10119],[-111.13094,45.10145],[-111.13009,45.10117],[-111.12938,45.10082],[-111.12914,45.10016],[-111.12794,45.10073],[-111.12679,45.10184],[-111.12488,45.10257],[-111.12361,45.10251],[-111.1227,45.10291],[-111.12104,45.10279],[-111.11755,45.10163],[-111.11637,45.10226],[-111.11571,45.10417],[-111.11497,45.10437],[-111.11401,45.1056],[-111.11347,45.10706],[-111.11201,45.10757],[-111.10656,45.1077],[-111.10376,45.10898],[-111.10177,45.10773]]]}},{"type":"Feature","properties":{"std_name":"District of Wyoming","kind":"district_of_wyoming","sq_mi":98115.2,"std_note":"From courts_fed_district, already patched to include the whole park."},"geometry":{"type":"Polygon","coordinates":[[[-111.04681,40.99788],[-111.0468,41.24668],[-111.04579,41.56521],[-111.04599,41.68684],[-111.0465,41.71582],[-111.04672,41.86111],[-111.04668,41.86498],[-111.04636,41.86657],[-111.04663,41.86836],[-111.04635,41.87021],[-111.04659,41.87198],[-111.04668,41.90623],[-111.04647,41.9671],[-111.04734,42.19245],[-111.04699,42.34806],[-111.04732,42.39265],[-111.04703,42.44754],[-111.04723,42.4691],[-111.04602,42.58272],[-111.04463,42.65615],[-111.04431,42.65707],[-111.04447,42.66622],[-111.04355,42.7195],[-111.04349,42.74755],[-111.04383,42.85735],[-111.04413,42.87492],[-111.04378,42.90775],[-111.04408,42.98015],[-111.04393,43.21292],[-111.04495,43.31949],[-111.04474,43.38096],[-111.04547,43.50105],[-111.04542,43.62212],[-111.04657,43.73968],[-111.04661,43.9141],[-111.04694,43.92957],[-111.04704,43.98347],[-111.04735,43.99992],[-111.04908,44.02013],[-111.04845,44.11483],[-111.04912,44.12492],[-111.04909,44.13282],[-111.09803,44.13285],[-111.0981,44.1557],[-111.09743,44.22966],[-111.09709,44.49111],[-111.09725,44.89679],[-111.09681,45.02211],[-111.0991,45.02447],[-111.10114,45.02502],[-111.10172,45.02566],[-111.10293,45.02597],[-111.10449,45.02523],[-111.10515,45.02577],[-111.10802,45.02663],[-111.1084,45.02702],[-111.10847,45.02792],[-111.10962,45.02792],[-111.11107,45.02872],[-111.11263,45.03069],[-111.11245,45.03181],[-111.11301,45.03276],[-111.11465,45.03324],[-111.1155,45.03425],[-111.11705,45.03501],[-111.11886,45.03568],[-111.12107,45.03576],[-111.12159,45.03696],[-111.12381,45.03826],[-111.12373,45.03924],[-111.1242,45.04014],[-111.12644,45.04083],[-111.12765,45.04087],[-111.12888,45.04191],[-111.13055,45.04208],[-111.13113,45.04293],[-111.13257,45.0438],[-111.13316,45.04487],[-111.13412,45.04519],[-111.1359,45.04519],[-111.1365,45.04563],[-111.1366,45.04614],[-111.13881,45.04625],[-111.13969,45.04681],[-111.14184,45.0465],[-111.14266,45.0467],[-111.14343,45.04708],[-111.14357,45.04781],[-111.14405,45.04767],[-111.14404,45.04714],[-111.14506,45.04771],[-111.14588,45.04873],[-111.15238,45.05154],[-111.15497,45.05215],[-111.15591,45.05288],[-111.15546,45.05322],[-111.15584,45.0536],[-111.15261,45.05617],[-111.1523,45.05715],[-111.14893,45.05859],[-111.14697,45.05986],[-111.14497,45.06186],[-111.14343,45.06189],[-111.14285,45.06146],[-111.14029,45.06132],[-111.14002,45.061],[-111.13475,45.06163],[-111.13523,45.06318],[-111.13618,45.06463],[-111.13599,45.06724],[-111.1374,45.06683],[-111.13758,45.06761],[-111.13815,45.06766],[-111.1379,45.06809],[-111.13895,45.06866],[-111.13858,45.06898],[-111.13884,45.06906],[-111.13865,45.06953],[-111.14096,45.07254],[-111.14055,45.07374],[-111.14113,45.07402],[-111.14128,45.07447],[-111.14096,45.07597],[-111.1406,45.07621],[-111.1416,45.07697],[-111.13777,45.08064],[-111.13661,45.08231],[-111.13539,45.08312],[-111.13144,45.08392],[-111.13009,45.0855],[-111.12973,45.08644],[-111.13016,45.0884],[-111.13101,45.08873],[-111.13162,45.08938],[-111.13393,45.08984],[-111.1344,45.09077],[-111.13394,45.09122],[-111.13394,45.09263],[-111.1332,45.09394],[-111.13148,45.09521],[-111.13053,45.09649],[-111.13103,45.09764],[-111.13211,45.09852],[-111.1316,45.10018],[-111.132,45.10119],[-111.13094,45.10145],[-111.13009,45.10117],[-111.12938,45.10082],[-111.12914,45.10016],[-111.12794,45.10073],[-111.12679,45.10184],[-111.12488,45.10257],[-111.12361,45.10251],[-111.1227,45.10291],[-111.12104,45.10279],[-111.11755,45.10163],[-111.11637,45.10226],[-111.11571,45.10417],[-111.11497,45.10437],[-111.11401,45.1056],[-111.11347,45.10706],[-111.11201,45.10757],[-111.10656,45.1077],[-111.10376,45.10898],[-111.09953,45.10597],[-111.09691,45.10353],[-111.0947,45.10321],[-111.09284,45.10245],[-111.08808,45.10301],[-111.08606,45.10262],[-111.08478,45.10177],[-111.08357,45.10042],[-111.08308,45.09925],[-111.08332,45.09757],[-111.08194,45.09646],[-111.08154,45.09528],[-111.07951,45.0939],[-111.07706,45.09369],[-111.0758,45.09211],[-111.07354,45.0902],[-111.07419,45.0878],[-111.07306,45.08648],[-111.07237,45.08445],[-111.07245,45.08382],[-111.0707,45.08105],[-111.07035,45.07879],[-111.07072,45.07715],[-111.06977,45.07548],[-111.0691,45.07504],[-111.06583,45.07431],[-111.06525,45.0733],[-111.06352,45.07189],[-111.06279,45.07007],[-111.06194,45.06927],[-111.06116,45.06904],[-111.06017,45.06819],[-111.05503,45.06606],[-111.04965,45.06706],[-111.04906,45.0684],[-111.04907,45.06994],[-111.04824,45.07252],[-111.04569,45.07386],[-111.04082,45.07506],[-111.03873,45.07656],[-111.03684,45.07738],[-111.03508,45.07772],[-111.02952,45.08116],[-111.02281,45.08083],[-111.0207,45.08108],[-111.01838,45.08226],[-111.01834,45.08289],[-111.02031,45.08547],[-111.02008,45.08617],[-111.01765,45.08736],[-111.01678,45.0886],[-111.01732,45.09216],[-111.01376,45.09441],[-111.01092,45.0952],[-111.01034,45.09565],[-111.00953,45.09666],[-111.00962,45.09865],[-111.00733,45.09799],[-111.00191,45.09741],[-111.00139,45.09748],[-111.00078,45.09812],[-111.00009,45.09759],[-110.99684,45.09647],[-110.9942,45.09439],[-110.99295,45.09411],[-110.99131,45.09301],[-110.98792,45.09222],[-110.98661,45.09229],[-110.98547,45.09176],[-110.98274,45.09154],[-110.98209,45.09191],[-110.98188,45.09079],[-110.98215,45.08957],[-110.98165,45.0881],[-110.9806,45.08769],[-110.97985,45.08666],[-110.97693,45.08453],[-110.97632,45.08368],[-110.97669,45.08325],[-110.97606,45.08192],[-110.96995,45.08117],[-110.96985,45.08152],[-110.96719,45.08187],[-110.96569,45.08267],[-110.96563,45.08331],[-110.96508,45.08361],[-110.96425,45.08296],[-110.96145,45.08236],[-110.96027,45.08154],[-110.95976,45.08079],[-110.95904,45.08077],[-110.96049,45.07933],[-110.9602,45.07843],[-110.95902,45.07687],[-110.95583,45.07607],[-110.95272,45.07601],[-110.95106,45.07495],[-110.95031,45.07353],[-110.9488,45.07319],[-110.94387,45.07421],[-110.94304,45.07492],[-110.94266,45.07578],[-110.94106,45.07328],[-110.94098,45.07203],[-110.94038,45.07146],[-110.94168,45.07005],[-110.94121,45.06945],[-110.94143,45.0688],[-110.9407,45.06862],[-110.94059,45.06814],[-110.93964,45.06758],[-110.93964,45.06708],[-110.93921,45.0666],[-110.93704,45.06488],[-110.93651,45.06483],[-110.93541,45.0659],[-110.93465,45.0662],[-110.93307,45.06641],[-110.93266,45.06713],[-110.93044,45.0677],[-110.92973,45.06743],[-110.9316,45.06538],[-110.93116,45.06386],[-110.93147,45.06268],[-110.93304,45.06121],[-110.93324,45.06074],[-110.93292,45.05991],[-110.93442,45.05832],[-110.93538,45.05642],[-110.93682,45.05538],[-110.93684,45.05494],[-110.93589,45.05427],[-110.936,45.05333],[-110.93333,45.05272],[-110.93194,45.05037],[-110.93195,45.04987],[-110.92997,45.04894],[-110.92893,45.04983],[-110.92701,45.0496],[-110.92507,45.04887],[-110.92445,45.04899],[-110.92315,45.04832],[-110.92052,45.04798],[-110.91593,45.04573],[-110.91688,45.04431],[-110.91475,45.04278],[-110.91126,45.0411],[-110.91425,45.03801],[-110.91402,45.03751],[-110.91454,45.03491],[-110.91263,45.03294],[-110.9097,45.03207],[-110.90877,45.0315],[-110.90985,45.02963],[-110.84178,45.02957],[-110.84169,45.02998],[-110.8406,45.03077],[-110.84019,45.03187],[-110.8404,45.0334],[-110.83981,45.03437],[-110.84004,45.03467],[-110.83975,45.03574],[-110.83839,45.03775],[-110.83885,45.03848],[-110.83825,45.04235],[-110.83745,45.04343],[-110.83682,45.04508],[-110.83449,45.04438],[-110.83295,45.0446],[-110.83244,45.04509],[-110.83269,45.04598],[-110.83086,45.04747],[-110.83113,45.04916],[-110.82604,45.05417],[-110.82457,45.05436],[-110.8211,45.0557],[-110.81958,45.05521],[-110.81644,45.05497],[-110.81389,45.05407],[-110.81105,45.05453],[-110.81049,45.05435],[-110.8052,45.0548],[-110.80531,45.05537],[-110.80373,45.05622],[-110.8016,45.05629],[-110.8004,45.05673],[-110.79988,45.0574],[-110.79591,45.06028],[-110.78997,45.06145],[-110.78549,45.06183],[-110.7851,45.06241],[-110.78349,45.06266],[-110.78093,45.06425],[-110.77744,45.06512],[-110.77667,45.06483],[-110.7755,45.06519],[-110.77239,45.0669],[-110.77153,45.06518],[-110.77069,45.06465],[-110.76837,45.06203],[-110.76463,45.06028],[-110.76392,45.05967],[-110.76324,45.05724],[-110.76256,45.05593],[-110.76155,45.05492],[-110.75306,45.0508],[-110.75022,45.04815],[-110.74785,45.04701],[-110.74483,45.04477],[-110.74198,45.04407],[-110.73867,45.04416],[-110.73375,45.04376],[-110.7315,45.0428],[-110.72905,45.04123],[-110.72519,45.03746],[-110.72239,45.03638],[-110.71836,45.03578],[-110.71664,45.03396],[-110.71476,45.03312],[-110.7124,45.03307],[-110.71228,45.02982],[-110.54839,45.03012],[-110.09718,45.02957],[-110.09568,45.02981],[-110.09192,45.03205],[-110.08486,45.03119],[-110.08351,45.03139],[-110.08102,45.02987],[-110.07709,45.02978],[-110.07457,45.0306],[-110.07254,45.03191],[-110.0715,45.03217],[-110.07088,45.03194],[-110.0705,45.03275],[-110.06639,45.03411],[-110.06033,45.03469],[-110.05849,45.03582],[-110.05658,45.03755],[-110.05397,45.03704],[-110.05171,45.03791],[-110.05015,45.03899],[-110.04874,45.04172],[-110.04499,45.04344],[-110.04262,45.04345],[-110.03892,45.04506],[-110.03464,45.05295],[-110.02663,45.05303],[-110.0235,45.05428],[-110.02187,45.0524],[-110.01627,45.05147],[-110.01145,45.05335],[-110.00967,45.05358],[-110.00821,45.05249],[-110.0083,45.05225],[-110.0069,45.05086],[-110.00531,45.05065],[-110.00343,45.04781],[-110.00035,45.04548],[-110.00137,45.04267],[-110.00438,45.03993],[-110.00441,45.0396],[-110.00394,45.03787],[-110.00246,45.03661],[-110.00083,45.03461],[-109.99991,45.0344],[-109.99919,45.03367],[-109.99761,45.03119],[-109.99827,45.03026],[-110.0018,45.02796],[-110.00151,45.01229],[-110.00185,45.00336],[-109.82566,45.00322],[-109.78609,45.0018],[-109.76111,45.0018],[-109.5652,45.00298],[-109.44757,45.00452],[-109.40712,45.00458],[-109.32684,45.00529],[-109.10323,45.00581],[-109.0831,44.99955],[-109.0807,44.99944],[-108.56557,45.00042],[-108.5344,45.00037],[-108.51404,44.99965],[-108.2714,45.00023],[-108.25084,44.99987],[-108.22951,45.00041],[-107.77327,45.0007],[-107.68384,45.00043],[-107.47601,45.00142],[-107.36298,45.00089],[-107.31495,45.00103],[-107.1966,45.00045],[-107.15562,44.99994],[-107.13812,45.00013],[-107.12742,44.99984],[-107.10543,44.9985],[-107.09547,44.99725],[-107.08489,44.9966],[-107.07457,44.9971],[-107.03468,44.99631],[-106.12621,44.99327],[-105.92817,44.99349],[-105.91315,45.00024],[-105.85698,45.00037],[-105.09987,45.00012],[-105.07946,44.99989],[-105.05878,45.00012],[-104.88916,45.00003],[-104.59232,44.99866],[-104.12935,44.99797],[-104.05788,44.99761],[-104.0577,44.99736],[-104.05591,44.87499],[-104.05649,44.86703],[-104.05621,44.80072],[-104.05586,44.78362],[-104.05574,44.62499],[-104.05604,44.58158],[-104.05563,44.36073],[-104.05539,44.24998],[-104.05449,44.18038],[-104.05498,43.94352],[-104.05474,43.93817],[-104.0551,43.93705],[-104.05549,43.85348],[-104.05488,43.583],[-104.0551,43.56502],[-104.05482,43.53332],[-104.0548,43.41872],[-104.05455,43.40552],[-104.05472,43.3751],[-104.05428,43.3098],[-104.05391,43.29688],[-104.05383,43.20356],[-104.05327,43.10172],[-104.05279,42.75041],[-104.053,42.74132],[-104.05258,42.65019],[-104.05289,42.64807],[-104.0526,42.63114],[-104.05289,42.62999],[-104.05311,42.49996],[-104.05265,42.24996],[-104.05312,42.24996],[-104.05255,42.1668],[-104.05305,42.13135],[-104.05248,42.11611],[-104.05299,42.08003],[-104.05261,41.99977],[-104.05285,41.97599],[-104.05263,41.94339],[-104.05297,41.91697],[-104.05271,41.9067],[-104.05293,41.90583],[-104.05301,41.88926],[-104.05276,41.8789],[-104.05298,41.73944],[-104.05288,41.72716],[-104.05267,41.72707],[-104.0529,41.62228],[-104.05237,41.52283],[-104.05254,41.43712],[-104.05224,41.39807],[-104.05269,41.33056],[-104.05231,41.32106],[-104.05267,41.32079],[-104.05269,41.31956],[-104.05245,41.2782],[-104.05291,41.27781],[-104.05271,41.27263],[-104.05315,41.24076],[-104.05351,41.15726],[-104.05339,41.10534],[-104.05308,41.10498],[-104.05302,41.09028],[-104.05325,41.00141],[-104.06702,41.00178],[-104.10459,41.00154],[-104.34358,41.00176],[-104.35577,41.00149],[-104.50369,41.0017],[-104.62552,41.00143],[-104.81628,40.99929],[-104.83869,40.99886],[-104.85527,40.99805],[-104.87005,40.9983],[-105.24882,40.99844],[-105.27528,40.99807],[-105.72941,40.99682],[-106.00056,40.99725],[-106.06118,40.997],[-106.19519,40.99758],[-106.31422,40.99892],[-106.34641,40.99964],[-106.38636,41.00114],[-106.39864,41.0011],[-106.45571,41.00212],[-106.49398,41.00214],[-106.50059,41.00189],[-106.7519,41.0027],[-106.85777,41.00266],[-106.8756,41.003],[-107.00061,41.00344],[-107.23862,41.0028],[-107.36754,41.00307],[-107.47868,41.00267],[-107.50062,41.00235],[-107.62565,41.00212],[-108.00064,41.00181],[-108.04654,41.00206],[-108.08922,41.00158],[-108.08951,41.00123],[-108.12564,41.00133],[-108.18123,41.00046],[-108.28791,41.00007],[-108.50066,41.00011],[-108.5196,40.99996],[-108.52603,40.99959],[-108.63111,41.00016],[-108.85377,41.00003],[-109.17391,41.00088],[-109.19781,41.00118],[-109.21325,41.00201],[-109.23251,41.00211],[-109.25001,41.00105],[-109.49852,40.9992],[-109.5437,40.9984],[-109.658,40.99849],[-109.80691,40.9977],[-110.08696,40.99713],[-110.18346,40.99576],[-110.22338,40.99567],[-110.27411,40.99482],[-110.50507,40.9948],[-110.54587,40.99633],[-110.68137,40.99624],[-110.98053,40.99758],[-110.98211,40.99781],[-111.00574,40.99796],[-111.04681,40.99788]]]}},{"type":"Feature","properties":{"std_name":"Yellowstone National Park","kind":"park","sq_mi":3436.7,"std_note":"From nps_boundary, UNIT_CODE YELL."},"geometry":{"type":"Polygon","coordinates":[[[-111.10376,45.10898],[-111.09858,45.1052],[-111.09691,45.10353],[-111.0947,45.10321],[-111.09284,45.10245],[-111.08808,45.10301],[-111.08606,45.10262],[-111.08478,45.10177],[-111.08357,45.10042],[-111.08308,45.09925],[-111.08332,45.09757],[-111.08194,45.09646],[-111.08154,45.09528],[-111.07951,45.0939],[-111.07706,45.09369],[-111.0758,45.09211],[-111.07354,45.0902],[-111.07419,45.0878],[-111.07306,45.08648],[-111.07237,45.08445],[-111.07245,45.08382],[-111.0707,45.08105],[-111.07035,45.07879],[-111.07072,45.07715],[-111.06977,45.07548],[-111.0691,45.07504],[-111.06583,45.07431],[-111.06525,45.0733],[-111.06352,45.07189],[-111.06279,45.07007],[-111.06194,45.06927],[-111.06116,45.06904],[-111.06017,45.06819],[-111.05503,45.06606],[-111.04965,45.06706],[-111.04906,45.0684],[-111.04907,45.06994],[-111.04824,45.07252],[-111.04569,45.07386],[-111.04082,45.07506],[-111.03873,45.07656],[-111.03684,45.07738],[-111.03508,45.07772],[-111.02952,45.08116],[-111.02281,45.08083],[-111.0207,45.08108],[-111.01838,45.08226],[-111.01834,45.08289],[-111.02031,45.08547],[-111.02008,45.08617],[-111.01765,45.08736],[-111.01678,45.0886],[-111.01732,45.09216],[-111.01376,45.09441],[-111.01092,45.0952],[-111.01034,45.09565],[-111.00953,45.09666],[-111.00962,45.09865],[-111.00733,45.09799],[-111.00191,45.09741],[-111.00139,45.09748],[-111.00078,45.09812],[-111.00009,45.09759],[-110.99684,45.09647],[-110.9942,45.09439],[-110.99295,45.09411],[-110.99131,45.09301],[-110.98792,45.09222],[-110.98661,45.09229],[-110.98547,45.09176],[-110.98274,45.09154],[-110.98209,45.09191],[-110.98188,45.09079],[-110.98215,45.08957],[-110.98165,45.0881],[-110.9806,45.08769],[-110.97985,45.08666],[-110.97693,45.08453],[-110.97632,45.08368],[-110.97669,45.08325],[-110.97606,45.08192],[-110.96995,45.08117],[-110.96985,45.08152],[-110.96719,45.08187],[-110.96569,45.08267],[-110.96563,45.08331],[-110.96508,45.08361],[-110.96425,45.08296],[-110.96145,45.08236],[-110.96027,45.08154],[-110.95976,45.08079],[-110.95904,45.08077],[-110.96049,45.07933],[-110.9602,45.07843],[-110.95902,45.07687],[-110.95583,45.07607],[-110.95272,45.07601],[-110.95106,45.07495],[-110.95031,45.07353],[-110.94757,45.07325],[-110.94483,45.07385],[-110.94304,45.07492],[-110.94266,45.07578],[-110.94106,45.07328],[-110.94098,45.07203],[-110.94038,45.07146],[-110.94168,45.07005],[-110.94121,45.06945],[-110.94143,45.0688],[-110.9407,45.06862],[-110.94059,45.06814],[-110.93964,45.06758],[-110.93964,45.06708],[-110.93921,45.0666],[-110.93704,45.06488],[-110.93651,45.06483],[-110.93541,45.0659],[-110.93465,45.0662],[-110.93307,45.06641],[-110.93266,45.06713],[-110.93044,45.0677],[-110.92973,45.06743],[-110.9316,45.06538],[-110.93116,45.06386],[-110.93147,45.06268],[-110.93304,45.06121],[-110.93324,45.06074],[-110.93292,45.05991],[-110.93442,45.05832],[-110.93538,45.05642],[-110.93682,45.05538],[-110.93684,45.05494],[-110.93589,45.05427],[-110.936,45.05333],[-110.93333,45.05272],[-110.93194,45.05037],[-110.93195,45.04987],[-110.92997,45.04894],[-110.92893,45.04983],[-110.92701,45.0496],[-110.92507,45.04887],[-110.92445,45.04899],[-110.92315,45.04832],[-110.92052,45.04798],[-110.91593,45.04573],[-110.91688,45.04431],[-110.91475,45.04278],[-110.91126,45.0411],[-110.91425,45.03801],[-110.91402,45.03751],[-110.91454,45.03491],[-110.91263,45.03294],[-110.9097,45.03207],[-110.90877,45.0315],[-110.90985,45.02963],[-110.84178,45.02957],[-110.84169,45.02998],[-110.8406,45.03077],[-110.84019,45.03187],[-110.8404,45.0334],[-110.83981,45.03437],[-110.84004,45.03467],[-110.83975,45.03574],[-110.83839,45.03775],[-110.83885,45.03848],[-110.83825,45.04235],[-110.83745,45.04343],[-110.83682,45.04508],[-110.83449,45.04438],[-110.83295,45.0446],[-110.83244,45.04509],[-110.83269,45.04598],[-110.83086,45.04747],[-110.83113,45.04916],[-110.82604,45.05417],[-110.82457,45.05436],[-110.8211,45.0557],[-110.81958,45.05521],[-110.81644,45.05497],[-110.81389,45.05407],[-110.81105,45.05453],[-110.81049,45.05435],[-110.8052,45.0548],[-110.80531,45.05537],[-110.80373,45.05622],[-110.8016,45.05629],[-110.8004,45.05673],[-110.79988,45.0574],[-110.79591,45.06028],[-110.78997,45.06145],[-110.78549,45.06183],[-110.7851,45.06241],[-110.78349,45.06266],[-110.78093,45.06425],[-110.77744,45.06512],[-110.77667,45.06483],[-110.7755,45.06519],[-110.77239,45.0669],[-110.77153,45.06518],[-110.77069,45.06465],[-110.76837,45.06203],[-110.76463,45.06028],[-110.76392,45.05967],[-110.76324,45.05724],[-110.76256,45.05593],[-110.76155,45.05492],[-110.75306,45.0508],[-110.75022,45.04815],[-110.74785,45.04701],[-110.74483,45.04477],[-110.74198,45.04407],[-110.73867,45.04416],[-110.73375,45.04376],[-110.7315,45.0428],[-110.72905,45.04123],[-110.72519,45.03746],[-110.72239,45.03638],[-110.71836,45.03578],[-110.71664,45.03396],[-110.71476,45.03312],[-110.7124,45.03307],[-110.71228,45.02982],[-110.54839,45.03012],[-110.09718,45.02957],[-110.09568,45.02981],[-110.09192,45.03205],[-110.08486,45.03119],[-110.08351,45.03139],[-110.08102,45.02987],[-110.07709,45.02978],[-110.07457,45.0306],[-110.07254,45.03191],[-110.0715,45.03217],[-110.07088,45.03194],[-110.0705,45.03275],[-110.06639,45.03411],[-110.06033,45.03469],[-110.05849,45.03582],[-110.05658,45.03755],[-110.05397,45.03704],[-110.05171,45.03791],[-110.05015,45.03899],[-110.04874,45.04172],[-110.04499,45.04344],[-110.04262,45.04345],[-110.03892,45.04506],[-110.03464,45.05295],[-110.02663,45.05303],[-110.0235,45.05428],[-110.02187,45.0524],[-110.01627,45.05147],[-110.01145,45.05335],[-110.00967,45.05358],[-110.00821,45.05249],[-110.0083,45.05225],[-110.0069,45.05086],[-110.00531,45.05065],[-110.00343,45.04781],[-110.00035,45.04548],[-110.00137,45.04267],[-110.00438,45.03993],[-110.00394,45.03787],[-110.00246,45.03661],[-110.00083,45.03461],[-109.99991,45.0344],[-109.99919,45.03367],[-109.99761,45.03119],[-109.99827,45.03026],[-110.0018,45.02796],[-110.00151,45.01229],[-110.00185,45.00336],[-110.00197,44.97407],[-109.99728,44.97317],[-109.99547,44.97135],[-109.99382,44.9709],[-109.99059,44.97143],[-109.98799,44.971],[-109.98466,44.97182],[-109.98003,44.97144],[-109.97813,44.97045],[-109.97644,44.97067],[-109.97243,44.97219],[-109.96986,44.97277],[-109.96808,44.97062],[-109.9673,44.96834],[-109.96615,44.96734],[-109.96373,44.96602],[-109.96306,44.9651],[-109.9613,44.96371],[-109.96138,44.96179],[-109.95969,44.96007],[-109.95885,44.95758],[-109.95779,44.95617],[-109.95241,44.95162],[-109.9497,44.95087],[-109.94895,44.94961],[-109.94789,44.94893],[-109.94603,44.94493],[-109.94387,44.94304],[-109.94182,44.94037],[-109.9406,44.93829],[-109.94012,44.93676],[-109.93424,44.93624],[-109.93239,44.93504],[-109.92871,44.93435],[-109.92718,44.93196],[-109.92767,44.93047],[-109.92881,44.92904],[-109.92891,44.92821],[-109.92799,44.92517],[-109.92864,44.92311],[-109.92822,44.91993],[-109.92842,44.91703],[-109.92749,44.91223],[-109.9291,44.91081],[-109.92868,44.90874],[-109.92927,44.90756],[-109.93099,44.90566],[-109.93131,44.9044],[-109.93186,44.90394],[-109.92883,44.89798],[-109.92946,44.89732],[-109.92998,44.89605],[-109.93007,44.89468],[-109.92974,44.89328],[-109.93006,44.89061],[-109.93439,44.88379],[-109.93718,44.88189],[-109.93808,44.87933],[-109.93787,44.87807],[-109.93559,44.87497],[-109.93528,44.87026],[-109.9358,44.86734],[-109.93704,44.86673],[-109.93759,44.86545],[-109.93628,44.8622],[-109.93887,44.85843],[-109.9401,44.85531],[-109.93927,44.85422],[-109.93954,44.85131],[-109.93611,44.84888],[-109.93589,44.84836],[-109.93605,44.84703],[-109.93576,44.84654],[-109.93495,44.8456],[-109.93152,44.84306],[-109.93163,44.84183],[-109.9313,44.84109],[-109.92811,44.83708],[-109.9347,44.83398],[-109.93611,44.83301],[-109.93776,44.83129],[-109.94053,44.83072],[-109.94369,44.82708],[-109.94941,44.82389],[-109.95113,44.82355],[-109.95209,44.82303],[-109.95455,44.82038],[-109.95638,44.81786],[-109.95899,44.81665],[-109.95709,44.8146],[-109.95686,44.81308],[-109.95721,44.81205],[-109.95712,44.81065],[-109.95587,44.80704],[-109.95392,44.80421],[-109.95787,44.80111],[-109.95377,44.79996],[-109.95069,44.79855],[-109.94948,44.7976],[-109.94657,44.79676],[-109.9459,44.79624],[-109.94491,44.79462],[-109.94433,44.7943],[-109.93666,44.79365],[-109.92936,44.79107],[-109.92795,44.78996],[-109.92641,44.78798],[-109.92382,44.78642],[-109.92182,44.78443],[-109.91981,44.78308],[-109.91787,44.77864],[-109.91483,44.77617],[-109.91423,44.77522],[-109.91332,44.77191],[-109.91202,44.7703],[-109.9091,44.7677],[-109.9083,44.7663],[-109.90554,44.76376],[-109.90119,44.76254],[-109.89761,44.75996],[-109.89534,44.75893],[-109.89176,44.75802],[-109.89014,44.75798],[-109.88899,44.75637],[-109.88687,44.75466],[-109.88509,44.75061],[-109.88569,44.74964],[-109.88646,44.74922],[-109.88606,44.74744],[-109.88413,44.7448],[-109.88278,44.74399],[-109.88375,44.74226],[-109.88333,44.74028],[-109.88195,44.73957],[-109.87971,44.73917],[-109.87802,44.73802],[-109.87575,44.73702],[-109.87546,44.73659],[-109.87592,44.73591],[-109.87575,44.73513],[-109.87362,44.73423],[-109.87198,44.7338],[-109.86811,44.73457],[-109.86678,44.73461],[-109.86621,44.73431],[-109.86482,44.73318],[-109.86398,44.7307],[-109.86266,44.72971],[-109.86284,44.72784],[-109.86144,44.72647],[-109.86106,44.72517],[-109.85928,44.72427],[-109.85787,44.72403],[-109.85667,44.72295],[-109.8552,44.7234],[-109.85056,44.72621],[-109.8494,44.72618],[-109.84652,44.72528],[-109.84472,44.72525],[-109.84139,44.72407],[-109.83843,44.72512],[-109.83676,44.72418],[-109.83506,44.72369],[-109.83499,44.72246],[-109.83433,44.72168],[-109.8346,44.72045],[-109.83385,44.71826],[-109.83396,44.71749],[-109.83191,44.71681],[-109.83205,44.71486],[-109.83136,44.71313],[-109.82904,44.71121],[-109.82644,44.71044],[-109.82536,44.70977],[-109.82465,44.70926],[-109.82419,44.70812],[-109.82424,44.7078],[-109.82555,44.70697],[-109.82694,44.70512],[-109.82625,44.70359],[-109.82667,44.70161],[-109.8266,44.7003],[-109.82892,44.6991],[-109.82924,44.69835],[-109.83064,44.69719],[-109.83689,44.69475],[-109.83808,44.69296],[-109.83815,44.6918],[-109.84001,44.69057],[-109.84151,44.68853],[-109.84168,44.68724],[-109.84124,44.68581],[-109.84173,44.68456],[-109.84371,44.68399],[-109.84761,44.68116],[-109.85384,44.67964],[-109.85587,44.68042],[-109.858,44.67919],[-109.85915,44.67894],[-109.86139,44.67688],[-109.86167,44.67454],[-109.86318,44.67304],[-109.86382,44.67195],[-109.86572,44.67133],[-109.86697,44.67055],[-109.86842,44.67043],[-109.8689,44.6693],[-109.87054,44.66827],[-109.87265,44.66554],[-109.87282,44.66446],[-109.87361,44.66357],[-109.87324,44.6625],[-109.87356,44.66139],[-109.87526,44.65771],[-109.87761,44.65598],[-109.87883,44.65398],[-109.87948,44.65206],[-109.88181,44.65214],[-109.88523,44.65297],[-109.88675,44.65253],[-109.88873,44.65101],[-109.89032,44.6512],[-109.89323,44.6505],[-109.89564,44.64908],[-109.90409,44.64865],[-109.90587,44.64629],[-109.90773,44.64476],[-109.90825,44.64397],[-109.90881,44.63917],[-109.90762,44.63806],[-109.90773,44.63788],[-109.91206,44.63641],[-109.91591,44.63572],[-109.9202,44.63572],[-109.92297,44.63531],[-109.92511,44.63218],[-109.92827,44.63049],[-109.93108,44.63106],[-109.93224,44.63079],[-109.93541,44.63091],[-109.93881,44.63262],[-109.94222,44.63094],[-109.94818,44.63005],[-109.9538,44.6271],[-109.96348,44.62749],[-109.96647,44.62837],[-109.96719,44.62889],[-109.97046,44.6271],[-109.97183,44.62496],[-109.97246,44.62334],[-109.97614,44.62054],[-109.97893,44.62014],[-109.98287,44.62091],[-109.98388,44.62161],[-109.98643,44.62438],[-109.99274,44.62174],[-109.9966,44.62151],[-109.99965,44.62197],[-110.0009,44.62069],[-110.00326,44.62072],[-110.00497,44.61939],[-110.00635,44.619],[-110.00709,44.61844],[-110.00706,44.61754],[-110.00813,44.61726],[-110.00933,44.61639],[-110.01087,44.61668],[-110.01195,44.61795],[-110.01368,44.61876],[-110.01449,44.61954],[-110.0149,44.6192],[-110.01497,44.61758],[-110.01544,44.61748],[-110.01624,44.61959],[-110.01701,44.6193],[-110.01745,44.61968],[-110.01711,44.62047],[-110.01749,44.62127],[-110.01936,44.62215],[-110.02047,44.62194],[-110.02086,44.6225],[-110.02231,44.62324],[-110.02355,44.6247],[-110.02448,44.62496],[-110.0238,44.62787],[-110.02462,44.6279],[-110.02694,44.62503],[-110.02609,44.6239],[-110.02563,44.62249],[-110.02483,44.62198],[-110.02493,44.62135],[-110.02418,44.62012],[-110.0244,44.61904],[-110.02538,44.61792],[-110.02603,44.61768],[-110.02687,44.61784],[-110.02775,44.61697],[-110.02875,44.61686],[-110.02886,44.61632],[-110.02968,44.61573],[-110.03154,44.61487],[-110.032,44.61328],[-110.0337,44.61191],[-110.03373,44.61075],[-110.03222,44.60982],[-110.03365,44.60784],[-110.03491,44.60741],[-110.03621,44.60754],[-110.04249,44.60604],[-110.04448,44.60692],[-110.04582,44.60687],[-110.04956,44.6057],[-110.05795,44.60663],[-110.06094,44.60735],[-110.06428,44.60582],[-110.06482,44.60446],[-110.06424,44.60211],[-110.06482,44.59738],[-110.06584,44.59579],[-110.06807,44.59365],[-110.06964,44.59133],[-110.06802,44.58816],[-110.068,44.58751],[-110.07029,44.5848],[-110.07102,44.58325],[-110.07344,44.58119],[-110.07393,44.58005],[-110.07991,44.57554],[-110.08362,44.57416],[-110.09067,44.57287],[-110.0936,44.57268],[-110.09605,44.57039],[-110.10193,44.56997],[-110.10911,44.57094],[-110.1104,44.57071],[-110.11159,44.57105],[-110.11215,44.57064],[-110.11318,44.5689],[-110.11618,44.56838],[-110.12123,44.56808],[-110.12248,44.56686],[-110.12497,44.56339],[-110.1315,44.5594],[-110.13147,44.55803],[-110.13095,44.55655],[-110.13113,44.55593],[-110.13196,44.55457],[-110.13435,44.55288],[-110.13859,44.55335],[-110.14132,44.55271],[-110.14885,44.55318],[-110.15066,44.55409],[-110.1529,44.55443],[-110.15419,44.5522],[-110.15672,44.55046],[-110.15962,44.54762],[-110.16363,44.54619],[-110.16675,44.54581],[-110.16852,44.54632],[-110.17039,44.54749],[-110.17143,44.5467],[-110.17166,44.54471],[-110.17232,44.54343],[-110.17127,44.54206],[-110.171,44.54076],[-110.16957,44.54031],[-110.16899,44.53981],[-110.16865,44.53678],[-110.16894,44.53496],[-110.16853,44.53214],[-110.16711,44.53195],[-110.16493,44.52969],[-110.16043,44.52759],[-110.15778,44.52554],[-110.1545,44.52515],[-110.15394,44.52349],[-110.15394,44.52183],[-110.15336,44.52105],[-110.15142,44.52018],[-110.14735,44.51974],[-110.1473,44.51844],[-110.14619,44.5172],[-110.14451,44.51646],[-110.14126,44.51625],[-110.14142,44.51465],[-110.14295,44.513],[-110.14304,44.51109],[-110.14551,44.51067],[-110.14652,44.50923],[-110.14677,44.50669],[-110.14565,44.50452],[-110.14739,44.50107],[-110.14599,44.50003],[-110.14271,44.49914],[-110.14254,44.49801],[-110.14304,44.4969],[-110.14348,44.4944],[-110.14248,44.49252],[-110.1402,44.48955],[-110.13375,44.48862],[-110.1323,44.48687],[-110.12932,44.48658],[-110.12915,44.48417],[-110.12998,44.48056],[-110.12974,44.47946],[-110.12856,44.47794],[-110.12707,44.47686],[-110.12576,44.47487],[-110.12403,44.47407],[-110.12311,44.47408],[-110.1224,44.47328],[-110.11805,44.47386],[-110.11556,44.47469],[-110.11386,44.47564],[-110.11242,44.47664],[-110.11067,44.48049],[-110.10878,44.4811],[-110.10702,44.48216],[-110.10479,44.48385],[-110.10431,44.48459],[-110.10282,44.4855],[-110.10079,44.48636],[-110.09705,44.48668],[-110.09699,44.48748],[-110.09646,44.48811],[-110.09234,44.48892],[-110.08697,44.49138],[-110.08193,44.49167],[-110.07821,44.49134],[-110.07417,44.49194],[-110.07256,44.49133],[-110.06947,44.49096],[-110.06777,44.49145],[-110.06639,44.49229],[-110.06591,44.49347],[-110.06482,44.49453],[-110.06428,44.49467],[-110.05961,44.49532],[-110.05664,44.49465],[-110.05242,44.49491],[-110.05055,44.49587],[-110.04862,44.49626],[-110.04686,44.49596],[-110.0448,44.49632],[-110.04282,44.49614],[-110.04051,44.49686],[-110.03783,44.49638],[-110.03611,44.49705],[-110.03141,44.49996],[-110.02978,44.50035],[-110.02816,44.50122],[-110.02612,44.5013],[-110.02446,44.50085],[-110.0229,44.501],[-110.01878,44.49942],[-110.01225,44.5014],[-110.00865,44.50189],[-110.00531,44.50368],[-110.00116,44.50408],[-110.00118,44.46059],[-110.0033,44.46],[-110.00361,44.45893],[-110.00645,44.4572],[-110.0069,44.45643],[-110.00861,44.45532],[-110.01042,44.45201],[-110.01236,44.45031],[-110.01673,44.44785],[-110.02181,44.44344],[-110.02425,44.44219],[-110.0248,44.4409],[-110.02678,44.43886],[-110.02746,44.43663],[-110.02727,44.43582],[-110.02617,44.43443],[-110.02613,44.43349],[-110.02699,44.43288],[-110.02686,44.43125],[-110.03026,44.42959],[-110.03326,44.4268],[-110.0362,44.42596],[-110.03912,44.42428],[-110.04338,44.42557],[-110.04542,44.42715],[-110.04614,44.42731],[-110.04856,44.42599],[-110.05189,44.42286],[-110.05402,44.42212],[-110.05469,44.42171],[-110.05485,44.42123],[-110.05673,44.42127],[-110.05794,44.42167],[-110.06056,44.42059],[-110.06182,44.41884],[-110.06221,44.41692],[-110.06133,44.41491],[-110.06242,44.41397],[-110.06293,44.41159],[-110.06436,44.41089],[-110.06404,44.40932],[-110.06593,44.4068],[-110.06635,44.40512],[-110.06711,44.40384],[-110.06806,44.40254],[-110.07044,44.40038],[-110.07454,44.39813],[-110.07331,44.39702],[-110.07174,44.392],[-110.06936,44.38998],[-110.07003,44.38764],[-110.06956,44.38608],[-110.06838,44.38448],[-110.06913,44.38187],[-110.069,44.38087],[-110.06862,44.38052],[-110.06916,44.37949],[-110.06912,44.37829],[-110.06773,44.37592],[-110.07105,44.37457],[-110.07215,44.37377],[-110.06996,44.36903],[-110.06993,44.36665],[-110.06952,44.36485],[-110.07005,44.36263],[-110.07147,44.3612],[-110.07324,44.35846],[-110.07243,44.35568],[-110.07278,44.35299],[-110.07345,44.35186],[-110.07178,44.35007],[-110.07128,44.34808],[-110.07071,44.34715],[-110.07086,44.34272],[-110.07151,44.34211],[-110.06879,44.3403],[-110.06835,44.33919],[-110.06696,44.33786],[-110.06422,44.33622],[-110.06268,44.33584],[-110.06202,44.33257],[-110.06024,44.33184],[-110.05735,44.33175],[-110.05544,44.33112],[-110.05036,44.33129],[-110.04618,44.32949],[-110.04124,44.32881],[-110.0402,44.32756],[-110.03926,44.3248],[-110.03121,44.32281],[-110.02716,44.32028],[-110.0257,44.32028],[-110.02253,44.32307],[-110.01956,44.32348],[-110.01523,44.32479],[-110.01209,44.32677],[-110.00925,44.32587],[-110.00746,44.32567],[-110.00477,44.32418],[-110.00075,44.32404],[-110.00101,44.20919],[-110.00075,44.16403],[-110.00119,44.14661],[-110.00113,44.13267],[-110.09428,44.13303],[-110.37869,44.13248],[-110.53976,44.13274],[-110.90099,44.13245],[-111.09803,44.13285],[-111.0981,44.1557],[-111.09743,44.22966],[-111.09709,44.49111],[-111.09725,44.89679],[-111.09681,45.02211],[-111.0991,45.02447],[-111.10114,45.02502],[-111.10172,45.02566],[-111.10293,45.02597],[-111.10449,45.02523],[-111.10515,45.02577],[-111.10802,45.02663],[-111.1084,45.02702],[-111.10847,45.02792],[-111.10962,45.02792],[-111.11107,45.02872],[-111.11263,45.03069],[-111.11245,45.03181],[-111.11301,45.03276],[-111.11465,45.03324],[-111.1155,45.03425],[-111.11705,45.03501],[-111.11886,45.03568],[-111.12107,45.03576],[-111.12159,45.03696],[-111.12381,45.03826],[-111.12373,45.03924],[-111.1242,45.04014],[-111.12644,45.04083],[-111.12765,45.04087],[-111.12888,45.04191],[-111.13055,45.04208],[-111.13113,45.04293],[-111.13257,45.0438],[-111.13316,45.04487],[-111.13412,45.04519],[-111.1359,45.04519],[-111.1365,45.04563],[-111.1366,45.04614],[-111.13881,45.04625],[-111.13969,45.04681],[-111.14184,45.0465],[-111.14266,45.0467],[-111.14343,45.04708],[-111.14357,45.04781],[-111.14405,45.04767],[-111.14404,45.04714],[-111.14506,45.04771],[-111.14588,45.04873],[-111.15238,45.05154],[-111.15497,45.05215],[-111.15593,45.05297],[-111.15546,45.05322],[-111.15584,45.0536],[-111.15261,45.05617],[-111.1523,45.05715],[-111.14893,45.05859],[-111.14697,45.05986],[-111.14497,45.06186],[-111.14343,45.06189],[-111.14285,45.06146],[-111.14029,45.06132],[-111.14002,45.061],[-111.13475,45.06163],[-111.13523,45.06318],[-111.13618,45.06463],[-111.13599,45.06724],[-111.1374,45.06683],[-111.13758,45.06761],[-111.13815,45.06766],[-111.1379,45.06809],[-111.13895,45.06866],[-111.13858,45.06898],[-111.13884,45.06906],[-111.13865,45.06953],[-111.14096,45.07254],[-111.14055,45.07374],[-111.14113,45.07402],[-111.14128,45.07447],[-111.14096,45.07597],[-111.1406,45.07621],[-111.1416,45.07697],[-111.13777,45.08064],[-111.13661,45.08231],[-111.13539,45.08312],[-111.13144,45.08392],[-111.13009,45.0855],[-111.12973,45.08644],[-111.13016,45.0884],[-111.13101,45.08873],[-111.13162,45.08938],[-111.13393,45.08984],[-111.1344,45.09077],[-111.13394,45.09122],[-111.13394,45.09263],[-111.1332,45.09394],[-111.13148,45.09521],[-111.13053,45.09649],[-111.13103,45.09764],[-111.13211,45.09852],[-111.1316,45.10018],[-111.132,45.10119],[-111.13094,45.10145],[-111.13009,45.10117],[-111.12938,45.10082],[-111.12914,45.10016],[-111.12794,45.10073],[-111.12679,45.10184],[-111.12488,45.10257],[-111.12361,45.10251],[-111.1227,45.10291],[-111.12104,45.10279],[-111.11755,45.10163],[-111.11637,45.10226],[-111.11571,45.10417],[-111.11497,45.10437],[-111.11401,45.1056],[-111.11347,45.10706],[-111.11201,45.10757],[-111.10656,45.1077],[-111.10376,45.10898]]]}}]}