{"type":"FeatureCollection","features":[{"type":"Feature","properties":{"std_name":"Congressional District 3","std_geoid":"3603","pen":"politicians","std_note":null,"LSAD":"C2"},"geometry":{"type":"Polygon","coordinates":[[[-73.82758,40.80394],[-73.82344,40.80481],[-73.81742,40.80579],[-73.8113,40.8054],[-73.80454,40.80355],[-73.79975,40.8022],[-73.79713,40.80141],[-73.79356,40.80038],[-73.79002,40.80023],[-73.78792,40.80036],[-73.78732,40.80085],[-73.78475,40.80259],[-73.78268,40.80539],[-73.77956,40.81125],[-73.77896,40.81171],[-73.78019,40.8264],[-73.7578,40.84568],[-73.748,40.87187],[-73.69897,40.90039],[-73.61289,40.95094],[-73.59067,40.9557],[-73.52777,40.9689],[-73.49957,40.97474],[-73.43192,40.98901],[-73.42945,40.93399],[-73.42925,40.92859],[-73.42939,40.92844],[-73.42885,40.92727],[-73.42969,40.92387],[-73.42876,40.9213],[-73.42914,40.92064],[-73.42941,40.91954],[-73.42916,40.9194],[-73.42726,40.9203],[-73.40147,40.91146],[-73.39869,40.91347],[-73.39691,40.91421],[-73.39599,40.91426],[-73.38814,40.91146],[-73.39166,40.9081],[-73.39226,40.9074],[-73.38966,40.9068],[-73.38854,40.90618],[-73.38942,40.90485],[-73.39052,40.90355],[-73.39116,40.90307],[-73.39173,40.90281],[-73.39078,40.90122],[-73.39103,40.90104],[-73.39132,40.90068],[-73.39142,40.90049],[-73.39152,40.90039],[-73.392,40.90009],[-73.3922,40.90016],[-73.39188,40.89894],[-73.39162,40.8981],[-73.39114,40.89372],[-73.3911,40.89268],[-73.39046,40.8882],[-73.3899,40.88319],[-73.39209,40.88207],[-73.39052,40.88225],[-73.38928,40.88235],[-73.3901,40.88199],[-73.39151,40.88101],[-73.39107,40.88004],[-73.39169,40.87989],[-73.39181,40.87979],[-73.39185,40.87964],[-73.39186,40.87942],[-73.3906,40.87441],[-73.39104,40.87317],[-73.39145,40.87229],[-73.3931,40.87088],[-73.39374,40.86859],[-73.39469,40.86839],[-73.39513,40.86825],[-73.39615,40.86769],[-73.39736,40.86723],[-73.39828,40.86676],[-73.39895,40.86631],[-73.3993,40.86603],[-73.40109,40.86497],[-73.4028,40.8647],[-73.39984,40.86174],[-73.39983,40.86169],[-73.39907,40.86091],[-73.39887,40.86073],[-73.39834,40.8604],[-73.39765,40.86009],[-73.39714,40.85992],[-73.39513,40.85935],[-73.39504,40.85934],[-73.39469,40.85923],[-73.39412,40.85895],[-73.39267,40.85799],[-73.38959,40.85547],[-73.38911,40.85516],[-73.38697,40.85384],[-73.38602,40.85332],[-73.38558,40.8531],[-73.38275,40.85187],[-73.38588,40.84802],[-73.38718,40.84829],[-73.39245,40.84893],[-73.39361,40.84894],[-73.39584,40.84853],[-73.40074,40.8484],[-73.40035,40.84792],[-73.4068,40.84568],[-73.407,40.84602],[-73.41134,40.84417],[-73.41179,40.84401],[-73.41721,40.84348],[-73.42101,40.84293],[-73.42027,40.83952],[-73.4202,40.83753],[-73.42017,40.83733],[-73.42008,40.83708],[-73.42006,40.83671],[-73.42008,40.83648],[-73.4203,40.83571],[-73.4202,40.83475],[-73.42014,40.83462],[-73.42046,40.83375],[-73.42084,40.83188],[-73.42106,40.83051],[-73.42115,40.82958],[-73.42109,40.82868],[-73.42709,40.82875],[-73.42763,40.82872],[-73.4306,40.82836],[-73.43819,40.82736],[-73.43939,40.82707],[-73.44052,40.82673],[-73.44099,40.82652],[-73.44177,40.82606],[-73.44229,40.82568],[-73.44256,40.82542],[-73.44302,40.82486],[-73.44503,40.82179],[-73.44544,40.82126],[-73.44606,40.82092],[-73.44696,40.82053],[-73.45162,40.81973],[-73.45063,40.81489],[-73.45025,40.81265],[-73.45001,40.8116],[-73.44877,40.80532],[-73.44876,40.805],[-73.44867,40.80442],[-73.44693,40.79588],[-73.44646,40.79297],[-73.4461,40.79107],[-73.44606,40.79015],[-73.44531,40.78593],[-73.44511,40.78556],[-73.44503,40.78546],[-73.44481,40.7839],[-73.44417,40.782],[-73.44352,40.77832],[-73.44326,40.7765],[-73.44197,40.7699],[-73.44097,40.7644],[-73.44052,40.76164],[-73.44022,40.76042],[-73.43967,40.75741],[-73.43953,40.75638],[-73.43939,40.7557],[-73.43943,40.75569],[-73.43862,40.75129],[-73.43802,40.74781],[-73.43571,40.73546],[-73.43558,40.7346],[-73.43554,40.73456],[-73.43223,40.71709],[-73.43098,40.71032],[-73.43057,40.70828],[-73.43029,40.70673],[-73.43029,40.70661],[-73.4304,40.70659],[-73.4322,40.70625],[-73.4348,40.70581],[-73.43672,40.70556],[-73.43966,40.70533],[-73.44103,40.70529],[-73.44307,40.70528],[-73.44306,40.70503],[-73.44287,40.70453],[-73.44379,40.70452],[-73.44982,40.70517],[-73.45074,40.70561],[-73.45069,40.70639],[-73.45144,40.70679],[-73.45144,40.70686],[-73.45208,40.70704],[-73.45265,40.7073],[-73.45303,40.70758],[-73.45334,40.7079],[-73.45359,40.70808],[-73.45434,40.7089],[-73.45485,40.70951],[-73.4555,40.71035],[-73.45637,40.71169],[-73.45698,40.71278],[-73.45738,40.71361],[-73.45786,40.71479],[-73.45828,40.71618],[-73.45842,40.71652],[-73.4587,40.71711],[-73.45895,40.71756],[-73.45944,40.71828],[-73.45992,40.71784],[-73.46054,40.71747],[-73.46147,40.71733],[-73.47501,40.71724],[-73.48245,40.71703],[-73.4835,40.71703],[-73.48337,40.71613],[-73.4828,40.71425],[-73.48273,40.71358],[-73.4827,40.71319],[-73.48272,40.71282],[-73.48268,40.71278],[-73.48262,40.7122],[-73.48384,40.71215],[-73.48453,40.71201],[-73.4859,40.71185],[-73.48621,40.71185],[-73.48621,40.71148],[-73.48604,40.71051],[-73.48562,40.71055],[-73.48534,40.70913],[-73.4854,40.70869],[-73.48526,40.70843],[-73.48533,40.70825],[-73.48528,40.7077],[-73.48507,40.7071],[-73.48467,40.70522],[-73.48463,40.70512],[-73.48461,40.70489],[-73.48426,40.70307],[-73.48425,40.70277],[-73.48518,40.70256],[-73.48716,40.70203],[-73.48752,40.70191],[-73.48887,40.70161],[-73.48994,40.70145],[-73.49113,40.70133],[-73.49249,40.70131],[-73.49225,40.70538],[-73.50317,40.70492],[-73.50371,40.70493],[-73.50418,40.70408],[-73.50473,40.70323],[-73.50478,40.7031],[-73.50487,40.70302],[-73.50547,40.70217],[-73.51398,40.70524],[-73.51786,40.70625],[-73.51975,40.70683],[-73.52262,40.70749],[-73.52236,40.70815],[-73.52321,40.70834],[-73.52317,40.70866],[-73.52322,40.70879],[-73.52348,40.70923],[-73.52386,40.70921],[-73.52437,40.70932],[-73.52455,40.70943],[-73.52469,40.70961],[-73.5256,40.71118],[-73.5257,40.71128],[-73.52583,40.71133],[-73.52595,40.71132],[-73.52655,40.71112],[-73.52743,40.71263],[-73.52715,40.71267],[-73.52445,40.71265],[-73.52448,40.71299],[-73.52417,40.71447],[-73.52403,40.71551],[-73.52411,40.71681],[-73.52421,40.71708],[-73.52462,40.71753],[-73.52474,40.71777],[-73.52472,40.71948],[-73.52487,40.72038],[-73.5249,40.72195],[-73.52484,40.72286],[-73.52521,40.72391],[-73.52532,40.72492],[-73.53803,40.72434],[-73.53845,40.72491],[-73.53974,40.727],[-73.5409,40.72911],[-73.54198,40.73136],[-73.54255,40.7327],[-73.54296,40.73379],[-73.54492,40.73387],[-73.54569,40.73401],[-73.54611,40.73413],[-73.54577,40.73376],[-73.55134,40.73374],[-73.55127,40.734],[-73.55417,40.73398],[-73.55282,40.74081],[-73.55263,40.7416],[-73.55211,40.74276],[-73.552,40.74308],[-73.55191,40.74366],[-73.55194,40.74412],[-73.55238,40.74754],[-73.55293,40.75143],[-73.55304,40.75282],[-73.55304,40.75309],[-73.5529,40.75431],[-73.55291,40.75466],[-73.55302,40.75534],[-73.55321,40.75595],[-73.5583,40.75491],[-73.56005,40.75451],[-73.56281,40.7537],[-73.56544,40.75287],[-73.56945,40.75143],[-73.57012,40.75124],[-73.5716,40.75093],[-73.57453,40.75047],[-73.57702,40.75002],[-73.58098,40.74925],[-73.58575,40.74809],[-73.5877,40.74755],[-73.58856,40.74736],[-73.58904,40.74731],[-73.5913,40.74731],[-73.59255,40.74723],[-73.59304,40.74716],[-73.59915,40.74589],[-73.60129,40.74553],[-73.60318,40.74533],[-73.60852,40.74428],[-73.61081,40.74379],[-73.61208,40.74359],[-73.61285,40.7434],[-73.61464,40.74316],[-73.6171,40.743],[-73.62278,40.74193],[-73.63395,40.73995],[-73.63672,40.73938],[-73.6392,40.73898],[-73.65037,40.73693],[-73.651,40.73685],[-73.6513,40.73713],[-73.65779,40.73619],[-73.66347,40.7352],[-73.66473,40.73503],[-73.67109,40.734],[-73.67118,40.73401],[-73.6712,40.73414],[-73.6727,40.73383],[-73.67426,40.73359],[-73.67567,40.73328],[-73.67702,40.7331],[-73.67747,40.733],[-73.67929,40.7328],[-73.6797,40.73266],[-73.68106,40.73233],[-73.68109,40.73248],[-73.68207,40.7324],[-73.68317,40.7322],[-73.6835,40.73217],[-73.68433,40.732],[-73.68438,40.73203],[-73.6844,40.73198],[-73.68467,40.73191],[-73.68466,40.73187],[-73.68519,40.73174],[-73.68524,40.73183],[-73.68529,40.73187],[-73.68623,40.73176],[-73.68667,40.73166],[-73.6867,40.73178],[-73.68713,40.73167],[-73.68716,40.73164],[-73.68757,40.73152],[-73.68937,40.73131],[-73.69028,40.73112],[-73.69118,40.73102],[-73.69208,40.73081],[-73.69251,40.73076],[-73.69345,40.73076],[-73.6953,40.73035],[-73.70341,40.72868],[-73.70674,40.72797],[-73.70765,40.7278],[-73.70766,40.72783],[-73.7105,40.72723],[-73.7169,40.72639],[-73.71999,40.7256],[-73.72553,40.72408],[-73.72603,40.72391],[-73.72923,40.7227],[-73.7295,40.72259],[-73.73033,40.72216],[-73.73065,40.72192],[-73.73237,40.7204],[-73.73257,40.72031],[-73.73319,40.71957],[-73.73438,40.71893],[-73.7353,40.7185],[-73.73613,40.71817],[-73.73733,40.71784],[-73.73887,40.71753],[-73.73984,40.71731],[-73.74082,40.71875],[-73.74196,40.72036],[-73.74282,40.72003],[-73.74433,40.72144],[-73.74357,40.72187],[-73.74475,40.72298],[-73.74621,40.72208],[-73.74697,40.72178],[-73.74769,40.72143],[-73.74839,40.72102],[-73.74803,40.7204],[-73.74888,40.72014],[-73.74913,40.72059],[-73.74991,40.72005],[-73.75346,40.72293],[-73.75263,40.72351],[-73.75409,40.72469],[-73.75497,40.72416],[-73.75509,40.72449],[-73.75524,40.72478],[-73.75642,40.7253],[-73.75664,40.72548],[-73.75675,40.72569],[-73.75677,40.7258],[-73.75675,40.72597],[-73.75671,40.72618],[-73.75458,40.7269],[-73.75248,40.72785],[-73.75264,40.72799],[-73.75133,40.72875],[-73.75066,40.72919],[-73.75005,40.72967],[-73.74962,40.73],[-73.74674,40.73258],[-73.74606,40.73313],[-73.74384,40.73481],[-73.74307,40.73546],[-73.7416,40.73691],[-73.73983,40.73905],[-73.73983,40.73918],[-73.73966,40.73943],[-73.73913,40.74002],[-73.73844,40.74061],[-73.73705,40.74146],[-73.73638,40.74191],[-73.73436,40.74363],[-73.73477,40.74419],[-73.73489,40.74445],[-73.73502,40.74489],[-73.73506,40.74533],[-73.73504,40.74553],[-73.73559,40.74597],[-73.73688,40.74719],[-73.73781,40.74798],[-73.73829,40.74835],[-73.74075,40.74989],[-73.74182,40.75068],[-73.74252,40.75134],[-73.74305,40.75193],[-73.74643,40.75597],[-73.74741,40.75704],[-73.74846,40.75807],[-73.749,40.75848],[-73.75022,40.75921],[-73.75088,40.75951],[-73.75165,40.75979],[-73.75385,40.76047],[-73.75407,40.76044],[-73.75508,40.76076],[-73.7557,40.76084],[-73.75648,40.76088],[-73.75697,40.76097],[-73.75738,40.76113],[-73.75756,40.76125],[-73.75776,40.76151],[-73.75791,40.76183],[-73.75812,40.76205],[-73.75716,40.76235],[-73.75782,40.76303],[-73.75816,40.76346],[-73.75844,40.76393],[-73.75862,40.76438],[-73.76008,40.76423],[-73.76124,40.76417],[-73.76186,40.76407],[-73.77077,40.76319],[-73.77097,40.7636],[-73.77192,40.76351],[-73.77417,40.76776],[-73.78029,40.76589],[-73.78067,40.76662],[-73.7799,40.76448],[-73.78002,40.7643],[-73.77914,40.76265],[-73.77903,40.76238],[-73.78041,40.7623],[-73.78423,40.76192],[-73.78991,40.76144],[-73.79344,40.76118],[-73.7982,40.76135],[-73.79913,40.76143],[-73.79914,40.76126],[-73.80101,40.76145],[-73.80119,40.7602],[-73.80083,40.75997],[-73.80124,40.7599],[-73.80125,40.75983],[-73.80307,40.76013],[-73.8029,40.76146],[-73.80374,40.76213],[-73.80463,40.76259],[-73.80733,40.7635],[-73.80703,40.76573],[-73.81082,40.76603],[-73.81047,40.76856],[-73.81558,40.76896],[-73.81573,40.77025],[-73.81732,40.77029],[-73.81729,40.77148],[-73.81735,40.77236],[-73.82187,40.77235],[-73.82187,40.77452],[-73.82167,40.77686],[-73.82148,40.77831],[-73.82239,40.77836],[-73.82376,40.7785],[-73.82382,40.77836],[-73.82602,40.77909],[-73.82567,40.77973],[-73.82623,40.77992],[-73.82528,40.7817],[-73.82502,40.78248],[-73.82486,40.78318],[-73.8244,40.78589],[-73.82387,40.78787],[-73.82351,40.78939],[-73.8234,40.79062],[-73.82353,40.79171],[-73.82355,40.79211],[-73.82373,40.79279],[-73.82404,40.79305],[-73.82573,40.79561],[-73.82297,40.79621],[-73.82384,40.79759],[-73.82758,40.80394]]]}},{"type":"Feature","properties":{"std_name":"Congressional District 4","std_geoid":"3604","pen":"politicians","std_note":null,"LSAD":"C2"},"geometry":{"type":"Polygon","coordinates":[[[-73.76881,40.62403],[-73.76883,40.6241],[-73.76878,40.6242],[-73.76876,40.62435],[-73.76865,40.62447],[-73.7686,40.62473],[-73.76833,40.6251],[-73.76825,40.6254],[-73.76815,40.62545],[-73.76778,40.62591],[-73.76776,40.62611],[-73.76743,40.62661],[-73.748,40.63463],[-73.74602,40.63521],[-73.74418,40.63736],[-73.7433,40.63805],[-73.74236,40.63809],[-73.7415,40.63785],[-73.7412,40.63759],[-73.74119,40.63741],[-73.74127,40.63726],[-73.74208,40.63638],[-73.74258,40.63565],[-73.74267,40.63541],[-73.74265,40.63504],[-73.74224,40.63485],[-73.74168,40.63484],[-73.73996,40.63514],[-73.73947,40.63571],[-73.74126,40.63891],[-73.74228,40.64012],[-73.74143,40.6405],[-73.74205,40.64147],[-73.74166,40.6422],[-73.74144,40.64609],[-73.74144,40.64689],[-73.73905,40.6482],[-73.73513,40.64973],[-73.73143,40.65017],[-73.73105,40.65023],[-73.73,40.65048],[-73.72687,40.65154],[-73.72667,40.65169],[-73.72643,40.65179],[-73.72525,40.65219],[-73.72505,40.65234],[-73.72498,40.65268],[-73.72482,40.65302],[-73.72487,40.65345],[-73.72479,40.654],[-73.72534,40.65532],[-73.72593,40.65773],[-73.72644,40.65916],[-73.72721,40.66042],[-73.72793,40.66175],[-73.72833,40.66304],[-73.72808,40.66307],[-73.72781,40.66322],[-73.72776,40.66398],[-73.72784,40.66505],[-73.72822,40.66596],[-73.72827,40.66644],[-73.72822,40.66731],[-73.72826,40.66807],[-73.72794,40.67055],[-73.72794,40.67081],[-73.72791,40.67084],[-73.72753,40.67387],[-73.72756,40.6741],[-73.72744,40.67443],[-73.72654,40.67649],[-73.7262,40.67738],[-73.72563,40.67959],[-73.72591,40.68266],[-73.7258,40.68435],[-73.72591,40.68608],[-73.7262,40.68898],[-73.7265,40.69689],[-73.72654,40.69898],[-73.72665,40.70111],[-73.72678,40.70199],[-73.72673,40.70215],[-73.72705,40.7095],[-73.7269,40.70998],[-73.72697,40.71072],[-73.72732,40.71222],[-73.72918,40.71917],[-73.73033,40.72216],[-73.7295,40.72259],[-73.72923,40.7227],[-73.72603,40.72391],[-73.72553,40.72408],[-73.71999,40.7256],[-73.71753,40.72624],[-73.71649,40.72645],[-73.7105,40.72723],[-73.70766,40.72783],[-73.70765,40.7278],[-73.70674,40.72797],[-73.70341,40.72868],[-73.6953,40.73035],[-73.69345,40.73076],[-73.69251,40.73076],[-73.69208,40.73081],[-73.69118,40.73102],[-73.69028,40.73112],[-73.68937,40.73131],[-73.68757,40.73152],[-73.68716,40.73164],[-73.68713,40.73167],[-73.6867,40.73178],[-73.68667,40.73166],[-73.68623,40.73176],[-73.68529,40.73187],[-73.68524,40.73183],[-73.68519,40.73174],[-73.68466,40.73187],[-73.68467,40.73191],[-73.6844,40.73198],[-73.68438,40.73203],[-73.68433,40.732],[-73.6835,40.73217],[-73.68317,40.7322],[-73.68207,40.7324],[-73.68109,40.73248],[-73.68106,40.73233],[-73.6797,40.73266],[-73.67929,40.7328],[-73.67747,40.733],[-73.67702,40.7331],[-73.67567,40.73328],[-73.67426,40.73359],[-73.6727,40.73383],[-73.6712,40.73414],[-73.67118,40.73401],[-73.67109,40.734],[-73.66473,40.73503],[-73.66347,40.7352],[-73.65779,40.73619],[-73.6513,40.73713],[-73.651,40.73685],[-73.65037,40.73693],[-73.6392,40.73898],[-73.63672,40.73938],[-73.63395,40.73995],[-73.62278,40.74193],[-73.6171,40.743],[-73.61464,40.74316],[-73.61285,40.7434],[-73.61208,40.74359],[-73.61081,40.74379],[-73.60852,40.74428],[-73.60318,40.74533],[-73.60129,40.74553],[-73.59915,40.74589],[-73.59304,40.74716],[-73.59255,40.74723],[-73.5913,40.74731],[-73.58904,40.74731],[-73.58856,40.74736],[-73.5877,40.74755],[-73.58575,40.74809],[-73.58098,40.74925],[-73.57702,40.75002],[-73.57453,40.75047],[-73.5716,40.75093],[-73.57012,40.75124],[-73.56945,40.75143],[-73.56544,40.75287],[-73.56281,40.7537],[-73.56005,40.75451],[-73.5583,40.75491],[-73.55321,40.75595],[-73.55302,40.75534],[-73.55291,40.75466],[-73.5529,40.75431],[-73.55304,40.75309],[-73.55304,40.75282],[-73.55293,40.75143],[-73.55238,40.74754],[-73.55194,40.74412],[-73.55191,40.74366],[-73.552,40.74308],[-73.55211,40.74276],[-73.55263,40.7416],[-73.55282,40.74081],[-73.55417,40.73398],[-73.55127,40.734],[-73.55134,40.73374],[-73.54577,40.73376],[-73.54611,40.73413],[-73.54569,40.73401],[-73.54492,40.73387],[-73.54296,40.73379],[-73.54255,40.7327],[-73.54198,40.73136],[-73.5409,40.72911],[-73.53974,40.727],[-73.53845,40.72491],[-73.53803,40.72434],[-73.52532,40.72492],[-73.52521,40.72391],[-73.52484,40.72286],[-73.5249,40.72195],[-73.52487,40.72038],[-73.52472,40.71948],[-73.52474,40.71777],[-73.52462,40.71753],[-73.52421,40.71708],[-73.52411,40.71681],[-73.52403,40.71551],[-73.52417,40.71447],[-73.52448,40.71299],[-73.52445,40.71265],[-73.52715,40.71267],[-73.52743,40.71263],[-73.52655,40.71112],[-73.52595,40.71132],[-73.52583,40.71133],[-73.5257,40.71128],[-73.5256,40.71118],[-73.52469,40.70961],[-73.52455,40.70943],[-73.52437,40.70932],[-73.52386,40.70921],[-73.52348,40.70923],[-73.52322,40.70879],[-73.52317,40.70866],[-73.52321,40.70834],[-73.52236,40.70815],[-73.52262,40.70749],[-73.51975,40.70683],[-73.51786,40.70625],[-73.51398,40.70524],[-73.50547,40.70217],[-73.50487,40.70302],[-73.50478,40.7031],[-73.50473,40.70323],[-73.50418,40.70408],[-73.50371,40.70493],[-73.50317,40.70492],[-73.49225,40.70538],[-73.49249,40.70131],[-73.49113,40.70133],[-73.48994,40.70145],[-73.48887,40.70161],[-73.48752,40.70191],[-73.48716,40.70203],[-73.48518,40.70256],[-73.48425,40.70277],[-73.48422,40.70252],[-73.48438,40.70222],[-73.48432,40.70206],[-73.48408,40.70185],[-73.48373,40.69974],[-73.48328,40.69768],[-73.48331,40.69762],[-73.48329,40.69705],[-73.48319,40.69701],[-73.48285,40.69526],[-73.48275,40.69519],[-73.48259,40.695],[-73.48295,40.69492],[-73.48291,40.69471],[-73.48277,40.69465],[-73.48209,40.69129],[-73.48166,40.6883],[-73.48148,40.68379],[-73.48155,40.6812],[-73.48207,40.6787],[-73.48207,40.6761],[-73.48197,40.67493],[-73.48237,40.6736],[-73.48167,40.6722],[-73.48217,40.6709],[-73.48207,40.66964],[-73.48237,40.6689],[-73.48107,40.6676],[-73.48208,40.66679],[-73.4822,40.6663],[-73.48233,40.66534],[-73.4829,40.66491],[-73.48311,40.66461],[-73.48314,40.66431],[-73.48386,40.66333],[-73.48437,40.66175],[-73.48539,40.66088],[-73.48599,40.6601],[-73.48644,40.6593],[-73.48671,40.65859],[-73.48704,40.65735],[-73.48703,40.65557],[-73.48639,40.65525],[-73.48608,40.65499],[-73.48586,40.65472],[-73.48578,40.65438],[-73.48592,40.65411],[-73.48637,40.65355],[-73.48595,40.65335],[-73.48589,40.65299],[-73.48607,40.65241],[-73.48613,40.65182],[-73.48561,40.65035],[-73.48654,40.64887],[-73.48465,40.64878],[-73.4848,40.64814],[-73.48492,40.648],[-73.48546,40.64649],[-73.48546,40.64621],[-73.48525,40.64605],[-73.48494,40.64505],[-73.48496,40.64137],[-73.48487,40.63788],[-73.48487,40.63502],[-73.48491,40.62824],[-73.48498,40.62377],[-73.48504,40.62233],[-73.48487,40.61954],[-73.4849,40.6175],[-73.48484,40.61741],[-73.48498,40.61408],[-73.48438,40.60789],[-73.48489,40.60619],[-73.48484,40.60452],[-73.48483,40.60025],[-73.48494,40.59685],[-73.48487,40.58969],[-73.48479,40.5897],[-73.48439,40.55268],[-73.48495,40.52092],[-73.4865,40.5205],[-73.51784,40.52331],[-73.55267,40.52891],[-73.62457,40.53451],[-73.70609,40.53454],[-73.76878,40.53375],[-73.76763,40.53715],[-73.76493,40.5444],[-73.76223,40.5502],[-73.75826,40.55536],[-73.7557,40.57869],[-73.7555,40.58539],[-73.75212,40.58818],[-73.74775,40.5915],[-73.74447,40.5929],[-73.74324,40.59284],[-73.73718,40.59296],[-73.73741,40.59343],[-73.73764,40.59441],[-73.73808,40.59459],[-73.73846,40.59587],[-73.73844,40.59781],[-73.73826,40.60256],[-73.73846,40.60284],[-73.73852,40.60313],[-73.73923,40.60403],[-73.73946,40.60424],[-73.74029,40.6046],[-73.74115,40.60546],[-73.74177,40.60602],[-73.74317,40.60718],[-73.74355,40.60745],[-73.7432,40.60771],[-73.74307,40.60789],[-73.74315,40.60796],[-73.74306,40.608],[-73.74553,40.61187],[-73.74675,40.6114],[-73.74694,40.61178],[-73.74712,40.61204],[-73.7475,40.61189],[-73.74799,40.61231],[-73.74822,40.61201],[-73.74912,40.61179],[-73.75009,40.61164],[-73.75346,40.61052],[-73.75473,40.61041],[-73.7552,40.61059],[-73.75723,40.61099],[-73.76002,40.61135],[-73.76208,40.61273],[-73.76524,40.61494],[-73.76672,40.615],[-73.76757,40.62148],[-73.76855,40.62315],[-73.76867,40.62359],[-73.76884,40.62395],[-73.76881,40.62403]]]}},{"type":"Feature","properties":{"std_name":"Congressional District 5","std_geoid":"3605","pen":"politicians","std_note":null,"LSAD":"C2"},"geometry":{"type":"Polygon","coordinates":[[[-74.03813,40.53829],[-74.03629,40.55104],[-73.99709,40.55728],[-73.95928,40.56308],[-73.95167,40.56431],[-73.9507,40.56443],[-73.945,40.56531],[-73.93489,40.56665],[-73.93336,40.56693],[-73.92807,40.56779],[-73.90491,40.57141],[-73.90387,40.57162],[-73.89052,40.5727],[-73.88507,40.57375],[-73.87922,40.57466],[-73.87142,40.57854],[-73.86923,40.57934],[-73.86561,40.5812],[-73.85352,40.58659],[-73.84985,40.58867],[-73.84739,40.59203],[-73.84668,40.59321],[-73.84444,40.59586],[-73.84202,40.59831],[-73.83588,40.60564],[-73.83446,40.60719],[-73.83428,40.60919],[-73.83405,40.61346],[-73.83339,40.62767],[-73.83304,40.62826],[-73.83538,40.63032],[-73.83624,40.63111],[-73.83765,40.63284],[-73.84834,40.64352],[-73.85494,40.64265],[-73.85615,40.6492],[-73.85665,40.65013],[-73.85696,40.65058],[-73.85898,40.65268],[-73.85976,40.6541],[-73.86048,40.65466],[-73.86096,40.65518],[-73.86219,40.65683],[-73.86244,40.65726],[-73.86317,40.65828],[-73.86151,40.65905],[-73.86036,40.65965],[-73.85851,40.6599],[-73.85761,40.66012],[-73.85843,40.66345],[-73.85568,40.66387],[-73.85643,40.66703],[-73.85728,40.67031],[-73.8563,40.67045],[-73.85627,40.67033],[-73.85536,40.67046],[-73.85534,40.67039],[-73.85441,40.67058],[-73.85331,40.67073],[-73.85297,40.67081],[-73.85112,40.67108],[-73.85097,40.67172],[-73.85284,40.67228],[-73.85185,40.67249],[-73.85225,40.67403],[-73.8513,40.67416],[-73.85147,40.67506],[-73.85045,40.6748],[-73.85065,40.67585],[-73.85092,40.6765],[-73.85153,40.67775],[-73.85064,40.67788],[-73.8516,40.67983],[-73.85066,40.67989],[-73.85198,40.68256],[-73.84942,40.6833],[-73.85025,40.68498],[-73.84937,40.68523],[-73.85057,40.68766],[-73.84966,40.68783],[-73.84898,40.68804],[-73.8494,40.68852],[-73.84929,40.68869],[-73.84823,40.68899],[-73.84788,40.68832],[-73.84588,40.68891],[-73.84625,40.68971],[-73.84743,40.68937],[-73.84769,40.68989],[-73.84651,40.69022],[-73.84749,40.69222],[-73.84836,40.69196],[-73.84956,40.69442],[-73.84913,40.69451],[-73.84959,40.69656],[-73.85155,40.69631],[-73.85184,40.69768],[-73.85266,40.69757],[-73.85261,40.69781],[-73.85261,40.69796],[-73.85271,40.69841],[-73.85329,40.69929],[-73.85377,40.69991],[-73.85457,40.70059],[-73.85492,40.70097],[-73.85513,40.70126],[-73.85524,40.70148],[-73.85529,40.70184],[-73.85529,40.7026],[-73.85998,40.70311],[-73.85914,40.70349],[-73.85961,40.70407],[-73.85743,40.70504],[-73.85822,40.7056],[-73.85717,40.70599],[-73.85594,40.7064],[-73.85668,40.70769],[-73.85365,40.70762],[-73.85277,40.70744],[-73.8511,40.7079],[-73.84952,40.70839],[-73.84858,40.70851],[-73.84763,40.70841],[-73.84663,40.7084],[-73.84568,40.70848],[-73.84302,40.70918],[-73.84069,40.71015],[-73.83973,40.7104],[-73.83806,40.71092],[-73.83737,40.71117],[-73.83672,40.71147],[-73.83493,40.71247],[-73.83434,40.71276],[-73.83376,40.71313],[-73.83256,40.71379],[-73.83315,40.71443],[-73.83223,40.71512],[-73.83131,40.71447],[-73.83098,40.71431],[-73.8299,40.71457],[-73.8285,40.71501],[-73.82698,40.71539],[-73.82625,40.71573],[-73.8257,40.71606],[-73.82544,40.71556],[-73.82428,40.71383],[-73.82404,40.71321],[-73.82395,40.71285],[-73.82343,40.71228],[-73.82117,40.7104],[-73.82066,40.70987],[-73.82032,40.70972],[-73.81943,40.70921],[-73.81918,40.71025],[-73.8184,40.70979],[-73.81745,40.70909],[-73.81705,40.7089],[-73.81668,40.7088],[-73.81637,40.7088],[-73.81243,40.70909],[-73.81201,40.70594],[-73.80935,40.70669],[-73.80969,40.70738],[-73.80998,40.70807],[-73.80501,40.70947],[-73.80484,40.70934],[-73.80425,40.71039],[-73.80243,40.71204],[-73.80259,40.71254],[-73.80138,40.71267],[-73.80124,40.7125],[-73.80039,40.71294],[-73.79902,40.71351],[-73.79833,40.71291],[-73.79726,40.71316],[-73.79716,40.7133],[-73.797,40.7134],[-73.79561,40.71381],[-73.79475,40.71207],[-73.7939,40.71237],[-73.79582,40.71627],[-73.79495,40.71652],[-73.79462,40.71585],[-73.79374,40.7161],[-73.79315,40.71493],[-73.7925,40.71451],[-73.79215,40.71417],[-73.79187,40.71379],[-73.7919,40.71393],[-73.79188,40.71422],[-73.79176,40.71449],[-73.79166,40.71462],[-73.79142,40.71484],[-73.79061,40.71531],[-73.79023,40.71563],[-73.78996,40.71593],[-73.78977,40.71627],[-73.7897,40.71645],[-73.78962,40.71682],[-73.78962,40.717],[-73.78906,40.71707],[-73.78855,40.71726],[-73.78879,40.7176],[-73.78896,40.71775],[-73.78924,40.71795],[-73.7898,40.71817],[-73.79017,40.71825],[-73.79056,40.71827],[-73.79089,40.71837],[-73.7911,40.71851],[-73.79126,40.71867],[-73.7909,40.71888],[-73.79153,40.71895],[-73.79192,40.71891],[-73.79261,40.71872],[-73.79496,40.71821],[-73.79565,40.71813],[-73.79697,40.71772],[-73.79806,40.71743],[-73.799,40.72015],[-73.7981,40.72035],[-73.79723,40.72061],[-73.79847,40.72353],[-73.79333,40.72528],[-73.79085,40.72604],[-73.78116,40.72921],[-73.78034,40.72744],[-73.77941,40.72769],[-73.78025,40.72946],[-73.77757,40.73019],[-73.77523,40.72524],[-73.77634,40.72447],[-73.77667,40.72401],[-73.77699,40.72373],[-73.77739,40.7235],[-73.77804,40.72328],[-73.77788,40.72304],[-73.77732,40.72322],[-73.77667,40.72323],[-73.77606,40.72336],[-73.77492,40.72409],[-73.77359,40.72474],[-73.77274,40.72503],[-73.77106,40.72548],[-73.77029,40.72563],[-73.76924,40.7259],[-73.76718,40.72626],[-73.76624,40.7264],[-73.76546,40.72647],[-73.7647,40.72648],[-73.76082,40.72596],[-73.76206,40.72599],[-73.76105,40.72582],[-73.76043,40.72574],[-73.75972,40.72572],[-73.75911,40.72573],[-73.75806,40.72586],[-73.75753,40.72595],[-73.75671,40.72618],[-73.75677,40.7258],[-73.75673,40.72562],[-73.75664,40.72548],[-73.75642,40.7253],[-73.75524,40.72478],[-73.75509,40.72449],[-73.75497,40.72416],[-73.75409,40.72469],[-73.75263,40.72351],[-73.75346,40.72293],[-73.74991,40.72005],[-73.74913,40.72059],[-73.74888,40.72014],[-73.74803,40.7204],[-73.74839,40.72102],[-73.74769,40.72143],[-73.74697,40.72178],[-73.74621,40.72208],[-73.74475,40.72298],[-73.74357,40.72187],[-73.74433,40.72144],[-73.74282,40.72003],[-73.74196,40.72036],[-73.74082,40.71875],[-73.73984,40.71731],[-73.73887,40.71753],[-73.73733,40.71784],[-73.73613,40.71817],[-73.7353,40.7185],[-73.73438,40.71893],[-73.73319,40.71957],[-73.73257,40.72031],[-73.73237,40.7204],[-73.73065,40.72192],[-73.73033,40.72216],[-73.72918,40.71917],[-73.72732,40.71222],[-73.72697,40.71072],[-73.7269,40.70998],[-73.72705,40.7095],[-73.72673,40.70215],[-73.72678,40.70199],[-73.72665,40.70111],[-73.72654,40.69898],[-73.7265,40.69689],[-73.7262,40.68898],[-73.72591,40.68608],[-73.7258,40.68435],[-73.72591,40.68266],[-73.72563,40.67959],[-73.7262,40.67738],[-73.72654,40.67649],[-73.72744,40.67443],[-73.72756,40.6741],[-73.72753,40.67387],[-73.72791,40.67084],[-73.72794,40.67081],[-73.72794,40.67055],[-73.72826,40.66807],[-73.72822,40.66731],[-73.72827,40.66644],[-73.72822,40.66596],[-73.72784,40.66505],[-73.72776,40.66398],[-73.72781,40.66322],[-73.72808,40.66307],[-73.72833,40.66304],[-73.72793,40.66175],[-73.72721,40.66042],[-73.72644,40.65916],[-73.72593,40.65773],[-73.72534,40.65532],[-73.72479,40.654],[-73.72487,40.65345],[-73.72482,40.65302],[-73.72498,40.65268],[-73.72505,40.65234],[-73.72525,40.65219],[-73.72643,40.65179],[-73.72667,40.65169],[-73.72687,40.65154],[-73.72899,40.65084],[-73.72974,40.65056],[-73.73105,40.65023],[-73.73513,40.64973],[-73.73905,40.6482],[-73.74144,40.64689],[-73.74144,40.64609],[-73.74166,40.6422],[-73.74205,40.64147],[-73.74143,40.6405],[-73.74228,40.64012],[-73.74126,40.63891],[-73.73947,40.63571],[-73.73996,40.63514],[-73.74168,40.63484],[-73.74224,40.63485],[-73.74265,40.63504],[-73.74267,40.63541],[-73.74258,40.63565],[-73.74208,40.63638],[-73.74127,40.63726],[-73.74119,40.63741],[-73.7412,40.63759],[-73.7415,40.63785],[-73.74236,40.63809],[-73.7433,40.63805],[-73.74418,40.63736],[-73.74602,40.63521],[-73.748,40.63463],[-73.76743,40.62661],[-73.76776,40.62611],[-73.76778,40.62591],[-73.76815,40.62545],[-73.76825,40.6254],[-73.76833,40.6251],[-73.7686,40.62473],[-73.76865,40.62447],[-73.76876,40.62435],[-73.76878,40.6242],[-73.76883,40.6241],[-73.76881,40.62403],[-73.76884,40.62395],[-73.76867,40.62359],[-73.76855,40.62315],[-73.76757,40.62148],[-73.76672,40.615],[-73.76524,40.61494],[-73.76208,40.61273],[-73.76002,40.61135],[-73.75723,40.61099],[-73.7552,40.61059],[-73.75473,40.61041],[-73.75346,40.61052],[-73.75009,40.61164],[-73.74912,40.61179],[-73.74822,40.61201],[-73.74799,40.61231],[-73.7475,40.61189],[-73.74712,40.61204],[-73.74694,40.61178],[-73.74675,40.6114],[-73.74553,40.61187],[-73.74306,40.608],[-73.74315,40.60796],[-73.74307,40.60789],[-73.7432,40.60771],[-73.74355,40.60745],[-73.74317,40.60718],[-73.74177,40.60602],[-73.74115,40.60546],[-73.74029,40.6046],[-73.73946,40.60424],[-73.73923,40.60403],[-73.73852,40.60313],[-73.73846,40.60284],[-73.73826,40.60256],[-73.73844,40.59781],[-73.73846,40.59587],[-73.73808,40.59459],[-73.73764,40.59441],[-73.73741,40.59343],[-73.73718,40.59296],[-73.74324,40.59284],[-73.74447,40.5929],[-73.74775,40.5915],[-73.75212,40.58818],[-73.7555,40.58539],[-73.7557,40.57869],[-73.75826,40.55536],[-73.76223,40.5502],[-73.76493,40.5444],[-73.76763,40.53715],[-73.76878,40.53375],[-73.78397,40.53239],[-73.82616,40.52287],[-73.85484,40.512],[-73.87003,40.50249],[-73.87678,40.50113],[-73.88227,40.49521],[-73.88665,40.48979],[-73.88965,40.48651],[-73.90214,40.49212],[-73.97787,40.5191],[-74.04228,40.50809],[-74.03813,40.53829]]]}},{"type":"Feature","properties":{"std_name":"Congressional District 6","std_geoid":"3606","pen":"politicians","std_note":null,"LSAD":"C2"},"geometry":{"type":"Polygon","coordinates":[[[-73.91588,40.743],[-73.91523,40.74625],[-73.91337,40.74603],[-73.91281,40.74882],[-73.91164,40.74869],[-73.91193,40.74799],[-73.90992,40.74776],[-73.90955,40.74739],[-73.9089,40.74883],[-73.90802,40.74859],[-73.9077,40.7493],[-73.90839,40.74995],[-73.90832,40.75012],[-73.90751,40.74977],[-73.907,40.75085],[-73.90611,40.75062],[-73.90525,40.75256],[-73.90608,40.75291],[-73.90584,40.75346],[-73.90584,40.75365],[-73.90515,40.75486],[-73.90529,40.75563],[-73.90619,40.75553],[-73.90647,40.75708],[-73.90485,40.75726],[-73.89626,40.75816],[-73.89598,40.75661],[-73.89505,40.75671],[-73.89361,40.74877],[-73.88907,40.74925],[-73.88868,40.74713],[-73.87237,40.74885],[-73.87159,40.74533],[-73.86963,40.74591],[-73.86929,40.74524],[-73.8637,40.74691],[-73.8635,40.74752],[-73.8631,40.74763],[-73.86253,40.74653],[-73.85448,40.74895],[-73.85442,40.7488],[-73.85086,40.75],[-73.8522,40.75266],[-73.85262,40.75341],[-73.85301,40.75456],[-73.85319,40.7554],[-73.85335,40.75601],[-73.85354,40.75655],[-73.85382,40.75719],[-73.85421,40.75787],[-73.8545,40.75828],[-73.85439,40.75825],[-73.85333,40.75768],[-73.85283,40.75754],[-73.85241,40.75753],[-73.85219,40.75757],[-73.85125,40.75781],[-73.8494,40.75841],[-73.84867,40.75873],[-73.84797,40.75908],[-73.84763,40.75928],[-73.84634,40.76019],[-73.84585,40.76046],[-73.84597,40.76072],[-73.84446,40.7617],[-73.84372,40.76207],[-73.84293,40.76234],[-73.84257,40.76241],[-73.84197,40.76269],[-73.84087,40.76256],[-73.83969,40.76259],[-73.8399,40.76297],[-73.84005,40.76342],[-73.84009,40.76364],[-73.8401,40.76421],[-73.83912,40.76598],[-73.83932,40.76605],[-73.83871,40.76689],[-73.83816,40.76772],[-73.83729,40.76869],[-73.83673,40.76922],[-73.83627,40.76961],[-73.83438,40.77089],[-73.83183,40.77239],[-73.83054,40.77344],[-73.83022,40.77376],[-73.82951,40.77457],[-73.82888,40.77543],[-73.82824,40.77646],[-73.82623,40.77992],[-73.82567,40.77973],[-73.82602,40.77909],[-73.82582,40.77902],[-73.82382,40.77836],[-73.82376,40.7785],[-73.82239,40.77836],[-73.82148,40.77831],[-73.82167,40.77686],[-73.82187,40.77452],[-73.82187,40.77235],[-73.81735,40.77236],[-73.81729,40.77148],[-73.81732,40.77029],[-73.81573,40.77025],[-73.81558,40.76896],[-73.81047,40.76856],[-73.81082,40.76603],[-73.80703,40.76573],[-73.80733,40.7635],[-73.80463,40.76259],[-73.80374,40.76213],[-73.8029,40.76146],[-73.80307,40.76013],[-73.80125,40.75983],[-73.80124,40.7599],[-73.80083,40.75997],[-73.80119,40.7602],[-73.80101,40.76145],[-73.79914,40.76126],[-73.79913,40.76143],[-73.7982,40.76135],[-73.79344,40.76118],[-73.78991,40.76144],[-73.78423,40.76192],[-73.78041,40.7623],[-73.77903,40.76238],[-73.77914,40.76265],[-73.78002,40.7643],[-73.7799,40.76448],[-73.78067,40.76662],[-73.78029,40.76589],[-73.77417,40.76776],[-73.77192,40.76351],[-73.77097,40.7636],[-73.77077,40.76319],[-73.76186,40.76407],[-73.76124,40.76417],[-73.76008,40.76423],[-73.75862,40.76438],[-73.75844,40.76393],[-73.75816,40.76346],[-73.75782,40.76303],[-73.75716,40.76235],[-73.75812,40.76205],[-73.75791,40.76183],[-73.75776,40.76151],[-73.75756,40.76125],[-73.75738,40.76113],[-73.75697,40.76097],[-73.7567,40.76091],[-73.7557,40.76084],[-73.75508,40.76076],[-73.75407,40.76044],[-73.75385,40.76047],[-73.75128,40.75967],[-73.75054,40.75936],[-73.74986,40.75901],[-73.749,40.75848],[-73.74846,40.75807],[-73.74741,40.75704],[-73.74643,40.75597],[-73.74305,40.75193],[-73.74252,40.75134],[-73.74182,40.75068],[-73.74075,40.74989],[-73.73829,40.74835],[-73.73781,40.74798],[-73.73688,40.74719],[-73.73559,40.74597],[-73.73504,40.74553],[-73.73506,40.74533],[-73.73502,40.74489],[-73.73489,40.74445],[-73.73477,40.74419],[-73.73436,40.74363],[-73.73638,40.74191],[-73.73705,40.74146],[-73.73844,40.74061],[-73.73913,40.74002],[-73.73966,40.73943],[-73.73983,40.73918],[-73.73983,40.73905],[-73.7416,40.73691],[-73.74307,40.73546],[-73.74384,40.73481],[-73.74606,40.73313],[-73.74674,40.73258],[-73.74962,40.73],[-73.75005,40.72967],[-73.75066,40.72919],[-73.75133,40.72875],[-73.75264,40.72799],[-73.75248,40.72785],[-73.75458,40.7269],[-73.75645,40.72625],[-73.75753,40.72595],[-73.75911,40.72573],[-73.75972,40.72572],[-73.76043,40.72574],[-73.76105,40.72582],[-73.76206,40.72599],[-73.76082,40.72596],[-73.7647,40.72648],[-73.76546,40.72647],[-73.76624,40.7264],[-73.76718,40.72626],[-73.76924,40.7259],[-73.77029,40.72563],[-73.77106,40.72548],[-73.77274,40.72503],[-73.77359,40.72474],[-73.77492,40.72409],[-73.77606,40.72336],[-73.77667,40.72323],[-73.77732,40.72322],[-73.77788,40.72304],[-73.77804,40.72328],[-73.77739,40.7235],[-73.77699,40.72373],[-73.77667,40.72401],[-73.77634,40.72447],[-73.77523,40.72524],[-73.77757,40.73019],[-73.78025,40.72946],[-73.77941,40.72769],[-73.78034,40.72744],[-73.78116,40.72921],[-73.79085,40.72604],[-73.79333,40.72528],[-73.79847,40.72353],[-73.79723,40.72061],[-73.7981,40.72035],[-73.799,40.72015],[-73.79806,40.71743],[-73.79697,40.71772],[-73.79565,40.71813],[-73.79496,40.71821],[-73.79261,40.71872],[-73.79192,40.71891],[-73.79153,40.71895],[-73.7909,40.71888],[-73.79126,40.71867],[-73.7911,40.71851],[-73.79089,40.71837],[-73.79056,40.71827],[-73.79017,40.71825],[-73.7898,40.71817],[-73.78924,40.71795],[-73.78896,40.71775],[-73.78879,40.7176],[-73.78855,40.71726],[-73.78906,40.71707],[-73.78962,40.717],[-73.78962,40.71682],[-73.7897,40.71645],[-73.78977,40.71627],[-73.78996,40.71593],[-73.79023,40.71563],[-73.79061,40.71531],[-73.79142,40.71484],[-73.79166,40.71462],[-73.79176,40.71449],[-73.79188,40.71422],[-73.7919,40.71393],[-73.79187,40.71379],[-73.79215,40.71417],[-73.7925,40.71451],[-73.79315,40.71493],[-73.79374,40.7161],[-73.79462,40.71585],[-73.79495,40.71652],[-73.79582,40.71627],[-73.7939,40.71237],[-73.79475,40.71207],[-73.79561,40.71381],[-73.797,40.7134],[-73.79716,40.7133],[-73.79726,40.71316],[-73.79833,40.71291],[-73.79902,40.71351],[-73.80039,40.71294],[-73.80124,40.7125],[-73.80138,40.71267],[-73.80259,40.71254],[-73.80243,40.71204],[-73.80425,40.71039],[-73.80484,40.70934],[-73.80501,40.70947],[-73.80998,40.70807],[-73.80969,40.70738],[-73.80935,40.70669],[-73.81201,40.70594],[-73.81243,40.70909],[-73.81637,40.7088],[-73.81684,40.70882],[-73.81745,40.70909],[-73.8184,40.70979],[-73.81918,40.71025],[-73.81943,40.70921],[-73.82032,40.70972],[-73.82066,40.70987],[-73.82117,40.7104],[-73.82343,40.71228],[-73.82395,40.71285],[-73.82404,40.71321],[-73.82428,40.71383],[-73.82544,40.71556],[-73.8257,40.71606],[-73.82625,40.71573],[-73.82698,40.71539],[-73.8285,40.71501],[-73.8299,40.71457],[-73.83098,40.71431],[-73.83131,40.71447],[-73.83223,40.71512],[-73.83315,40.71443],[-73.83256,40.71379],[-73.83376,40.71313],[-73.83434,40.71276],[-73.83493,40.71247],[-73.83672,40.71147],[-73.83737,40.71117],[-73.83806,40.71092],[-73.83973,40.7104],[-73.84069,40.71015],[-73.84302,40.70918],[-73.84568,40.70848],[-73.84663,40.7084],[-73.84763,40.70841],[-73.84858,40.70851],[-73.84952,40.70839],[-73.8511,40.7079],[-73.85277,40.70744],[-73.85365,40.70762],[-73.85668,40.70769],[-73.85927,40.70749],[-73.86001,40.70737],[-73.86216,40.70726],[-73.86228,40.70738],[-73.86501,40.71078],[-73.86208,40.7122],[-73.86964,40.7133],[-73.87162,40.71329],[-73.87359,40.71323],[-73.87349,40.71182],[-73.87539,40.71171],[-73.87543,40.71242],[-73.87922,40.71203],[-73.87934,40.71273],[-73.88003,40.71365],[-73.88372,40.71328],[-73.88426,40.7133],[-73.88435,40.71223],[-73.88508,40.71216],[-73.8959,40.71251],[-73.90538,40.71288],[-73.90576,40.71459],[-73.90777,40.71561],[-73.90976,40.71774],[-73.90966,40.71779],[-73.91132,40.71962],[-73.91246,40.72093],[-73.9132,40.72188],[-73.91343,40.72233],[-73.91367,40.7226],[-73.91384,40.7229],[-73.91317,40.72308],[-73.91271,40.72328],[-73.91256,40.72324],[-73.90707,40.72747],[-73.90518,40.72896],[-73.90108,40.73391],[-73.90095,40.73563],[-73.90084,40.73846],[-73.90179,40.73849],[-73.90181,40.73856],[-73.90083,40.73904],[-73.9008,40.73916],[-73.90164,40.73875],[-73.90267,40.73849],[-73.90366,40.73814],[-73.90365,40.73822],[-73.90377,40.73855],[-73.90326,40.73988],[-73.9038,40.7399],[-73.90323,40.74116],[-73.91295,40.74231],[-73.91281,40.74266],[-73.91588,40.743]]]}},{"type":"Feature","properties":{"std_name":"Congressional District 7","std_geoid":"3607","pen":"politicians","std_note":null,"LSAD":"C2"},"geometry":{"type":"Polygon","coordinates":[[[-73.99073,40.69305],[-73.99045,40.69373],[-73.99066,40.69456],[-73.99075,40.69503],[-73.99009,40.69507],[-73.98975,40.70039],[-73.99015,40.70068],[-73.99017,40.70075],[-73.9866,40.70062],[-73.98679,40.70102],[-73.98675,40.70153],[-73.98073,40.70127],[-73.98051,40.70205],[-73.98014,40.70239],[-73.98034,40.70266],[-73.98022,40.70306],[-73.97999,40.70354],[-73.9796,40.70418],[-73.97933,40.70475],[-73.97917,40.70528],[-73.97937,40.70544],[-73.97923,40.70577],[-73.97907,40.70596],[-73.97548,40.70749],[-73.97502,40.70774],[-73.97279,40.70938],[-73.97231,40.70907],[-73.97032,40.70733],[-73.96961,40.70763],[-73.96985,40.70799],[-73.96994,40.70931],[-73.96961,40.71016],[-73.96905,40.71248],[-73.96847,40.713],[-73.96837,40.71413],[-73.96804,40.71497],[-73.96758,40.7165],[-73.96684,40.71756],[-73.9657,40.71878],[-73.96264,40.72275],[-73.96154,40.72388],[-73.96154,40.72469],[-73.96162,40.72486],[-73.96153,40.72591],[-73.9615,40.72699],[-73.96128,40.72804],[-73.96117,40.72806],[-73.96116,40.72811],[-73.96121,40.72815],[-73.96111,40.72819],[-73.96099,40.72876],[-73.96104,40.72878],[-73.96112,40.72936],[-73.96114,40.72943],[-73.9612,40.72942],[-73.96126,40.72975],[-73.96131,40.7303],[-73.96145,40.73099],[-73.96184,40.73163],[-73.96215,40.73245],[-73.9619,40.73248],[-73.96193,40.73268],[-73.96223,40.73265],[-73.96227,40.73277],[-73.96235,40.73381],[-73.9626,40.7349],[-73.96267,40.73645],[-73.96248,40.7368],[-73.96262,40.73903],[-73.96243,40.73967],[-73.96191,40.741],[-73.9618,40.74113],[-73.96138,40.7428],[-73.96118,40.743],[-73.96083,40.74364],[-73.96027,40.74443],[-73.95919,40.74603],[-73.95684,40.74883],[-73.95617,40.74967],[-73.9562,40.74969],[-73.95612,40.74976],[-73.95606,40.74976],[-73.95432,40.75126],[-73.95394,40.75175],[-73.95399,40.75179],[-73.95368,40.75205],[-73.95364,40.75204],[-73.95297,40.75275],[-73.95301,40.75277],[-73.95266,40.75311],[-73.95217,40.7537],[-73.95208,40.75376],[-73.95137,40.75452],[-73.95102,40.75509],[-73.95088,40.75517],[-73.94596,40.76129],[-73.94581,40.76145],[-73.94571,40.76149],[-73.94472,40.76288],[-73.9435,40.7645],[-73.94131,40.76692],[-73.94046,40.76753],[-73.93859,40.76682],[-73.9397,40.76641],[-73.94027,40.76553],[-73.9378,40.76462],[-73.93541,40.7635],[-73.93419,40.76546],[-73.9338,40.76531],[-73.93371,40.76541],[-73.93087,40.76387],[-73.93135,40.76328],[-73.92945,40.76237],[-73.93055,40.76122],[-73.92485,40.75855],[-73.9261,40.757],[-73.9253,40.75663],[-73.92405,40.75818],[-73.92087,40.75668],[-73.919,40.75897],[-73.91581,40.75747],[-73.9139,40.75982],[-73.91149,40.75869],[-73.90939,40.76126],[-73.90632,40.75984],[-73.90691,40.7589],[-73.90753,40.75805],[-73.90753,40.75769],[-73.90737,40.75699],[-73.90647,40.75708],[-73.90619,40.75553],[-73.90529,40.75563],[-73.90515,40.75486],[-73.90584,40.75365],[-73.90584,40.75346],[-73.90608,40.75291],[-73.90525,40.75256],[-73.90611,40.75062],[-73.907,40.75085],[-73.90751,40.74977],[-73.90832,40.75012],[-73.90839,40.74995],[-73.9077,40.7493],[-73.90802,40.74859],[-73.9089,40.74883],[-73.90955,40.74739],[-73.90992,40.74776],[-73.91193,40.74799],[-73.91164,40.74869],[-73.91281,40.74882],[-73.91337,40.74603],[-73.91523,40.74625],[-73.91588,40.743],[-73.91281,40.74266],[-73.91295,40.74231],[-73.90323,40.74116],[-73.9038,40.7399],[-73.90326,40.73988],[-73.90377,40.73855],[-73.90365,40.73822],[-73.90366,40.73814],[-73.90267,40.73849],[-73.90164,40.73875],[-73.9008,40.73916],[-73.90083,40.73904],[-73.90181,40.73856],[-73.90179,40.73849],[-73.90084,40.73846],[-73.90095,40.73563],[-73.90108,40.73391],[-73.90518,40.72896],[-73.90707,40.72747],[-73.91256,40.72324],[-73.91271,40.72328],[-73.91317,40.72308],[-73.91384,40.7229],[-73.91367,40.7226],[-73.91343,40.72233],[-73.9132,40.72188],[-73.91246,40.72093],[-73.91132,40.71962],[-73.90966,40.71779],[-73.90976,40.71774],[-73.90777,40.71561],[-73.90576,40.71459],[-73.90538,40.71288],[-73.8959,40.71251],[-73.88508,40.71216],[-73.88435,40.71223],[-73.88426,40.7133],[-73.88372,40.71328],[-73.88003,40.71365],[-73.87934,40.71273],[-73.87922,40.71203],[-73.87543,40.71242],[-73.87539,40.71171],[-73.87349,40.71182],[-73.87359,40.71323],[-73.87303,40.71326],[-73.86964,40.7133],[-73.86208,40.7122],[-73.86501,40.71078],[-73.86228,40.70738],[-73.86216,40.70726],[-73.86001,40.70737],[-73.85927,40.70749],[-73.85668,40.70769],[-73.85594,40.7064],[-73.85717,40.70599],[-73.85822,40.7056],[-73.85743,40.70504],[-73.85961,40.70407],[-73.85914,40.70349],[-73.85998,40.70311],[-73.85529,40.7026],[-73.85529,40.70184],[-73.85524,40.70148],[-73.85513,40.70126],[-73.85492,40.70097],[-73.85457,40.70059],[-73.85377,40.69991],[-73.85329,40.69929],[-73.85271,40.69841],[-73.85261,40.69796],[-73.85261,40.69781],[-73.85266,40.69757],[-73.85184,40.69768],[-73.85155,40.69631],[-73.84959,40.69656],[-73.84913,40.69451],[-73.84956,40.69442],[-73.84836,40.69196],[-73.84749,40.69222],[-73.84651,40.69022],[-73.84769,40.68989],[-73.84743,40.68937],[-73.84625,40.68971],[-73.84588,40.68891],[-73.84788,40.68832],[-73.84823,40.68899],[-73.84929,40.68869],[-73.8494,40.68852],[-73.84898,40.68804],[-73.84966,40.68783],[-73.85057,40.68766],[-73.84937,40.68523],[-73.85025,40.68498],[-73.84942,40.6833],[-73.85198,40.68256],[-73.85066,40.67989],[-73.8516,40.67983],[-73.85064,40.67788],[-73.85153,40.67775],[-73.85092,40.6765],[-73.85065,40.67585],[-73.85045,40.6748],[-73.85147,40.67506],[-73.8513,40.67416],[-73.85225,40.67403],[-73.85185,40.67249],[-73.85284,40.67228],[-73.85097,40.67172],[-73.85112,40.67108],[-73.85297,40.67081],[-73.85331,40.67073],[-73.85441,40.67058],[-73.85534,40.67039],[-73.85536,40.67046],[-73.85627,40.67033],[-73.8563,40.67045],[-73.85728,40.67031],[-73.85763,40.67166],[-73.86039,40.67127],[-73.86108,40.67402],[-73.8631,40.67465],[-73.86299,40.67407],[-73.87037,40.67301],[-73.87148,40.6775],[-73.87259,40.67787],[-73.8733,40.6778],[-73.88143,40.67663],[-73.90023,40.67385],[-73.90065,40.67549],[-73.90079,40.67657],[-73.89999,40.6769],[-73.90549,40.68004],[-73.90702,40.68095],[-73.91077,40.68309],[-73.92207,40.68949],[-73.9297,40.69386],[-73.93818,40.69864],[-73.93809,40.69809],[-73.93779,40.69669],[-73.95431,40.69479],[-73.95357,40.69112],[-73.96808,40.68945],[-73.9691,40.68947],[-73.9761,40.68974],[-73.97559,40.68709],[-73.97736,40.68692],[-73.97906,40.68671],[-73.97936,40.68668],[-73.97984,40.68735],[-73.9814,40.68794],[-73.98088,40.68868],[-73.98107,40.68894],[-73.98087,40.68887],[-73.98136,40.68993],[-73.98208,40.69129],[-73.98179,40.69165],[-73.98174,40.69202],[-73.9882,40.69227],[-73.98873,40.69231],[-73.98947,40.6923],[-73.99097,40.69255],[-73.99073,40.69305]]]}},{"type":"Feature","properties":{"std_name":"Congressional District 8","std_geoid":"3608","pen":"politicians","std_note":null,"LSAD":"C2"},"geometry":{"type":"Polygon","coordinates":[[[-74.03466,40.58868],[-74.00658,40.58372],[-74.00417,40.58319],[-73.99068,40.58006],[-73.98824,40.5797],[-73.98886,40.57999],[-73.9891,40.5802],[-73.98936,40.58024],[-73.98954,40.58042],[-73.98976,40.5805],[-73.99001,40.58068],[-73.98986,40.58081],[-73.98955,40.58193],[-73.98875,40.58282],[-73.98836,40.58347],[-73.98852,40.58388],[-73.98878,40.58436],[-73.98915,40.58467],[-73.99004,40.58521],[-73.99088,40.58585],[-73.99176,40.58673],[-73.99222,40.58745],[-73.99149,40.5878],[-73.99187,40.58848],[-73.99256,40.58992],[-73.99154,40.59039],[-73.99036,40.59143],[-73.98962,40.59098],[-73.98502,40.59541],[-73.98506,40.59567],[-73.96548,40.59783],[-73.9659,40.60009],[-73.95683,40.60109],[-73.95728,40.60347],[-73.95443,40.60379],[-73.95398,40.6014],[-73.94517,40.60237],[-73.94562,40.60476],[-73.94177,40.60518],[-73.94221,40.6075],[-73.94231,40.60827],[-73.93935,40.61019],[-73.94116,40.61182],[-73.93173,40.61793],[-73.9306,40.61692],[-73.93102,40.62112],[-73.93005,40.62118],[-73.93028,40.62338],[-73.92737,40.62356],[-73.92761,40.62582],[-73.91994,40.62631],[-73.92018,40.62864],[-73.91824,40.62877],[-73.91966,40.6421],[-73.91795,40.64316],[-73.91758,40.64283],[-73.9157,40.64404],[-73.91472,40.64316],[-73.91375,40.64378],[-73.9132,40.64407],[-73.91113,40.64487],[-73.90989,40.64561],[-73.90659,40.64775],[-73.9084,40.64939],[-73.91175,40.64722],[-73.91209,40.64802],[-73.91325,40.64906],[-73.90856,40.6521],[-73.91014,40.65352],[-73.91068,40.65418],[-73.91221,40.65532],[-73.91234,40.65553],[-73.91403,40.657],[-73.91958,40.66199],[-73.91963,40.66256],[-73.9187,40.66269],[-73.9191,40.66423],[-73.91923,40.66465],[-73.91941,40.66578],[-73.92004,40.66828],[-73.92275,40.6671],[-73.92263,40.66837],[-73.91696,40.67071],[-73.91702,40.67072],[-73.91677,40.67339],[-73.92508,40.67384],[-73.925,40.67474],[-73.92539,40.67476],[-73.92525,40.67631],[-73.92483,40.67629],[-73.92476,40.67717],[-73.94056,40.67806],[-73.94137,40.67809],[-73.94138,40.67792],[-73.9497,40.67836],[-73.94968,40.67857],[-73.95205,40.67867],[-73.95301,40.67882],[-73.95531,40.67927],[-73.95517,40.67857],[-73.9552,40.67834],[-73.95548,40.67758],[-73.96795,40.68019],[-73.96768,40.68095],[-73.96748,40.68175],[-73.97174,40.68265],[-73.97227,40.68544],[-73.97312,40.68578],[-73.97332,40.68562],[-73.97703,40.6852],[-73.97736,40.68692],[-73.97559,40.68709],[-73.9761,40.68974],[-73.9691,40.68947],[-73.96808,40.68945],[-73.95357,40.69112],[-73.95431,40.69479],[-73.93779,40.69669],[-73.93809,40.69809],[-73.93818,40.69864],[-73.9297,40.69386],[-73.92207,40.68949],[-73.91077,40.68309],[-73.90702,40.68095],[-73.90549,40.68004],[-73.89999,40.6769],[-73.90079,40.67657],[-73.90065,40.67549],[-73.90023,40.67385],[-73.88143,40.67663],[-73.8733,40.6778],[-73.87259,40.67787],[-73.87148,40.6775],[-73.87037,40.67301],[-73.86299,40.67407],[-73.8631,40.67465],[-73.86108,40.67402],[-73.86039,40.67127],[-73.85763,40.67166],[-73.85643,40.66703],[-73.85568,40.66387],[-73.85843,40.66345],[-73.85761,40.66012],[-73.85851,40.6599],[-73.86036,40.65965],[-73.86151,40.65905],[-73.86317,40.65828],[-73.86244,40.65726],[-73.86219,40.65683],[-73.86096,40.65518],[-73.86048,40.65466],[-73.85976,40.6541],[-73.85898,40.65268],[-73.85696,40.65058],[-73.85665,40.65013],[-73.85615,40.6492],[-73.85494,40.64265],[-73.84834,40.64352],[-73.83765,40.63284],[-73.83624,40.63111],[-73.83538,40.63032],[-73.83304,40.62826],[-73.83339,40.62767],[-73.83405,40.61346],[-73.83428,40.60919],[-73.83446,40.60719],[-73.83588,40.60564],[-73.84202,40.59831],[-73.84444,40.59586],[-73.84668,40.59321],[-73.84739,40.59203],[-73.84985,40.58867],[-73.85352,40.58659],[-73.86561,40.5812],[-73.86923,40.57934],[-73.87142,40.57854],[-73.87922,40.57466],[-73.88507,40.57375],[-73.89052,40.5727],[-73.90387,40.57162],[-73.90491,40.57141],[-73.92807,40.56779],[-73.93336,40.56693],[-73.93489,40.56665],[-73.945,40.56531],[-73.9507,40.56443],[-73.95167,40.56431],[-73.95928,40.56308],[-73.99709,40.55728],[-74.03629,40.55104],[-74.03505,40.57285],[-74.03455,40.57625],[-74.03788,40.5892],[-74.03466,40.58868]]]}},{"type":"Feature","properties":{"std_name":"Congressional District 9","std_geoid":"3609","pen":"politicians","std_note":null,"LSAD":"C2"},"geometry":{"type":"Polygon","coordinates":[[[-73.99748,40.62452],[-73.99612,40.62923],[-73.99516,40.62866],[-73.99225,40.63146],[-73.99004,40.63013],[-73.9848,40.63517],[-73.987,40.6365],[-73.98292,40.64042],[-73.98323,40.64061],[-73.98329,40.64122],[-73.98244,40.64154],[-73.98123,40.64205],[-73.98189,40.64303],[-73.98063,40.64351],[-73.98133,40.64718],[-73.97634,40.64773],[-73.97518,40.64782],[-73.97473,40.64777],[-73.97478,40.64796],[-73.97284,40.64872],[-73.97267,40.64849],[-73.97203,40.64874],[-73.97156,40.64882],[-73.9714,40.64826],[-73.97069,40.6485],[-73.96526,40.65064],[-73.96465,40.65089],[-73.96621,40.65319],[-73.9619,40.65487],[-73.96308,40.66213],[-73.96305,40.6623],[-73.96295,40.66253],[-73.96243,40.66313],[-73.96925,40.67274],[-73.96892,40.67294],[-73.96845,40.67296],[-73.96791,40.67294],[-73.96749,40.67288],[-73.9663,40.67268],[-73.96549,40.67246],[-73.96362,40.67185],[-73.96262,40.67163],[-73.96275,40.6726],[-73.96314,40.67457],[-73.96661,40.6753],[-73.9663,40.67618],[-73.96333,40.67556],[-73.96407,40.67938],[-73.95548,40.67758],[-73.9552,40.67834],[-73.95517,40.67857],[-73.95531,40.67927],[-73.95301,40.67882],[-73.95205,40.67867],[-73.94968,40.67857],[-73.9497,40.67836],[-73.94138,40.67792],[-73.94137,40.67809],[-73.94056,40.67806],[-73.92476,40.67717],[-73.92483,40.67629],[-73.92525,40.67631],[-73.92539,40.67476],[-73.925,40.67474],[-73.92508,40.67384],[-73.91677,40.67339],[-73.91702,40.67072],[-73.91696,40.67071],[-73.92263,40.66837],[-73.92275,40.6671],[-73.92004,40.66828],[-73.91941,40.66578],[-73.91923,40.66465],[-73.9191,40.66423],[-73.9187,40.66269],[-73.91963,40.66256],[-73.91958,40.66199],[-73.91403,40.657],[-73.91234,40.65553],[-73.91221,40.65532],[-73.91068,40.65418],[-73.91014,40.65352],[-73.90856,40.6521],[-73.91325,40.64906],[-73.91209,40.64802],[-73.91175,40.64722],[-73.9084,40.64939],[-73.90659,40.64775],[-73.90989,40.64561],[-73.91113,40.64487],[-73.9132,40.64407],[-73.91375,40.64378],[-73.91472,40.64316],[-73.9157,40.64404],[-73.91758,40.64283],[-73.91795,40.64316],[-73.91966,40.6421],[-73.91824,40.62877],[-73.92018,40.62864],[-73.91994,40.62631],[-73.92761,40.62582],[-73.92737,40.62356],[-73.93028,40.62338],[-73.93005,40.62118],[-73.93102,40.62112],[-73.9306,40.61692],[-73.93173,40.61793],[-73.94116,40.61182],[-73.93935,40.61019],[-73.94231,40.60827],[-73.94221,40.6075],[-73.94177,40.60518],[-73.94562,40.60476],[-73.94517,40.60237],[-73.95398,40.6014],[-73.95443,40.60379],[-73.95728,40.60347],[-73.95683,40.60109],[-73.9659,40.60009],[-73.96548,40.59783],[-73.97651,40.59662],[-73.97783,40.60359],[-73.97983,40.60337],[-73.98017,40.60518],[-73.98307,40.6055],[-73.98348,40.60766],[-73.98162,40.60787],[-73.98252,40.61259],[-73.98266,40.61269],[-73.98211,40.61327],[-73.98226,40.61337],[-73.98249,40.61442],[-73.98367,40.61518],[-73.98807,40.61785],[-73.98714,40.61874],[-73.9915,40.62144],[-73.99126,40.62167],[-73.99592,40.62448],[-73.9965,40.62392],[-73.99748,40.62452]]]}},{"type":"Feature","properties":{"std_name":"Congressional District 10","std_geoid":"3610","pen":"politicians","std_note":null,"LSAD":"C2"},"geometry":{"type":"MultiPolygon","coordinates":[[[[-74.04075,40.70017],[-74.0407,40.70022],[-74.04065,40.70021],[-74.04033,40.7001],[-74.04008,40.70009],[-74.03993,40.69999],[-74.03974,40.69995],[-74.03966,40.69987],[-74.03955,40.69984],[-74.03948,40.69978],[-74.03925,40.69969],[-74.03894,40.69965],[-74.03881,40.69953],[-74.03872,40.6993],[-74.03851,40.69915],[-74.03846,40.69898],[-74.03845,40.69882],[-74.03837,40.69867],[-74.03857,40.69873],[-74.03862,40.6987],[-74.0386,40.69868],[-74.03874,40.69864],[-74.03896,40.69859],[-74.03917,40.69859],[-74.03929,40.69863],[-74.03938,40.69873],[-74.03965,40.69879],[-74.03993,40.69859],[-74.04023,40.69883],[-74.0401,40.69893],[-74.03999,40.69889],[-74.03987,40.69889],[-74.0398,40.69894],[-74.0398,40.69898],[-74.03998,40.69912],[-74.04019,40.69922],[-74.04021,40.69931],[-74.04043,40.69941],[-74.04048,40.6996],[-74.04061,40.69977],[-74.04075,40.70017]]],[[[-74.04721,40.69089],[-74.04715,40.69098],[-74.04704,40.69104],[-74.04618,40.69109],[-74.04611,40.69112],[-74.04598,40.69111],[-74.04457,40.69056],[-74.04389,40.69018],[-74.04345,40.68963],[-74.0435,40.68917],[-74.04362,40.68876],[-74.04394,40.68857],[-74.04413,40.68854],[-74.04435,40.68851],[-74.04479,40.68859],[-74.04625,40.68932],[-74.04718,40.69041],[-74.04704,40.69048],[-74.04703,40.69059],[-74.0472,40.6908],[-74.04721,40.69089]]],[[[-74.05323,40.65566],[-74.02639,40.7001],[-74.02364,40.71807],[-74.01728,40.74418],[-74.00933,40.74257],[-74.00889,40.74238],[-74.0087,40.74236],[-74.00852,40.74317],[-74.00826,40.74467],[-74.00681,40.74406],[-74.00724,40.74347],[-74.00155,40.74108],[-74.00202,40.74044],[-73.99918,40.73924],[-73.99786,40.74106],[-73.99502,40.73986],[-73.99545,40.73927],[-73.99033,40.73713],[-73.99171,40.73521],[-73.99075,40.73484],[-73.9899,40.73443],[-73.98996,40.73505],[-73.98992,40.73535],[-73.98829,40.73466],[-73.98878,40.73397],[-73.98718,40.73329],[-73.98668,40.73398],[-73.98524,40.73337],[-73.98435,40.7346],[-73.98355,40.73426],[-73.98544,40.73166],[-73.98086,40.72973],[-73.98132,40.72909],[-73.979,40.72811],[-73.978,40.72943],[-73.9757,40.72848],[-73.97205,40.72688],[-73.97186,40.72676],[-73.9714,40.72666],[-73.96929,40.72581],[-73.96264,40.72275],[-73.9657,40.71878],[-73.96684,40.71756],[-73.96758,40.7165],[-73.96804,40.71497],[-73.96837,40.71413],[-73.96847,40.713],[-73.96905,40.71248],[-73.96961,40.71016],[-73.96994,40.70931],[-73.96985,40.70799],[-73.96961,40.70763],[-73.97032,40.70733],[-73.97231,40.70907],[-73.97279,40.70938],[-73.97502,40.70774],[-73.97548,40.70749],[-73.97907,40.70596],[-73.97923,40.70577],[-73.97937,40.70544],[-73.97917,40.70528],[-73.97933,40.70475],[-73.9796,40.70418],[-73.97999,40.70354],[-73.98022,40.70306],[-73.98034,40.70266],[-73.98014,40.70239],[-73.98051,40.70205],[-73.98073,40.70127],[-73.98675,40.70153],[-73.98679,40.70102],[-73.9866,40.70062],[-73.99017,40.70075],[-73.99015,40.70068],[-73.98975,40.70039],[-73.99009,40.69507],[-73.99075,40.69503],[-73.99066,40.69456],[-73.99045,40.69373],[-73.99073,40.69305],[-73.99097,40.69255],[-73.98947,40.6923],[-73.98873,40.69231],[-73.9882,40.69227],[-73.98174,40.69202],[-73.98179,40.69165],[-73.98208,40.69129],[-73.98136,40.68993],[-73.98087,40.68887],[-73.98107,40.68894],[-73.98088,40.68868],[-73.9814,40.68794],[-73.97984,40.68735],[-73.97936,40.68668],[-73.97736,40.68692],[-73.97703,40.6852],[-73.97332,40.68562],[-73.97312,40.68578],[-73.97227,40.68544],[-73.97174,40.68265],[-73.96748,40.68175],[-73.96768,40.68095],[-73.96795,40.68019],[-73.96407,40.67938],[-73.96333,40.67556],[-73.9663,40.67618],[-73.96661,40.6753],[-73.96314,40.67457],[-73.96275,40.6726],[-73.96262,40.67163],[-73.96362,40.67185],[-73.96549,40.67246],[-73.9663,40.67268],[-73.96749,40.67288],[-73.96791,40.67294],[-73.96845,40.67296],[-73.96892,40.67294],[-73.96925,40.67274],[-73.96243,40.66313],[-73.96295,40.66253],[-73.96305,40.6623],[-73.96308,40.66213],[-73.9619,40.65487],[-73.96621,40.65319],[-73.96465,40.65089],[-73.96526,40.65064],[-73.97069,40.6485],[-73.9714,40.64826],[-73.97156,40.64882],[-73.97203,40.64874],[-73.97267,40.64849],[-73.97284,40.64872],[-73.97478,40.64796],[-73.97473,40.64777],[-73.97518,40.64782],[-73.97634,40.64773],[-73.98133,40.64718],[-73.98063,40.64351],[-73.98189,40.64303],[-73.98123,40.64205],[-73.98244,40.64154],[-73.98329,40.64122],[-73.98323,40.64061],[-73.98292,40.64042],[-73.987,40.6365],[-73.9848,40.63517],[-73.99004,40.63013],[-73.99225,40.63146],[-73.99516,40.62866],[-73.99612,40.62923],[-73.99724,40.62529],[-74.00031,40.62714],[-74.00089,40.62658],[-74.0031,40.62792],[-74.00252,40.62848],[-74.00472,40.6298],[-74.0053,40.62925],[-74.0075,40.63058],[-74.00875,40.62937],[-74.01,40.63011],[-74.01143,40.62916],[-74.01432,40.63091],[-74.0149,40.63035],[-74.01605,40.63103],[-74.01696,40.63162],[-74.02352,40.63462],[-74.02604,40.63574],[-74.02866,40.63655],[-74.02828,40.63747],[-74.03438,40.63936],[-74.03559,40.63976],[-74.03596,40.63882],[-74.03651,40.63901],[-74.03677,40.63837],[-74.03714,40.63829],[-74.03673,40.63914],[-74.03676,40.63919],[-74.03668,40.63932],[-74.03614,40.64019],[-74.03576,40.64063],[-74.03585,40.64078],[-74.03598,40.6409],[-74.03646,40.64117],[-74.03675,40.64141],[-74.0368,40.64148],[-74.0368,40.64158],[-74.03674,40.64167],[-74.03635,40.64208],[-74.03612,40.64222],[-74.03444,40.64382],[-74.03453,40.64388],[-74.03407,40.64431],[-74.03287,40.64359],[-74.03264,40.6438],[-74.05323,40.65566]]]]}},{"type":"Feature","properties":{"std_name":"Congressional District 11","std_geoid":"3611","pen":"politicians","std_note":null,"LSAD":"C2"},"geometry":{"type":"Polygon","coordinates":[[[-74.25884,40.49887],[-74.25813,40.50872],[-74.2541,40.51566],[-74.24602,40.52096],[-74.25028,40.5423],[-74.24748,40.54938],[-74.23141,40.55918],[-74.218,40.55706],[-74.21457,40.56053],[-74.21014,40.57372],[-74.20724,40.58792],[-74.19959,40.59785],[-74.19959,40.60038],[-74.20483,40.60606],[-74.20389,40.61428],[-74.20243,40.61677],[-74.20392,40.62437],[-74.20228,40.62878],[-74.2024,40.63159],[-74.19816,40.63479],[-74.19625,40.63769],[-74.19143,40.64202],[-74.18564,40.64604],[-74.18165,40.64653],[-74.14311,40.64199],[-74.13292,40.64368],[-74.12602,40.64215],[-74.10985,40.64806],[-74.09344,40.64807],[-74.08699,40.65151],[-74.05575,40.65148],[-74.05323,40.65566],[-74.03264,40.6438],[-74.03287,40.64359],[-74.03407,40.64431],[-74.03453,40.64388],[-74.03444,40.64382],[-74.03612,40.64222],[-74.03635,40.64208],[-74.03674,40.64167],[-74.0368,40.64158],[-74.0368,40.64148],[-74.03675,40.64141],[-74.03646,40.64117],[-74.03598,40.6409],[-74.03585,40.64078],[-74.03576,40.64063],[-74.03614,40.64019],[-74.03668,40.63932],[-74.03676,40.63919],[-74.03673,40.63914],[-74.03714,40.63829],[-74.03677,40.63837],[-74.03651,40.63901],[-74.03596,40.63882],[-74.03559,40.63976],[-74.03438,40.63936],[-74.02828,40.63747],[-74.02866,40.63655],[-74.02604,40.63574],[-74.02352,40.63462],[-74.01696,40.63162],[-74.01605,40.63103],[-74.0149,40.63035],[-74.01432,40.63091],[-74.01143,40.62916],[-74.01,40.63011],[-74.00875,40.62937],[-74.0075,40.63058],[-74.0053,40.62925],[-74.00472,40.6298],[-74.00252,40.62848],[-74.0031,40.62792],[-74.00089,40.62658],[-74.00031,40.62714],[-73.99724,40.62529],[-73.99748,40.62452],[-73.9965,40.62392],[-73.99592,40.62448],[-73.99126,40.62167],[-73.9915,40.62144],[-73.98714,40.61874],[-73.98807,40.61785],[-73.98367,40.61518],[-73.98249,40.61442],[-73.98226,40.61337],[-73.98211,40.61327],[-73.98266,40.61269],[-73.98252,40.61259],[-73.98162,40.60787],[-73.98348,40.60766],[-73.98307,40.6055],[-73.98017,40.60518],[-73.97983,40.60337],[-73.97783,40.60359],[-73.97651,40.59662],[-73.98506,40.59567],[-73.98502,40.59541],[-73.98962,40.59098],[-73.99036,40.59143],[-73.99154,40.59039],[-73.99256,40.58992],[-73.99187,40.58848],[-73.99149,40.5878],[-73.99222,40.58745],[-73.99176,40.58673],[-73.99088,40.58585],[-73.99004,40.58521],[-73.98915,40.58467],[-73.98878,40.58436],[-73.98852,40.58388],[-73.98836,40.58347],[-73.98875,40.58282],[-73.98955,40.58193],[-73.98986,40.58081],[-73.99001,40.58068],[-73.98976,40.5805],[-73.98954,40.58042],[-73.98936,40.58024],[-73.9891,40.5802],[-73.98886,40.57999],[-73.98824,40.5797],[-73.99068,40.58006],[-74.00417,40.58319],[-74.00658,40.58372],[-74.03466,40.58868],[-74.03788,40.5892],[-74.03455,40.57625],[-74.03505,40.57285],[-74.0363,40.55091],[-74.03813,40.53829],[-74.04228,40.50809],[-74.22533,40.47658],[-74.25304,40.48666],[-74.25884,40.49887]]]}},{"type":"Feature","properties":{"std_name":"Congressional District 12","std_geoid":"3612","pen":"politicians","std_note":null,"LSAD":"C2"},"geometry":{"type":"Polygon","coordinates":[[[-74.01728,40.74418],[-74.01403,40.75755],[-73.97115,40.81627],[-73.96641,40.81441],[-73.96538,40.81396],[-73.96922,40.80851],[-73.96887,40.80834],[-73.96635,40.80734],[-73.96659,40.80703],[-73.9659,40.80672],[-73.9661,40.80641],[-73.96531,40.80608],[-73.96758,40.80293],[-73.96779,40.8022],[-73.96788,40.80135],[-73.96858,40.80164],[-73.9695,40.80033],[-73.96666,40.79913],[-73.96757,40.79787],[-73.969,40.79848],[-73.96946,40.79784],[-73.96804,40.79725],[-73.96848,40.79664],[-73.96563,40.79546],[-73.9643,40.79479],[-73.96283,40.7942],[-73.95835,40.80034],[-73.95823,40.8003],[-73.95803,40.80031],[-73.95787,40.8004],[-73.9578,40.80048],[-73.9496,40.79705],[-73.94968,40.79689],[-73.94965,40.79677],[-73.94956,40.79668],[-73.9494,40.79663],[-73.95482,40.78921],[-73.94838,40.7865],[-73.94883,40.78588],[-73.94659,40.78494],[-73.94707,40.78424],[-73.94472,40.78325],[-73.94332,40.78517],[-73.94197,40.78459],[-73.94278,40.78417],[-73.9433,40.78381],[-73.94366,40.78349],[-73.94405,40.78296],[-73.94376,40.78283],[-73.9436,40.78265],[-73.93761,40.78175],[-73.93729,40.78096],[-73.93441,40.77809],[-73.93474,40.77808],[-73.93508,40.77794],[-73.93586,40.77721],[-73.93609,40.77718],[-73.93638,40.77692],[-73.93705,40.77587],[-73.93766,40.77509],[-73.93786,40.77409],[-73.93781,40.77356],[-73.93747,40.7725],[-73.93496,40.77173],[-73.93532,40.77049],[-73.9364,40.76947],[-73.9382,40.76873],[-73.93984,40.76799],[-73.94035,40.76765],[-73.94046,40.76753],[-73.94131,40.76692],[-73.9435,40.7645],[-73.94472,40.76288],[-73.94571,40.76149],[-73.94581,40.76145],[-73.94596,40.76129],[-73.95088,40.75517],[-73.95102,40.75509],[-73.95137,40.75452],[-73.95208,40.75376],[-73.95217,40.7537],[-73.95266,40.75311],[-73.95301,40.75277],[-73.95297,40.75275],[-73.95364,40.75204],[-73.95368,40.75205],[-73.95399,40.75179],[-73.95394,40.75175],[-73.95432,40.75126],[-73.95606,40.74976],[-73.95612,40.74976],[-73.9562,40.74969],[-73.95617,40.74967],[-73.95684,40.74883],[-73.95919,40.74603],[-73.96027,40.74443],[-73.96083,40.74364],[-73.96118,40.743],[-73.96138,40.7428],[-73.9618,40.74113],[-73.96191,40.741],[-73.96243,40.73967],[-73.96262,40.73903],[-73.96248,40.7368],[-73.96267,40.73645],[-73.9626,40.7349],[-73.96235,40.73381],[-73.96227,40.73277],[-73.96223,40.73265],[-73.96193,40.73268],[-73.9619,40.73248],[-73.96215,40.73245],[-73.96184,40.73163],[-73.96145,40.73099],[-73.96131,40.7303],[-73.96121,40.72951],[-73.9612,40.72942],[-73.96114,40.72943],[-73.96112,40.72936],[-73.96104,40.72878],[-73.96099,40.72876],[-73.96099,40.72866],[-73.96111,40.72819],[-73.96121,40.72815],[-73.96116,40.72811],[-73.96117,40.72806],[-73.96128,40.72804],[-73.9615,40.72699],[-73.96153,40.72591],[-73.96162,40.72486],[-73.96154,40.72469],[-73.96154,40.72388],[-73.96264,40.72275],[-73.96929,40.72581],[-73.9714,40.72666],[-73.97186,40.72676],[-73.97205,40.72688],[-73.9757,40.72848],[-73.978,40.72943],[-73.979,40.72811],[-73.98132,40.72909],[-73.98086,40.72973],[-73.98544,40.73166],[-73.98355,40.73426],[-73.98435,40.7346],[-73.98524,40.73337],[-73.98668,40.73398],[-73.98718,40.73329],[-73.98878,40.73397],[-73.98829,40.73466],[-73.98992,40.73535],[-73.98996,40.73505],[-73.9899,40.73443],[-73.99075,40.73484],[-73.99171,40.73521],[-73.99033,40.73713],[-73.99545,40.73927],[-73.99502,40.73986],[-73.99786,40.74106],[-73.99918,40.73924],[-74.00202,40.74044],[-74.00155,40.74108],[-74.00724,40.74347],[-74.00681,40.74406],[-74.00826,40.74467],[-74.00852,40.74317],[-74.0087,40.74236],[-74.00889,40.74238],[-74.00933,40.74257],[-74.01728,40.74418]]]}},{"type":"Feature","properties":{"std_name":"Congressional District 13","std_geoid":"3613","pen":"politicians","std_note":null,"LSAD":"C2"},"geometry":{"type":"Polygon","coordinates":[[[-73.97115,40.81627],[-73.96358,40.82664],[-73.95283,40.85111],[-73.93379,40.88221],[-73.9245,40.87897],[-73.9226,40.87878],[-73.92163,40.87832],[-73.91981,40.87658],[-73.9152,40.87558],[-73.91491,40.87658],[-73.91221,40.87818],[-73.91141,40.87928],[-73.91031,40.87905],[-73.90968,40.87951],[-73.9103,40.88005],[-73.91045,40.88024],[-73.91054,40.88057],[-73.90934,40.88135],[-73.90801,40.8824],[-73.90472,40.88524],[-73.90331,40.8843],[-73.90179,40.88561],[-73.90137,40.88533],[-73.90101,40.88519],[-73.90065,40.8851],[-73.90104,40.88437],[-73.89929,40.88396],[-73.89896,40.88459],[-73.89826,40.88531],[-73.89738,40.88609],[-73.89658,40.88594],[-73.89763,40.88515],[-73.89847,40.88432],[-73.89797,40.88403],[-73.89643,40.88512],[-73.89575,40.88532],[-73.89539,40.88536],[-73.89492,40.88535],[-73.89478,40.88543],[-73.89472,40.88556],[-73.89453,40.8855],[-73.89289,40.88526],[-73.8889,40.8845],[-73.89042,40.88251],[-73.88783,40.88291],[-73.88757,40.88291],[-73.88697,40.88281],[-73.88701,40.88247],[-73.88594,40.88048],[-73.88566,40.87889],[-73.88466,40.87975],[-73.88433,40.87934],[-73.88423,40.87872],[-73.88411,40.87826],[-73.8843,40.87834],[-73.88447,40.87836],[-73.8846,40.87835],[-73.88471,40.8783],[-73.88383,40.87678],[-73.88342,40.87574],[-73.88344,40.87479],[-73.8834,40.87395],[-73.88247,40.87213],[-73.88175,40.87235],[-73.88139,40.87121],[-73.88091,40.87049],[-73.8807,40.86982],[-73.88038,40.86919],[-73.88184,40.86837],[-73.88362,40.86726],[-73.88683,40.86539],[-73.88945,40.86309],[-73.89145,40.86163],[-73.89321,40.85987],[-73.89404,40.86028],[-73.89574,40.85814],[-73.89558,40.85802],[-73.89551,40.85791],[-73.89551,40.85783],[-73.89588,40.8572],[-73.89587,40.85709],[-73.89583,40.85703],[-73.89613,40.85692],[-73.8962,40.85679],[-73.89687,40.85706],[-73.89726,40.85633],[-73.89731,40.85651],[-73.90094,40.85776],[-73.90176,40.85639],[-73.90362,40.85702],[-73.9043,40.85589],[-73.90522,40.8562],[-73.90733,40.85382],[-73.90922,40.8518],[-73.90953,40.8519],[-73.91017,40.85198],[-73.91102,40.85191],[-73.91145,40.85174],[-73.91184,40.85144],[-73.91195,40.85135],[-73.91211,40.85109],[-73.91229,40.85061],[-73.91248,40.85038],[-73.91273,40.85017],[-73.91287,40.85012],[-73.91443,40.84796],[-73.91617,40.84829],[-73.91605,40.85004],[-73.91729,40.84919],[-73.91841,40.84944],[-73.91968,40.8479],[-73.92128,40.84865],[-73.92032,40.8498],[-73.92163,40.85006],[-73.92229,40.85028],[-73.92242,40.85012],[-73.9239,40.85049],[-73.9273,40.84656],[-73.92811,40.84558],[-73.92901,40.84408],[-73.9295,40.84238],[-73.92969,40.84219],[-73.92958,40.84205],[-73.92973,40.84185],[-73.93037,40.84065],[-73.93041,40.84028],[-73.93061,40.83968],[-73.93301,40.83568],[-73.93346,40.83318],[-73.93342,40.83138],[-73.93326,40.8295],[-73.93306,40.8282],[-73.9329,40.82656],[-73.93275,40.82549],[-73.93249,40.82255],[-73.9324,40.82119],[-73.93226,40.818],[-73.93233,40.81492],[-73.93242,40.81403],[-73.93242,40.81357],[-73.9326,40.81199],[-73.93263,40.81061],[-73.93257,40.80926],[-73.93248,40.80886],[-73.93235,40.80859],[-73.93211,40.80818],[-73.93117,40.80721],[-73.93041,40.80648],[-73.93035,40.8062],[-73.9284,40.80411],[-73.92753,40.80276],[-73.92725,40.80256],[-73.92656,40.80248],[-73.92508,40.80252],[-73.92407,40.80247],[-73.92363,40.80255],[-73.92302,40.80242],[-73.92234,40.80196],[-73.92174,40.80169],[-73.92162,40.80145],[-73.9212,40.80101],[-73.92105,40.80064],[-73.92073,40.8001],[-73.92036,40.79967],[-73.91986,40.79935],[-73.9191,40.79901],[-73.91881,40.79885],[-73.91631,40.79788],[-73.91575,40.79759],[-73.91446,40.79704],[-73.9139,40.79684],[-73.91362,40.79679],[-73.91246,40.7961],[-73.91067,40.79312],[-73.9103,40.79066],[-73.91113,40.79011],[-73.91125,40.78974],[-73.91162,40.78959],[-73.91177,40.78972],[-73.91208,40.78952],[-73.91195,40.7894],[-73.91207,40.78934],[-73.91223,40.78918],[-73.9126,40.78938],[-73.91424,40.78786],[-73.91559,40.78643],[-73.91526,40.78619],[-73.9154,40.78606],[-73.91575,40.78611],[-73.91683,40.78519],[-73.91718,40.78455],[-73.91717,40.78419],[-73.91724,40.78414],[-73.91774,40.78408],[-73.91819,40.78393],[-73.91909,40.78337],[-73.9221,40.78085],[-73.92263,40.78057],[-73.92296,40.78044],[-73.92319,40.78025],[-73.92423,40.7791],[-73.92482,40.77876],[-73.92557,40.77846],[-73.92632,40.77824],[-73.92828,40.7769],[-73.92861,40.77659],[-73.92988,40.77622],[-73.93063,40.77659],[-73.93107,40.77726],[-73.93105,40.77744],[-73.93179,40.77787],[-73.93272,40.77804],[-73.93278,40.77792],[-73.93391,40.77812],[-73.93441,40.77809],[-73.93729,40.78096],[-73.93761,40.78175],[-73.9436,40.78265],[-73.94376,40.78283],[-73.94405,40.78296],[-73.94366,40.78349],[-73.9433,40.78381],[-73.94278,40.78417],[-73.94197,40.78459],[-73.94332,40.78517],[-73.94472,40.78325],[-73.94707,40.78424],[-73.94659,40.78494],[-73.94883,40.78588],[-73.94838,40.7865],[-73.95482,40.78921],[-73.9494,40.79663],[-73.94956,40.79668],[-73.94965,40.79677],[-73.94968,40.79689],[-73.9496,40.79705],[-73.9578,40.80048],[-73.95787,40.8004],[-73.95803,40.80031],[-73.95823,40.8003],[-73.95835,40.80034],[-73.96283,40.7942],[-73.9643,40.79479],[-73.96563,40.79546],[-73.96848,40.79664],[-73.96804,40.79725],[-73.96946,40.79784],[-73.969,40.79848],[-73.96757,40.79787],[-73.96666,40.79913],[-73.9695,40.80033],[-73.96858,40.80164],[-73.96788,40.80135],[-73.96779,40.8022],[-73.96758,40.80293],[-73.96531,40.80608],[-73.9661,40.80641],[-73.9659,40.80672],[-73.96659,40.80703],[-73.96635,40.80734],[-73.96887,40.80834],[-73.96922,40.80851],[-73.96538,40.81396],[-73.96641,40.81441],[-73.97115,40.81627]]]}},{"type":"Feature","properties":{"std_name":"Congressional District 14","std_geoid":"3614","pen":"politicians","std_note":null,"LSAD":"C2"},"geometry":{"type":"Polygon","coordinates":[[[-73.94035,40.76765],[-73.93984,40.76799],[-73.9382,40.76873],[-73.9364,40.76947],[-73.93532,40.77049],[-73.93496,40.77173],[-73.93747,40.7725],[-73.93781,40.77356],[-73.93786,40.77409],[-73.93766,40.77509],[-73.93705,40.77587],[-73.93638,40.77692],[-73.93609,40.77718],[-73.93586,40.77721],[-73.93508,40.77794],[-73.93474,40.77808],[-73.93391,40.77812],[-73.93278,40.77792],[-73.93272,40.77804],[-73.93185,40.77789],[-73.93105,40.77744],[-73.93107,40.77726],[-73.93063,40.77659],[-73.92988,40.77622],[-73.92861,40.77659],[-73.92828,40.7769],[-73.92632,40.77824],[-73.92557,40.77846],[-73.92482,40.77876],[-73.92423,40.7791],[-73.92319,40.78025],[-73.92296,40.78044],[-73.92263,40.78057],[-73.9221,40.78085],[-73.91909,40.78337],[-73.91819,40.78393],[-73.91774,40.78408],[-73.91724,40.78414],[-73.91717,40.78419],[-73.91718,40.78455],[-73.91683,40.78519],[-73.91575,40.78611],[-73.9154,40.78606],[-73.91526,40.78619],[-73.91559,40.78643],[-73.91424,40.78786],[-73.9126,40.78938],[-73.91223,40.78918],[-73.91207,40.78934],[-73.91195,40.7894],[-73.91208,40.78952],[-73.91177,40.78972],[-73.91162,40.78959],[-73.91125,40.78974],[-73.91113,40.79011],[-73.9103,40.79066],[-73.91067,40.79312],[-73.91246,40.7961],[-73.91362,40.79679],[-73.9139,40.79684],[-73.91446,40.79704],[-73.91575,40.79759],[-73.91631,40.79788],[-73.91881,40.79885],[-73.9191,40.79901],[-73.91986,40.79935],[-73.92036,40.79967],[-73.92073,40.8001],[-73.92105,40.80064],[-73.9212,40.80101],[-73.92162,40.80145],[-73.92174,40.80169],[-73.92234,40.80196],[-73.92302,40.80242],[-73.92363,40.80255],[-73.92407,40.80247],[-73.92508,40.80252],[-73.92656,40.80248],[-73.92725,40.80256],[-73.92753,40.80276],[-73.9284,40.80411],[-73.93035,40.8062],[-73.93041,40.80648],[-73.93117,40.80721],[-73.9318,40.80788],[-73.93094,40.80825],[-73.92933,40.80947],[-73.92862,40.80895],[-73.92679,40.8078],[-73.92446,40.80689],[-73.92384,40.80781],[-73.92104,40.81165],[-73.9176,40.81035],[-73.91684,40.81166],[-73.91485,40.81099],[-73.91295,40.81427],[-73.91095,40.81362],[-73.91002,40.81343],[-73.90913,40.81594],[-73.90823,40.8162],[-73.90665,40.81718],[-73.90531,40.81793],[-73.90258,40.81737],[-73.9016,40.8197],[-73.89986,40.82056],[-73.89688,40.82212],[-73.89684,40.82599],[-73.89582,40.82599],[-73.89622,40.82717],[-73.89506,40.82839],[-73.89491,40.82831],[-73.88993,40.82871],[-73.88991,40.83012],[-73.88596,40.83677],[-73.88511,40.83648],[-73.88374,40.83885],[-73.88347,40.83906],[-73.88381,40.83947],[-73.88291,40.8396],[-73.88209,40.83959],[-73.88149,40.83969],[-73.88042,40.84007],[-73.88016,40.84],[-73.87973,40.84004],[-73.87791,40.83997],[-73.87741,40.83999],[-73.87609,40.84206],[-73.87281,40.84087],[-73.87153,40.84251],[-73.87099,40.84311],[-73.86889,40.84441],[-73.86802,40.84484],[-73.86171,40.84614],[-73.86119,40.84471],[-73.85865,40.84529],[-73.85944,40.84666],[-73.84969,40.85106],[-73.85011,40.8516],[-73.84874,40.85264],[-73.84811,40.85261],[-73.84801,40.85395],[-73.848,40.85429],[-73.84808,40.85451],[-73.8489,40.85529],[-73.85018,40.85447],[-73.85064,40.85507],[-73.84948,40.85581],[-73.8501,40.85635],[-73.84939,40.85686],[-73.84931,40.85872],[-73.84834,40.8587],[-73.8483,40.85981],[-73.84642,40.85977],[-73.843,40.8595],[-73.84343,40.86277],[-73.84082,40.86272],[-73.84064,40.86755],[-73.83591,40.86508],[-73.8316,40.86263],[-73.82959,40.86217],[-73.82981,40.86258],[-73.83057,40.86437],[-73.83037,40.86447],[-73.82892,40.86221],[-73.82826,40.86143],[-73.82761,40.86058],[-73.82728,40.86003],[-73.82703,40.85926],[-73.82473,40.86003],[-73.82047,40.86136],[-73.81881,40.86248],[-73.81946,40.86281],[-73.81994,40.86374],[-73.82026,40.86749],[-73.8204,40.86824],[-73.82164,40.86877],[-73.82127,40.86907],[-73.8233,40.8731],[-73.81993,40.88212],[-73.81981,40.88557],[-73.82032,40.88544],[-73.82068,40.88554],[-73.82098,40.88598],[-73.82153,40.88652],[-73.8216,40.88675],[-73.82227,40.88706],[-73.82286,40.88705],[-73.8231,40.8871],[-73.82361,40.8873],[-73.82385,40.88747],[-73.82375,40.88783],[-73.82402,40.88781],[-73.82423,40.88857],[-73.82405,40.88987],[-73.82402,40.88975],[-73.82364,40.88985],[-73.82237,40.88948],[-73.82236,40.88964],[-73.82251,40.88988],[-73.82267,40.88996],[-73.8231,40.88989],[-73.8233,40.89006],[-73.82322,40.89037],[-73.82325,40.89047],[-73.82312,40.89065],[-73.82311,40.89078],[-73.82313,40.89087],[-73.8233,40.89099],[-73.82324,40.8912],[-73.82296,40.89106],[-73.8185,40.88988],[-73.8176,40.88967],[-73.8161,40.88928],[-73.8156,40.88918],[-73.81505,40.88895],[-73.81418,40.8888],[-73.79328,40.88342],[-73.79199,40.88317],[-73.7858,40.8816],[-73.7812,40.88048],[-73.76099,40.87518],[-73.74806,40.87172],[-73.7578,40.84568],[-73.78019,40.8264],[-73.77896,40.81171],[-73.77956,40.81125],[-73.78268,40.80539],[-73.78475,40.80259],[-73.78732,40.80085],[-73.78792,40.80036],[-73.79002,40.80023],[-73.79356,40.80038],[-73.79713,40.80141],[-73.79975,40.8022],[-73.80454,40.80355],[-73.8113,40.8054],[-73.81742,40.80579],[-73.82344,40.80481],[-73.82758,40.80394],[-73.82384,40.79759],[-73.82297,40.79621],[-73.82573,40.79561],[-73.82404,40.79305],[-73.82373,40.79279],[-73.82355,40.79211],[-73.82353,40.79171],[-73.8234,40.79062],[-73.82351,40.78939],[-73.82357,40.78908],[-73.82387,40.78787],[-73.8244,40.78589],[-73.82491,40.78293],[-73.82507,40.78231],[-73.82528,40.7817],[-73.8263,40.7798],[-73.82824,40.77646],[-73.82896,40.77531],[-73.82951,40.77457],[-73.83016,40.77383],[-73.83054,40.77344],[-73.83183,40.77239],[-73.83438,40.77089],[-73.83627,40.76961],[-73.83673,40.76922],[-73.83729,40.76869],[-73.83816,40.76772],[-73.83871,40.76689],[-73.83932,40.76605],[-73.83912,40.76598],[-73.8401,40.76421],[-73.84009,40.76364],[-73.84005,40.76342],[-73.8399,40.76297],[-73.83969,40.76259],[-73.84087,40.76256],[-73.84197,40.76269],[-73.84257,40.76241],[-73.84293,40.76234],[-73.84372,40.76207],[-73.84446,40.7617],[-73.84597,40.76072],[-73.84585,40.76046],[-73.84634,40.76019],[-73.84763,40.75928],[-73.84797,40.75908],[-73.84867,40.75873],[-73.8494,40.75841],[-73.85125,40.75781],[-73.85219,40.75757],[-73.85241,40.75753],[-73.85283,40.75754],[-73.85333,40.75768],[-73.85439,40.75825],[-73.8545,40.75828],[-73.85421,40.75787],[-73.85382,40.75719],[-73.85354,40.75655],[-73.85335,40.75601],[-73.85319,40.7554],[-73.85301,40.75456],[-73.85262,40.75341],[-73.8522,40.75266],[-73.85086,40.75],[-73.85442,40.7488],[-73.85448,40.74895],[-73.86253,40.74653],[-73.8631,40.74763],[-73.8635,40.74752],[-73.8637,40.74691],[-73.86929,40.74524],[-73.86963,40.74591],[-73.87159,40.74533],[-73.87237,40.74885],[-73.88868,40.74713],[-73.88907,40.74925],[-73.89361,40.74877],[-73.89505,40.75671],[-73.89598,40.75661],[-73.89626,40.75816],[-73.90737,40.75699],[-73.90753,40.75769],[-73.90753,40.75805],[-73.90691,40.7589],[-73.90632,40.75984],[-73.90939,40.76126],[-73.91149,40.75869],[-73.9139,40.75982],[-73.91581,40.75747],[-73.919,40.75897],[-73.92087,40.75668],[-73.92405,40.75818],[-73.9253,40.75663],[-73.9261,40.757],[-73.92485,40.75855],[-73.93055,40.76122],[-73.92945,40.76237],[-73.93135,40.76328],[-73.93087,40.76387],[-73.93371,40.76541],[-73.9338,40.76531],[-73.93419,40.76546],[-73.93541,40.7635],[-73.9378,40.76462],[-73.94027,40.76553],[-73.9397,40.76641],[-73.93859,40.76682],[-73.94046,40.76753],[-73.94035,40.76765]]]}},{"type":"Feature","properties":{"std_name":"Congressional District 15","std_geoid":"3615","pen":"politicians","std_note":null,"LSAD":"C2"},"geometry":{"type":"Polygon","coordinates":[[[-73.93381,40.88221],[-73.92982,40.88868],[-73.92724,40.8952],[-73.92655,40.89688],[-73.92495,40.90102],[-73.92384,40.90367],[-73.92247,40.90724],[-73.91832,40.9177],[-73.91052,40.91528],[-73.91001,40.91508],[-73.90211,40.91288],[-73.89951,40.91198],[-73.89725,40.91166],[-73.89663,40.91132],[-73.8928,40.91006],[-73.89181,40.90978],[-73.88601,40.90798],[-73.8854,40.90798],[-73.88483,40.90772],[-73.88425,40.90751],[-73.88299,40.90742],[-73.88183,40.90713],[-73.88093,40.90683],[-73.87924,40.90637],[-73.87835,40.90598],[-73.87801,40.90597],[-73.87785,40.90592],[-73.86788,40.90298],[-73.86695,40.90248],[-73.86526,40.90195],[-73.86467,40.90179],[-73.86288,40.90154],[-73.86264,40.90147],[-73.8624,40.90134],[-73.86159,40.90105],[-73.86026,40.90062],[-73.85939,40.90038],[-73.8593,40.90049],[-73.8592,40.90088],[-73.8594,40.90138],[-73.859,40.90148],[-73.8593,40.90178],[-73.8596,40.90218],[-73.8591,40.90247],[-73.8583,40.90208],[-73.8582,40.90238],[-73.85771,40.90257],[-73.8572,40.90288],[-73.857,40.90358],[-73.857,40.90438],[-73.85759,40.90467],[-73.85732,40.90502],[-73.8567,40.90491],[-73.85639,40.90505],[-73.8562,40.90509],[-73.85594,40.90526],[-73.85596,40.90539],[-73.8562,40.90548],[-73.85633,40.9058],[-73.85632,40.90617],[-73.85611,40.90606],[-73.85569,40.90606],[-73.8547,40.90658],[-73.8541,40.90668],[-73.8538,40.90718],[-73.85382,40.90777],[-73.85398,40.90801],[-73.8543,40.90809],[-73.85448,40.90801],[-73.85488,40.90822],[-73.85434,40.90897],[-73.85423,40.90901],[-73.854,40.90928],[-73.85294,40.90992],[-73.85268,40.9099],[-73.85218,40.90951],[-73.85138,40.91004],[-73.85112,40.91001],[-73.85205,40.90896],[-73.85208,40.90889],[-73.85237,40.90888],[-73.85353,40.90747],[-73.85099,40.90654],[-73.85045,40.90718],[-73.85033,40.90728],[-73.85014,40.9075],[-73.84865,40.90678],[-73.84743,40.90624],[-73.84585,40.90576],[-73.84495,40.90556],[-73.8449,40.90508],[-73.84495,40.90471],[-73.84491,40.90419],[-73.84442,40.90417],[-73.84418,40.90356],[-73.84598,40.90316],[-73.84547,40.90184],[-73.84694,40.90152],[-73.84742,40.90027],[-73.84822,40.89983],[-73.84785,40.89886],[-73.85049,40.89828],[-73.84894,40.89421],[-73.84806,40.89444],[-73.84632,40.88988],[-73.84591,40.88974],[-73.84744,40.88698],[-73.84973,40.88356],[-73.84959,40.88334],[-73.84938,40.8834],[-73.84658,40.88221],[-73.84636,40.88221],[-73.84514,40.88176],[-73.84523,40.88164],[-73.8438,40.88102],[-73.84337,40.88166],[-73.83951,40.88263],[-73.83754,40.87912],[-73.83574,40.8797],[-73.83482,40.87806],[-73.834,40.87839],[-73.8345,40.87723],[-73.83479,40.87608],[-73.83488,40.8755],[-73.83488,40.87443],[-73.83449,40.87256],[-73.83434,40.87203],[-73.83401,40.87117],[-73.8336,40.87021],[-73.83273,40.86846],[-73.83259,40.8685],[-73.83147,40.86636],[-73.83037,40.86447],[-73.83057,40.86437],[-73.82981,40.86258],[-73.82959,40.86217],[-73.8316,40.86263],[-73.83591,40.86508],[-73.84064,40.86755],[-73.84082,40.86272],[-73.84343,40.86277],[-73.843,40.8595],[-73.84642,40.85977],[-73.8483,40.85981],[-73.84834,40.8587],[-73.84931,40.85872],[-73.84939,40.85686],[-73.8501,40.85635],[-73.84948,40.85581],[-73.85064,40.85507],[-73.85018,40.85447],[-73.8489,40.85529],[-73.84808,40.85451],[-73.848,40.85429],[-73.84801,40.85395],[-73.84811,40.85261],[-73.84874,40.85264],[-73.85011,40.8516],[-73.84969,40.85106],[-73.85944,40.84666],[-73.85865,40.84529],[-73.86119,40.84471],[-73.86171,40.84614],[-73.86802,40.84484],[-73.86889,40.84441],[-73.87099,40.84311],[-73.87153,40.84251],[-73.87281,40.84087],[-73.87609,40.84206],[-73.87741,40.83999],[-73.87791,40.83997],[-73.87973,40.84004],[-73.88016,40.84],[-73.88042,40.84007],[-73.88149,40.83969],[-73.88209,40.83959],[-73.88291,40.8396],[-73.88381,40.83947],[-73.88347,40.83906],[-73.88374,40.83885],[-73.88511,40.83648],[-73.88596,40.83677],[-73.88991,40.83012],[-73.88993,40.82871],[-73.89491,40.82831],[-73.89506,40.82839],[-73.89622,40.82717],[-73.89582,40.82599],[-73.89684,40.82599],[-73.89688,40.82212],[-73.89986,40.82056],[-73.9016,40.8197],[-73.90258,40.81737],[-73.90531,40.81793],[-73.90665,40.81718],[-73.90823,40.8162],[-73.90913,40.81594],[-73.91002,40.81343],[-73.91095,40.81362],[-73.91295,40.81427],[-73.91485,40.81099],[-73.91684,40.81166],[-73.9176,40.81035],[-73.92104,40.81165],[-73.92384,40.80781],[-73.92446,40.80689],[-73.92679,40.8078],[-73.92862,40.80895],[-73.92933,40.80947],[-73.93094,40.80825],[-73.9318,40.80788],[-73.93211,40.80818],[-73.93235,40.80859],[-73.93248,40.80886],[-73.93257,40.80926],[-73.93263,40.81061],[-73.9326,40.81199],[-73.93242,40.81357],[-73.93242,40.81403],[-73.93233,40.81492],[-73.93226,40.818],[-73.9324,40.82119],[-73.93249,40.82255],[-73.93275,40.82549],[-73.9329,40.82656],[-73.93306,40.8282],[-73.93326,40.8295],[-73.93342,40.83138],[-73.93346,40.83318],[-73.93301,40.83568],[-73.93061,40.83968],[-73.93041,40.84028],[-73.93037,40.84065],[-73.92973,40.84185],[-73.92958,40.84205],[-73.92969,40.84219],[-73.9295,40.84238],[-73.92901,40.84408],[-73.92811,40.84558],[-73.9273,40.84656],[-73.9239,40.85049],[-73.92242,40.85012],[-73.92229,40.85028],[-73.92163,40.85006],[-73.92032,40.8498],[-73.92128,40.84865],[-73.91968,40.8479],[-73.91841,40.84944],[-73.91729,40.84919],[-73.91605,40.85004],[-73.91617,40.84829],[-73.91443,40.84796],[-73.91287,40.85012],[-73.91273,40.85017],[-73.91248,40.85038],[-73.91229,40.85061],[-73.91211,40.85109],[-73.91195,40.85135],[-73.91184,40.85144],[-73.91145,40.85174],[-73.91102,40.85191],[-73.91017,40.85198],[-73.90953,40.8519],[-73.90922,40.8518],[-73.90733,40.85382],[-73.90522,40.8562],[-73.9043,40.85589],[-73.90362,40.85702],[-73.90176,40.85639],[-73.90094,40.85776],[-73.89731,40.85651],[-73.89726,40.85633],[-73.89687,40.85706],[-73.8962,40.85679],[-73.89613,40.85692],[-73.89583,40.85703],[-73.89587,40.85709],[-73.89588,40.8572],[-73.89551,40.85783],[-73.89551,40.85791],[-73.89558,40.85802],[-73.89574,40.85814],[-73.89404,40.86028],[-73.89321,40.85987],[-73.89145,40.86163],[-73.88945,40.86309],[-73.88683,40.86539],[-73.88362,40.86726],[-73.88184,40.86837],[-73.88038,40.86919],[-73.8807,40.86982],[-73.88091,40.87049],[-73.88139,40.87121],[-73.88175,40.87235],[-73.88247,40.87213],[-73.8834,40.87395],[-73.88344,40.87479],[-73.88342,40.87574],[-73.88383,40.87678],[-73.88471,40.8783],[-73.8846,40.87835],[-73.88447,40.87836],[-73.8843,40.87834],[-73.88411,40.87826],[-73.88423,40.87872],[-73.88433,40.87934],[-73.88466,40.87975],[-73.88566,40.87889],[-73.88594,40.88048],[-73.88701,40.88247],[-73.88697,40.88281],[-73.88757,40.88291],[-73.88783,40.88291],[-73.89042,40.88251],[-73.8889,40.8845],[-73.89289,40.88526],[-73.89453,40.8855],[-73.89472,40.88556],[-73.89478,40.88543],[-73.89492,40.88535],[-73.89539,40.88536],[-73.89575,40.88532],[-73.89643,40.88512],[-73.89797,40.88403],[-73.89847,40.88432],[-73.89763,40.88515],[-73.89658,40.88594],[-73.89738,40.88609],[-73.89826,40.88531],[-73.89896,40.88459],[-73.89929,40.88396],[-73.90104,40.88437],[-73.90065,40.8851],[-73.90101,40.88519],[-73.90137,40.88533],[-73.90179,40.88561],[-73.90331,40.8843],[-73.90472,40.88524],[-73.90801,40.8824],[-73.90934,40.88135],[-73.91054,40.88057],[-73.91045,40.88024],[-73.9103,40.88005],[-73.90968,40.87951],[-73.91031,40.87905],[-73.91141,40.87928],[-73.91221,40.87818],[-73.91491,40.87658],[-73.9152,40.87558],[-73.91981,40.87658],[-73.92163,40.87832],[-73.9226,40.87878],[-73.9245,40.87897],[-73.93381,40.88221]]]}},{"type":"Feature","properties":{"std_name":"Congressional District 16","std_geoid":"3616","pen":"politicians","std_note":null,"LSAD":"C2"},"geometry":{"type":"Polygon","coordinates":[[[-73.91832,40.9177],[-73.91425,40.92796],[-73.90911,40.94589],[-73.90846,40.94788],[-73.89614,40.98187],[-73.89363,40.99717],[-73.89398,40.99717],[-73.89358,41.0053],[-73.89008,41.0226],[-73.88948,41.0341],[-73.88938,41.0376],[-73.89028,41.0452],[-73.89038,41.0458],[-73.89268,41.0535],[-73.89388,41.0579],[-73.89448,41.0646],[-73.89468,41.0698],[-73.89471,41.07002],[-73.87465,41.07004],[-73.87347,41.06995],[-73.87222,41.06972],[-73.8711,41.06942],[-73.8704,41.06918],[-73.86965,41.06885],[-73.86901,41.06852],[-73.86842,41.06816],[-73.86728,41.0673],[-73.86677,41.06687],[-73.8661,41.06622],[-73.86511,41.06505],[-73.86479,41.06472],[-73.86302,41.06323],[-73.86232,41.06275],[-73.86231,41.06362],[-73.86006,41.06358],[-73.85998,41.06336],[-73.85935,41.06242],[-73.85872,41.0616],[-73.85857,41.06136],[-73.8582,41.06125],[-73.85765,41.06113],[-73.85678,41.06099],[-73.85619,41.06093],[-73.85311,41.06092],[-73.85314,41.06129],[-73.8532,41.06158],[-73.8533,41.06187],[-73.85371,41.0625],[-73.85385,41.06279],[-73.85398,41.0632],[-73.85414,41.06413],[-73.85416,41.06453],[-73.85495,41.06448],[-73.85488,41.0656],[-73.85464,41.06655],[-73.85461,41.06684],[-73.85476,41.06704],[-73.85539,41.06688],[-73.85688,41.06678],[-73.85696,41.06674],[-73.85718,41.06643],[-73.85741,41.06588],[-73.85757,41.06578],[-73.85792,41.06574],[-73.85999,41.0658],[-73.86006,41.06582],[-73.86009,41.06588],[-73.86006,41.06699],[-73.86007,41.06729],[-73.86016,41.06789],[-73.85947,41.06788],[-73.85867,41.06805],[-73.85847,41.0684],[-73.85843,41.06874],[-73.85832,41.06884],[-73.8581,41.06898],[-73.85785,41.06911],[-73.85761,41.06917],[-73.85757,41.06998],[-73.85594,41.06998],[-73.85568,41.06994],[-73.85559,41.07005],[-73.85564,41.07013],[-73.85573,41.07015],[-73.85617,41.07021],[-73.85597,41.07064],[-73.85594,41.07095],[-73.85901,41.07165],[-73.85864,41.07284],[-73.85843,41.07318],[-73.85828,41.07336],[-73.85761,41.07401],[-73.85728,41.07442],[-73.85782,41.0746],[-73.85695,41.07585],[-73.85636,41.07564],[-73.85597,41.07561],[-73.85571,41.07566],[-73.85538,41.07579],[-73.85492,41.07599],[-73.85434,41.0763],[-73.85403,41.0765],[-73.85373,41.07684],[-73.85342,41.07769],[-73.85334,41.07787],[-73.85314,41.07818],[-73.85289,41.07838],[-73.85242,41.07861],[-73.85231,41.07895],[-73.85208,41.08033],[-73.85245,41.08059],[-73.85262,41.08078],[-73.85268,41.08098],[-73.85268,41.08118],[-73.85263,41.08163],[-73.85264,41.08175],[-73.85277,41.0821],[-73.85277,41.08226],[-73.85269,41.08248],[-73.85243,41.0829],[-73.85238,41.08312],[-73.85231,41.08394],[-73.85227,41.08404],[-73.85194,41.08429],[-73.85163,41.08447],[-73.85139,41.08508],[-73.85105,41.08545],[-73.85073,41.08541],[-73.85041,41.08546],[-73.84978,41.08563],[-73.84948,41.08575],[-73.84917,41.08589],[-73.8482,41.08644],[-73.84799,41.08665],[-73.84792,41.08684],[-73.8475,41.08669],[-73.84683,41.08627],[-73.84599,41.08604],[-73.84548,41.08576],[-73.84475,41.08521],[-73.84432,41.08496],[-73.84411,41.08487],[-73.8436,41.08474],[-73.84265,41.08485],[-73.84211,41.08483],[-73.84171,41.08468],[-73.84142,41.08446],[-73.84117,41.08432],[-73.84094,41.08428],[-73.8408,41.08426],[-73.84049,41.08434],[-73.84021,41.0846],[-73.83983,41.08512],[-73.83956,41.08532],[-73.83921,41.08547],[-73.83883,41.08553],[-73.83862,41.08554],[-73.83821,41.08547],[-73.83613,41.08458],[-73.83494,41.08417],[-73.83467,41.08416],[-73.8331,41.08458],[-73.83272,41.08453],[-73.83243,41.08435],[-73.83165,41.08361],[-73.83147,41.0834],[-73.83138,41.08324],[-73.83124,41.08286],[-73.83107,41.08278],[-73.83048,41.08266],[-73.82994,41.08263],[-73.82935,41.08244],[-73.82929,41.0824],[-73.82903,41.08204],[-73.82884,41.08186],[-73.82881,41.08166],[-73.82835,41.08157],[-73.82787,41.08179],[-73.82742,41.08157],[-73.82778,41.08118],[-73.82787,41.0808],[-73.82785,41.08057],[-73.82777,41.08043],[-73.82737,41.08018],[-73.82552,41.07928],[-73.82486,41.07912],[-73.82302,41.07876],[-73.82257,41.07862],[-73.82035,41.07777],[-73.82008,41.07764],[-73.81958,41.07729],[-73.81881,41.07648],[-73.81849,41.07634],[-73.8181,41.0763],[-73.8158,41.07639],[-73.81501,41.07636],[-73.81432,41.07623],[-73.8125,41.07579],[-73.81192,41.0757],[-73.81075,41.07566],[-73.80706,41.07564],[-73.80646,41.0756],[-73.80593,41.07552],[-73.80462,41.07509],[-73.80366,41.0747],[-73.80315,41.07445],[-73.80119,41.07337],[-73.79995,41.07272],[-73.79969,41.07261],[-73.7972,41.07219],[-73.79496,41.07196],[-73.78996,41.07082],[-73.78814,41.07045],[-73.78677,41.07026],[-73.78544,41.0702],[-73.78452,41.0702],[-73.78445,41.07017],[-73.78418,41.07017],[-73.78272,41.07],[-73.78218,41.06969],[-73.7819,41.06943],[-73.7815,41.06887],[-73.78114,41.06827],[-73.781,41.06816],[-73.78079,41.06809],[-73.78055,41.06792],[-73.78037,41.06765],[-73.78023,41.06721],[-73.77996,41.06679],[-73.77951,41.06651],[-73.77958,41.0661],[-73.77947,41.06589],[-73.77917,41.06556],[-73.77857,41.06518],[-73.77594,41.06379],[-73.77424,41.06231],[-73.77328,41.06163],[-73.77321,41.06153],[-73.77303,41.06091],[-73.77295,41.06074],[-73.773,41.06054],[-73.77297,41.0605],[-73.77298,41.06035],[-73.77279,41.06004],[-73.77302,41.05979],[-73.77299,41.05968],[-73.77294,41.05961],[-73.77283,41.05956],[-73.77256,41.0595],[-73.77244,41.05936],[-73.77248,41.05919],[-73.7725,41.05846],[-73.77244,41.05794],[-73.77233,41.05743],[-73.77216,41.05736],[-73.772,41.0571],[-73.77177,41.05683],[-73.77184,41.05665],[-73.77181,41.0566],[-73.77156,41.05641],[-73.77182,41.05588],[-73.77193,41.05558],[-73.77184,41.05544],[-73.77175,41.05537],[-73.77167,41.05519],[-73.77178,41.05515],[-73.77189,41.05505],[-73.7719,41.05494],[-73.77183,41.05477],[-73.77223,41.0545],[-73.77229,41.05438],[-73.76223,41.0534],[-73.7624,41.05352],[-73.76245,41.05359],[-73.76248,41.0537],[-73.76252,41.05414],[-73.76256,41.05419],[-73.76305,41.05449],[-73.76259,41.05505],[-73.76222,41.0556],[-73.76326,41.05692],[-73.76271,41.05786],[-73.76252,41.05875],[-73.76295,41.0591],[-73.76361,41.06082],[-73.76551,41.06322],[-73.76535,41.06395],[-73.7637,41.06427],[-73.76396,41.06465],[-73.76403,41.065],[-73.76353,41.06505],[-73.76304,41.06505],[-73.76208,41.06492],[-73.76152,41.06598],[-73.76082,41.0677],[-73.76041,41.06817],[-73.75985,41.0689],[-73.75913,41.07003],[-73.75741,41.06958],[-73.75769,41.06889],[-73.75812,41.06732],[-73.75695,41.0671],[-73.75684,41.06746],[-73.75403,41.06688],[-73.75386,41.06744],[-73.75356,41.06756],[-73.75298,41.06759],[-73.75285,41.06755],[-73.75262,41.0671],[-73.75246,41.0667],[-73.75234,41.06652],[-73.75199,41.06625],[-73.75146,41.06608],[-73.75214,41.06494],[-73.75234,41.06445],[-73.75233,41.06424],[-73.75224,41.06401],[-73.75222,41.06381],[-73.75161,41.06377],[-73.75186,41.06287],[-73.75188,41.06259],[-73.75185,41.06223],[-73.75146,41.06204],[-73.75177,41.06143],[-73.75235,41.06071],[-73.75223,41.06037],[-73.75214,41.05944],[-73.75227,41.05869],[-73.7525,41.05835],[-73.75115,41.0581],[-73.74961,41.05828],[-73.74975,41.05794],[-73.74972,41.05775],[-73.75018,41.05722],[-73.75052,41.05631],[-73.75065,41.05633],[-73.7515,41.05519],[-73.75178,41.05497],[-73.75219,41.05432],[-73.75276,41.05357],[-73.75336,41.05287],[-73.75361,41.05263],[-73.74702,41.05222],[-73.74415,41.05214],[-73.74395,41.05216],[-73.74413,41.05239],[-73.7442,41.05257],[-73.74441,41.05264],[-73.74497,41.05289],[-73.74509,41.05288],[-73.74544,41.05268],[-73.7457,41.05264],[-73.74593,41.05252],[-73.74619,41.05252],[-73.74647,41.05262],[-73.74658,41.0526],[-73.74703,41.05263],[-73.74762,41.05259],[-73.74789,41.05263],[-73.7485,41.05287],[-73.74861,41.05308],[-73.74905,41.05338],[-73.74957,41.05351],[-73.74986,41.05366],[-73.75062,41.05393],[-73.75069,41.054],[-73.75062,41.05441],[-73.75051,41.05471],[-73.75022,41.05521],[-73.74981,41.05578],[-73.74941,41.0559],[-73.74922,41.056],[-73.74882,41.05667],[-73.74873,41.05713],[-73.74876,41.05736],[-73.74882,41.05749],[-73.74883,41.05766],[-73.74851,41.05788],[-73.74846,41.05794],[-73.7485,41.05799],[-73.74865,41.05804],[-73.74887,41.05826],[-73.749,41.05854],[-73.74908,41.059],[-73.74908,41.05943],[-73.74929,41.05959],[-73.74965,41.05967],[-73.75013,41.05983],[-73.75034,41.05994],[-73.75054,41.06025],[-73.75056,41.06056],[-73.7505,41.06092],[-73.75032,41.06132],[-73.74983,41.06223],[-73.74975,41.06256],[-73.7496,41.06328],[-73.74961,41.06394],[-73.74978,41.06457],[-73.75015,41.06514],[-73.75046,41.06613],[-73.75118,41.07015],[-73.75191,41.0731],[-73.75212,41.0742],[-73.75226,41.07548],[-73.75245,41.07633],[-73.75244,41.0764],[-73.75237,41.07648],[-73.75252,41.07746],[-73.75252,41.07803],[-73.75258,41.07875],[-73.7516,41.07892],[-73.74701,41.07955],[-73.74606,41.0784],[-73.74579,41.07817],[-73.74515,41.07795],[-73.74425,41.07783],[-73.74373,41.07794],[-73.74336,41.07796],[-73.74285,41.07807],[-73.74092,41.07866],[-73.73988,41.0789],[-73.73919,41.07891],[-73.73852,41.07888],[-73.73801,41.07863],[-73.73761,41.07851],[-73.73739,41.0784],[-73.73688,41.07802],[-73.7364,41.07742],[-73.73607,41.07687],[-73.73595,41.07659],[-73.73576,41.07631],[-73.73533,41.07598],[-73.73504,41.07556],[-73.73458,41.07514],[-73.73411,41.07507],[-73.73364,41.07516],[-73.73316,41.07539],[-73.73218,41.07605],[-73.7318,41.07624],[-73.73135,41.07613],[-73.73092,41.07578],[-73.73033,41.07563],[-73.72967,41.07556],[-73.72892,41.07524],[-73.72794,41.07494],[-73.72756,41.07513],[-73.72628,41.07593],[-73.72597,41.07636],[-73.72582,41.07674],[-73.72553,41.07719],[-73.72534,41.07849],[-73.72505,41.07914],[-73.72376,41.07952],[-73.722,41.07933],[-73.72157,41.07916],[-73.72126,41.07919],[-73.72102,41.07912],[-73.72082,41.079],[-73.72072,41.07886],[-73.72076,41.07845],[-73.72064,41.07785],[-73.72086,41.0765],[-73.72069,41.07584],[-73.72066,41.07513],[-73.72059,41.07492],[-73.72064,41.07414],[-73.72069,41.07359],[-73.72082,41.07304],[-73.72113,41.07239],[-73.72136,41.07205],[-73.71143,41.07268],[-73.7066,41.07295],[-73.70664,41.07325],[-73.70661,41.07357],[-73.70656,41.07374],[-73.7063,41.07407],[-73.70507,41.0725],[-73.69617,41.0616],[-73.69468,41.05979],[-73.69421,41.05933],[-73.69286,41.05771],[-73.69235,41.05714],[-73.68953,41.05352],[-73.68885,41.05254],[-73.68842,41.05202],[-73.68789,41.05153],[-73.68717,41.0507],[-73.68247,41.0447],[-73.68184,41.04397],[-73.67977,41.04194],[-73.67928,41.04138],[-73.67878,41.04073],[-73.67856,41.0404],[-73.67592,41.03731],[-73.67574,41.037],[-73.67452,41.03563],[-73.67107,41.03153],[-73.67061,41.03083],[-73.67038,41.03006],[-73.66977,41.0294],[-73.66917,41.0285],[-73.66467,41.023],[-73.66418,41.02229],[-73.6636,41.02166],[-73.66276,41.02057],[-73.65945,41.01765],[-73.65899,41.01718],[-73.65868,41.01671],[-73.65787,41.0158],[-73.65737,41.0151],[-73.6569,41.01452],[-73.65612,41.01313],[-73.65541,41.01244],[-73.65525,41.01225],[-73.65524,41.01185],[-73.65606,41.00892],[-73.65721,41.0064],[-73.65808,41.00475],[-73.65856,41.00402],[-73.65969,41.00151],[-73.66013,41.00068],[-73.66027,41.00048],[-73.66021,41.00036],[-73.65931,40.99717],[-73.65949,40.99553],[-73.65965,40.99445],[-73.65959,40.99414],[-73.65911,40.99334],[-73.65797,40.992],[-73.65723,40.99091],[-73.65863,40.98926],[-73.65891,40.98899],[-73.65967,40.98791],[-73.65677,40.98451],[-73.61289,40.95094],[-73.69897,40.90039],[-73.748,40.87187],[-73.74806,40.87172],[-73.76099,40.87518],[-73.7812,40.88048],[-73.7858,40.8816],[-73.79199,40.88317],[-73.79328,40.88342],[-73.81418,40.8888],[-73.81505,40.88895],[-73.8156,40.88918],[-73.8161,40.88928],[-73.8176,40.88967],[-73.8185,40.88988],[-73.82296,40.89106],[-73.82324,40.8912],[-73.8233,40.89099],[-73.82313,40.89087],[-73.82311,40.89078],[-73.82312,40.89065],[-73.82325,40.89047],[-73.82322,40.89037],[-73.8233,40.89006],[-73.8231,40.88989],[-73.82267,40.88996],[-73.82251,40.88988],[-73.82236,40.88964],[-73.82237,40.88948],[-73.82364,40.88985],[-73.82402,40.88975],[-73.82405,40.88987],[-73.82423,40.88857],[-73.82402,40.88781],[-73.82375,40.88783],[-73.82385,40.88747],[-73.82361,40.8873],[-73.8231,40.8871],[-73.82286,40.88705],[-73.82227,40.88706],[-73.8216,40.88675],[-73.82153,40.88652],[-73.82098,40.88598],[-73.82068,40.88554],[-73.82032,40.88544],[-73.81981,40.88557],[-73.81993,40.88212],[-73.8233,40.8731],[-73.82127,40.86907],[-73.82164,40.86877],[-73.8204,40.86824],[-73.82026,40.86749],[-73.81994,40.86374],[-73.81946,40.86281],[-73.81881,40.86248],[-73.82047,40.86136],[-73.82473,40.86003],[-73.82703,40.85926],[-73.82728,40.86003],[-73.82761,40.86058],[-73.82826,40.86143],[-73.82892,40.86221],[-73.83037,40.86447],[-73.83147,40.86636],[-73.83259,40.8685],[-73.83273,40.86846],[-73.8336,40.87021],[-73.83401,40.87117],[-73.83434,40.87203],[-73.83449,40.87256],[-73.83488,40.87443],[-73.83488,40.8755],[-73.83479,40.87608],[-73.8345,40.87723],[-73.834,40.87839],[-73.83482,40.87806],[-73.83574,40.8797],[-73.83754,40.87912],[-73.83951,40.88263],[-73.84337,40.88166],[-73.8438,40.88102],[-73.84523,40.88164],[-73.84514,40.88176],[-73.84636,40.88221],[-73.84658,40.88221],[-73.84938,40.8834],[-73.84959,40.88334],[-73.84973,40.88356],[-73.84744,40.88698],[-73.84591,40.88974],[-73.84632,40.88988],[-73.84806,40.89444],[-73.84894,40.89421],[-73.85049,40.89828],[-73.84785,40.89886],[-73.84822,40.89983],[-73.84742,40.90027],[-73.84694,40.90152],[-73.84547,40.90184],[-73.84598,40.90316],[-73.84418,40.90356],[-73.84442,40.90417],[-73.84491,40.90419],[-73.84495,40.90471],[-73.8449,40.90508],[-73.84495,40.90556],[-73.84585,40.90576],[-73.84743,40.90624],[-73.84865,40.90678],[-73.85014,40.9075],[-73.85033,40.90728],[-73.85045,40.90718],[-73.85099,40.90654],[-73.85353,40.90747],[-73.85237,40.90888],[-73.85208,40.90889],[-73.85205,40.90896],[-73.85112,40.91001],[-73.85138,40.91004],[-73.85218,40.90951],[-73.85268,40.9099],[-73.85294,40.90992],[-73.854,40.90928],[-73.85423,40.90901],[-73.85434,40.90897],[-73.85488,40.90822],[-73.85448,40.90801],[-73.8543,40.90809],[-73.85398,40.90801],[-73.85382,40.90777],[-73.8538,40.90718],[-73.8541,40.90668],[-73.8547,40.90658],[-73.85569,40.90606],[-73.85611,40.90606],[-73.85632,40.90617],[-73.85633,40.9058],[-73.8562,40.90548],[-73.85596,40.90539],[-73.85594,40.90526],[-73.8562,40.90509],[-73.85639,40.90505],[-73.8567,40.90491],[-73.85732,40.90502],[-73.85759,40.90467],[-73.857,40.90438],[-73.857,40.90358],[-73.8572,40.90288],[-73.85771,40.90257],[-73.8582,40.90238],[-73.8583,40.90208],[-73.8591,40.90247],[-73.8596,40.90218],[-73.8593,40.90178],[-73.859,40.90148],[-73.8594,40.90138],[-73.8592,40.90088],[-73.8593,40.90049],[-73.85939,40.90038],[-73.86026,40.90062],[-73.86159,40.90105],[-73.8624,40.90134],[-73.86264,40.90147],[-73.86288,40.90154],[-73.86467,40.90179],[-73.86526,40.90195],[-73.86695,40.90248],[-73.86788,40.90298],[-73.87785,40.90592],[-73.87801,40.90597],[-73.87835,40.90598],[-73.87924,40.90637],[-73.88093,40.90683],[-73.88183,40.90713],[-73.88299,40.90742],[-73.88425,40.90751],[-73.88483,40.90772],[-73.8854,40.90798],[-73.88601,40.90798],[-73.89181,40.90978],[-73.8928,40.91006],[-73.89663,40.91132],[-73.89725,40.91166],[-73.89951,40.91198],[-73.90211,40.91288],[-73.91001,40.91508],[-73.91052,40.91528],[-73.91832,40.9177]]]}}]}