{"type":"FeatureCollection","features":[{"type":"Feature","properties":{"std_name":"First Department","std_geoid":null,"pen":"courts","std_note":null},"geometry":{"type":"MultiPolygon","coordinates":[[[[-74.04715,40.69098],[-74.04697,40.69105],[-74.04618,40.69109],[-74.04611,40.69112],[-74.04598,40.69111],[-74.04457,40.69056],[-74.04389,40.69018],[-74.04345,40.68963],[-74.0435,40.68917],[-74.04362,40.68876],[-74.04394,40.68857],[-74.04413,40.68854],[-74.04435,40.68851],[-74.04479,40.68859],[-74.04625,40.68932],[-74.04718,40.69041],[-74.04704,40.69048],[-74.04703,40.69059],[-74.0472,40.6908],[-74.04721,40.69089],[-74.04715,40.69098]]],[[[-74.0407,40.70022],[-74.04033,40.7001],[-74.04008,40.70009],[-74.03993,40.69999],[-74.03974,40.69995],[-74.03966,40.69987],[-74.03955,40.69984],[-74.03948,40.69978],[-74.03925,40.69969],[-74.03894,40.69965],[-74.03881,40.69953],[-74.03872,40.6993],[-74.03851,40.69915],[-74.03846,40.69898],[-74.03845,40.69882],[-74.03837,40.69867],[-74.03857,40.69873],[-74.03862,40.6987],[-74.0386,40.69868],[-74.03874,40.69864],[-74.03896,40.69859],[-74.03917,40.69859],[-74.03929,40.69863],[-74.03938,40.69873],[-74.03965,40.69879],[-74.03993,40.69859],[-74.04023,40.69883],[-74.0401,40.69893],[-74.03999,40.69889],[-74.03987,40.69889],[-74.0398,40.69894],[-74.0398,40.69898],[-74.03998,40.69912],[-74.04019,40.69922],[-74.04021,40.69931],[-74.04043,40.69941],[-74.04048,40.6996],[-74.04061,40.69977],[-74.04074,40.70013],[-74.04075,40.70017],[-74.0407,40.70022]]],[[[-74.02639,40.7001],[-74.02364,40.71807],[-74.01403,40.75755],[-73.96358,40.82664],[-73.95283,40.85111],[-73.93379,40.88221],[-73.93381,40.88221],[-73.92982,40.88868],[-73.92724,40.8952],[-73.92655,40.89688],[-73.92495,40.90102],[-73.92384,40.90367],[-73.92247,40.90724],[-73.91832,40.9177],[-73.91052,40.91528],[-73.91001,40.91508],[-73.90211,40.91288],[-73.89951,40.91198],[-73.89725,40.91166],[-73.89663,40.91132],[-73.8928,40.91006],[-73.89181,40.90978],[-73.88601,40.90798],[-73.8854,40.90798],[-73.88483,40.90772],[-73.88425,40.90751],[-73.88299,40.90742],[-73.88183,40.90713],[-73.88093,40.90683],[-73.87924,40.90637],[-73.87835,40.90598],[-73.87801,40.90597],[-73.87785,40.90592],[-73.86788,40.90298],[-73.86695,40.90248],[-73.86526,40.90195],[-73.86467,40.90179],[-73.86288,40.90154],[-73.86264,40.90147],[-73.8624,40.90134],[-73.86159,40.90105],[-73.86026,40.90062],[-73.85939,40.90038],[-73.8593,40.90049],[-73.8592,40.90088],[-73.8594,40.90138],[-73.859,40.90148],[-73.8593,40.90178],[-73.8596,40.90218],[-73.8591,40.90247],[-73.8583,40.90208],[-73.8582,40.90238],[-73.85771,40.90257],[-73.8572,40.90288],[-73.857,40.90358],[-73.857,40.90438],[-73.85759,40.90467],[-73.85732,40.90502],[-73.8567,40.90491],[-73.85639,40.90505],[-73.8562,40.90509],[-73.85594,40.90526],[-73.85596,40.90539],[-73.8562,40.90548],[-73.85633,40.9058],[-73.85632,40.90617],[-73.85611,40.90606],[-73.85569,40.90606],[-73.8547,40.90658],[-73.8541,40.90668],[-73.8538,40.90718],[-73.85382,40.90777],[-73.85398,40.90801],[-73.8543,40.90809],[-73.85448,40.90801],[-73.85488,40.90822],[-73.85434,40.90897],[-73.85423,40.90901],[-73.854,40.90928],[-73.85294,40.90992],[-73.85268,40.9099],[-73.85218,40.90951],[-73.85138,40.91004],[-73.85112,40.91001],[-73.85205,40.90896],[-73.85208,40.90889],[-73.85237,40.90888],[-73.85353,40.90747],[-73.85099,40.90654],[-73.85045,40.90718],[-73.85033,40.90728],[-73.85014,40.9075],[-73.84865,40.90678],[-73.84743,40.90624],[-73.84585,40.90576],[-73.84495,40.90556],[-73.8449,40.90508],[-73.84495,40.90471],[-73.84491,40.90419],[-73.84139,40.90417],[-73.84105,40.90316],[-73.84087,40.90198],[-73.84079,40.90169],[-73.84056,40.90128],[-73.83936,40.89971],[-73.83919,40.89936],[-73.83915,40.89906],[-73.83921,40.89882],[-73.83965,40.89789],[-73.83972,40.89769],[-73.83972,40.89751],[-73.83961,40.89714],[-73.83941,40.89669],[-73.83841,40.89406],[-73.83628,40.89353],[-73.83517,40.89317],[-73.8325,40.89238],[-73.8317,40.89218],[-73.83082,40.89188],[-73.83002,40.89169],[-73.82872,40.89127],[-73.82812,40.89105],[-73.82794,40.89093],[-73.82722,40.89079],[-73.825,40.89018],[-73.8244,40.88998],[-73.82401,40.88998],[-73.82405,40.88987],[-73.82402,40.88975],[-73.82364,40.88985],[-73.82237,40.88948],[-73.82236,40.88964],[-73.82251,40.88988],[-73.82267,40.88996],[-73.8231,40.88989],[-73.8233,40.89006],[-73.82322,40.89037],[-73.82325,40.89047],[-73.82312,40.89065],[-73.82311,40.89078],[-73.82313,40.89087],[-73.8233,40.89099],[-73.82324,40.8912],[-73.82296,40.89106],[-73.8185,40.88988],[-73.8176,40.88967],[-73.8161,40.88928],[-73.8156,40.88918],[-73.81505,40.88895],[-73.81418,40.8888],[-73.79328,40.88342],[-73.79199,40.88317],[-73.7858,40.8816],[-73.7812,40.88048],[-73.76099,40.87518],[-73.74806,40.87172],[-73.7578,40.84568],[-73.78019,40.8264],[-73.77896,40.81171],[-73.77956,40.81125],[-73.78268,40.80539],[-73.78475,40.80259],[-73.78732,40.80085],[-73.78792,40.80036],[-73.79002,40.80023],[-73.79356,40.80038],[-73.79713,40.80141],[-73.79975,40.8022],[-73.80454,40.80355],[-73.8113,40.8054],[-73.81742,40.80579],[-73.82344,40.80481],[-73.82758,40.80394],[-73.83023,40.80327],[-73.83082,40.80306],[-73.83541,40.8022],[-73.84408,40.80102],[-73.84665,40.80102],[-73.85307,40.80011],[-73.86297,40.79767],[-73.86712,40.79374],[-73.87021,40.79091],[-73.87097,40.78906],[-73.87095,40.78895],[-73.87098,40.78888],[-73.87095,40.78847],[-73.87079,40.78803],[-73.8708,40.78793],[-73.87107,40.78757],[-73.87137,40.78727],[-73.87148,40.78704],[-73.87163,40.7868],[-73.87211,40.78647],[-73.87226,40.78642],[-73.87279,40.78608],[-73.87287,40.78598],[-73.87277,40.78594],[-73.87281,40.7859],[-73.87288,40.78596],[-73.87298,40.78589],[-73.87351,40.78572],[-73.87508,40.78587],[-73.87629,40.78586],[-73.87677,40.78581],[-73.87737,40.78569],[-73.87776,40.78558],[-73.87831,40.78536],[-73.88522,40.78663],[-73.8853,40.78668],[-73.88577,40.78668],[-73.88596,40.78675],[-73.88613,40.78671],[-73.88692,40.78673],[-73.88715,40.78683],[-73.88728,40.78681],[-73.8877,40.78687],[-73.88831,40.78701],[-73.88856,40.78716],[-73.88905,40.78737],[-73.8894,40.78779],[-73.8898,40.78865],[-73.88989,40.78901],[-73.89013,40.78964],[-73.8903,40.78988],[-73.89057,40.79011],[-73.8908,40.79021],[-73.89092,40.79023],[-73.89116,40.79017],[-73.89141,40.79019],[-73.89161,40.79016],[-73.89177,40.79022],[-73.89197,40.79024],[-73.89218,40.79039],[-73.89987,40.79245],[-73.91246,40.7961],[-73.91067,40.79312],[-73.9103,40.79066],[-73.91113,40.79011],[-73.91125,40.78974],[-73.91162,40.78959],[-73.91177,40.78972],[-73.91208,40.78952],[-73.91195,40.7894],[-73.91207,40.78934],[-73.91223,40.78918],[-73.9126,40.78938],[-73.91424,40.78786],[-73.91559,40.78643],[-73.91526,40.78619],[-73.9154,40.78606],[-73.91575,40.78611],[-73.91683,40.78519],[-73.91718,40.78455],[-73.91717,40.78419],[-73.91724,40.78414],[-73.91774,40.78408],[-73.91819,40.78393],[-73.91909,40.78337],[-73.9221,40.78085],[-73.92263,40.78057],[-73.92296,40.78044],[-73.92319,40.78025],[-73.92423,40.7791],[-73.92482,40.77876],[-73.92557,40.77846],[-73.92632,40.77824],[-73.92828,40.7769],[-73.92861,40.77659],[-73.92988,40.77622],[-73.93063,40.77659],[-73.93107,40.77726],[-73.93105,40.77744],[-73.93179,40.77787],[-73.93272,40.77804],[-73.93278,40.77792],[-73.93391,40.77812],[-73.93474,40.77808],[-73.93508,40.77794],[-73.93586,40.77721],[-73.93609,40.77718],[-73.93638,40.77692],[-73.93705,40.77587],[-73.93766,40.77509],[-73.93786,40.77409],[-73.93781,40.77356],[-73.93747,40.7725],[-73.93496,40.77173],[-73.93532,40.77049],[-73.9364,40.76947],[-73.9382,40.76873],[-73.93984,40.76799],[-73.94035,40.76765],[-73.94046,40.76753],[-73.94131,40.76692],[-73.9435,40.7645],[-73.94472,40.76288],[-73.94571,40.76149],[-73.94581,40.76145],[-73.94596,40.76129],[-73.95088,40.75517],[-73.95102,40.75509],[-73.95137,40.75452],[-73.95208,40.75376],[-73.95217,40.7537],[-73.95266,40.75311],[-73.95301,40.75277],[-73.95297,40.75275],[-73.95364,40.75204],[-73.95368,40.75205],[-73.95399,40.75179],[-73.95394,40.75175],[-73.95432,40.75126],[-73.95606,40.74976],[-73.95612,40.74976],[-73.9562,40.74969],[-73.95617,40.74967],[-73.95684,40.74883],[-73.95919,40.74603],[-73.96027,40.74443],[-73.96083,40.74364],[-73.96118,40.743],[-73.96138,40.7428],[-73.9618,40.74113],[-73.96191,40.741],[-73.96243,40.73967],[-73.96262,40.73903],[-73.96248,40.7368],[-73.96267,40.73645],[-73.9626,40.7349],[-73.96235,40.73381],[-73.96227,40.73277],[-73.96223,40.73265],[-73.96193,40.73268],[-73.9619,40.73248],[-73.96215,40.73245],[-73.96184,40.73163],[-73.96145,40.73099],[-73.96131,40.7303],[-73.96126,40.72975],[-73.9612,40.72942],[-73.96114,40.72943],[-73.96112,40.72936],[-73.96104,40.72878],[-73.96099,40.72876],[-73.96111,40.72819],[-73.96121,40.72815],[-73.96116,40.72811],[-73.96117,40.72806],[-73.96128,40.72804],[-73.9615,40.72699],[-73.96153,40.72591],[-73.96162,40.72486],[-73.96154,40.72469],[-73.96154,40.72388],[-73.96264,40.72275],[-73.9657,40.71878],[-73.96684,40.71756],[-73.96758,40.7165],[-73.96804,40.71497],[-73.96837,40.71413],[-73.96847,40.713],[-73.96905,40.71248],[-73.96961,40.71016],[-73.96994,40.70931],[-73.96985,40.70799],[-73.96961,40.70763],[-73.97032,40.70733],[-73.97231,40.70907],[-73.97279,40.70938],[-73.97502,40.70774],[-73.97548,40.70749],[-73.97907,40.70596],[-73.97923,40.70577],[-73.97948,40.70582],[-73.98033,40.70585],[-73.98091,40.70591],[-73.98099,40.70537],[-73.98233,40.70555],[-73.98245,40.70555],[-73.98246,40.70551],[-73.98275,40.70553],[-73.98274,40.70558],[-73.98308,40.70552],[-73.98308,40.70548],[-73.98335,40.70545],[-73.9834,40.70547],[-73.98344,40.70564],[-73.98643,40.70535],[-73.98643,40.70508],[-73.98653,40.70498],[-73.98662,40.70498],[-73.98669,40.70508],[-73.98687,40.70516],[-73.98727,40.70518],[-73.98796,40.70513],[-73.98942,40.70514],[-73.98986,40.70517],[-73.99088,40.70512],[-73.99148,40.70562],[-73.99272,40.70554],[-73.99385,40.70483],[-73.99369,40.70448],[-73.99377,40.70445],[-73.99381,40.70454],[-73.99386,40.70456],[-73.99434,40.70443],[-73.9948,40.7041],[-73.99471,40.704],[-73.99482,40.70391],[-73.99499,40.70365],[-73.99466,40.70343],[-73.99507,40.7031],[-73.9967,40.70088],[-73.9975,40.69965],[-73.99803,40.69876],[-73.99885,40.69714],[-73.99876,40.69711],[-73.99886,40.69692],[-73.99894,40.69694],[-73.99899,40.69681],[-73.99918,40.69689],[-73.99947,40.6967],[-73.99953,40.69658],[-73.99943,40.69641],[-73.99946,40.69628],[-74.00028,40.69496],[-74.00096,40.69407],[-74.00132,40.69321],[-74.00174,40.69241],[-74.00197,40.69184],[-74.0007,40.69061],[-74.00096,40.69013],[-74.00185,40.69039],[-74.00196,40.69014],[-74.00299,40.69043],[-74.00341,40.68961],[-74.00382,40.68893],[-74.00459,40.68821],[-74.00504,40.68756],[-74.00563,40.68678],[-74.00587,40.68621],[-74.00644,40.6863],[-74.00702,40.68653],[-74.00767,40.68627],[-74.00784,40.68624],[-74.00795,40.68629],[-74.01263,40.68347],[-74.01277,40.68361],[-74.01283,40.68361],[-74.01532,40.68211],[-74.01524,40.682],[-74.01534,40.6819],[-74.01744,40.68064],[-74.01757,40.68064],[-74.01764,40.6806],[-74.01771,40.68066],[-74.0178,40.68062],[-74.01898,40.6799],[-74.01892,40.67984],[-74.01932,40.67961],[-74.01935,40.67955],[-74.03457,40.68487],[-74.03459,40.68483],[-74.03544,40.68512],[-74.02639,40.7001]]]]}},{"type":"Feature","properties":{"std_name":"Second Department","std_geoid":null,"pen":"courts","std_note":null},"geometry":{"type":"Polygon","coordinates":[[[-74.25884,40.49887],[-74.25813,40.50872],[-74.2541,40.51566],[-74.24602,40.52096],[-74.25028,40.5423],[-74.24748,40.54938],[-74.23141,40.55918],[-74.218,40.55706],[-74.21457,40.56053],[-74.21014,40.57372],[-74.20724,40.58792],[-74.19959,40.59785],[-74.19959,40.60038],[-74.20483,40.60606],[-74.20389,40.61428],[-74.20243,40.61677],[-74.20392,40.62437],[-74.20228,40.62878],[-74.2024,40.63159],[-74.19816,40.63479],[-74.19625,40.63769],[-74.19143,40.64202],[-74.18564,40.64604],[-74.18165,40.64653],[-74.14311,40.64199],[-74.13292,40.64368],[-74.12602,40.64215],[-74.10985,40.64806],[-74.09344,40.64807],[-74.08699,40.65151],[-74.05575,40.65148],[-74.03544,40.68512],[-74.03459,40.68483],[-74.03457,40.68487],[-74.01935,40.67955],[-74.01932,40.67961],[-74.01892,40.67984],[-74.01898,40.6799],[-74.0178,40.68062],[-74.01771,40.68066],[-74.01764,40.6806],[-74.01757,40.68064],[-74.01744,40.68064],[-74.01534,40.6819],[-74.01524,40.682],[-74.01532,40.68211],[-74.01283,40.68361],[-74.01277,40.68361],[-74.01263,40.68347],[-74.00795,40.68629],[-74.00784,40.68624],[-74.00767,40.68627],[-74.00702,40.68653],[-74.00644,40.6863],[-74.00587,40.68621],[-74.00563,40.68678],[-74.00504,40.68756],[-74.00459,40.68821],[-74.00382,40.68893],[-74.00341,40.68961],[-74.00299,40.69043],[-74.00196,40.69014],[-74.00185,40.69039],[-74.00096,40.69013],[-74.0007,40.69061],[-74.00197,40.69184],[-74.00174,40.69241],[-74.00132,40.69321],[-74.00096,40.69407],[-74.00028,40.69496],[-73.99946,40.69628],[-73.99943,40.69641],[-73.99953,40.69658],[-73.99947,40.6967],[-73.99918,40.69689],[-73.99899,40.69681],[-73.99894,40.69694],[-73.99886,40.69692],[-73.99876,40.69711],[-73.99885,40.69714],[-73.99803,40.69876],[-73.9975,40.69965],[-73.9967,40.70088],[-73.99507,40.7031],[-73.99466,40.70343],[-73.99499,40.70365],[-73.99482,40.70391],[-73.99471,40.704],[-73.9948,40.7041],[-73.99434,40.70443],[-73.99386,40.70456],[-73.99381,40.70454],[-73.99377,40.70445],[-73.99369,40.70448],[-73.99385,40.70483],[-73.99272,40.70554],[-73.99148,40.70562],[-73.99088,40.70512],[-73.98986,40.70517],[-73.98942,40.70514],[-73.98796,40.70513],[-73.98727,40.70518],[-73.98687,40.70516],[-73.98669,40.70508],[-73.98662,40.70498],[-73.98653,40.70498],[-73.98643,40.70508],[-73.98643,40.70535],[-73.98344,40.70564],[-73.9834,40.70547],[-73.98335,40.70545],[-73.98308,40.70548],[-73.98308,40.70552],[-73.98274,40.70558],[-73.98275,40.70553],[-73.98246,40.70551],[-73.98245,40.70555],[-73.98233,40.70555],[-73.98099,40.70537],[-73.98091,40.70591],[-73.98033,40.70585],[-73.97948,40.70582],[-73.97923,40.70577],[-73.97907,40.70596],[-73.97548,40.70749],[-73.97502,40.70774],[-73.97279,40.70938],[-73.97231,40.70907],[-73.97032,40.70733],[-73.96961,40.70763],[-73.96985,40.70799],[-73.96994,40.70931],[-73.96961,40.71016],[-73.96905,40.71248],[-73.96847,40.713],[-73.96837,40.71413],[-73.96804,40.71497],[-73.96758,40.7165],[-73.96684,40.71756],[-73.9657,40.71878],[-73.96264,40.72275],[-73.96154,40.72388],[-73.96154,40.72469],[-73.96162,40.72486],[-73.96153,40.72591],[-73.9615,40.72699],[-73.96128,40.72804],[-73.96117,40.72806],[-73.96116,40.72811],[-73.96121,40.72815],[-73.96111,40.72819],[-73.96099,40.72876],[-73.96104,40.72878],[-73.96112,40.72936],[-73.96114,40.72943],[-73.9612,40.72942],[-73.96126,40.72975],[-73.96131,40.7303],[-73.96145,40.73099],[-73.96184,40.73163],[-73.96215,40.73245],[-73.9619,40.73248],[-73.96193,40.73268],[-73.96223,40.73265],[-73.96227,40.73277],[-73.96235,40.73381],[-73.9626,40.7349],[-73.96267,40.73645],[-73.96248,40.7368],[-73.96262,40.73903],[-73.96243,40.73967],[-73.96191,40.741],[-73.9618,40.74113],[-73.96138,40.7428],[-73.96118,40.743],[-73.96083,40.74364],[-73.96027,40.74443],[-73.95919,40.74603],[-73.95684,40.74883],[-73.95617,40.74967],[-73.9562,40.74969],[-73.95612,40.74976],[-73.95606,40.74976],[-73.95432,40.75126],[-73.95394,40.75175],[-73.95399,40.75179],[-73.95368,40.75205],[-73.95364,40.75204],[-73.95297,40.75275],[-73.95301,40.75277],[-73.95266,40.75311],[-73.95217,40.7537],[-73.95208,40.75376],[-73.95137,40.75452],[-73.95102,40.75509],[-73.95088,40.75517],[-73.94596,40.76129],[-73.94581,40.76145],[-73.94571,40.76149],[-73.94472,40.76288],[-73.9435,40.7645],[-73.94131,40.76692],[-73.94046,40.76753],[-73.94035,40.76765],[-73.93984,40.76799],[-73.9382,40.76873],[-73.9364,40.76947],[-73.93532,40.77049],[-73.93496,40.77173],[-73.93747,40.7725],[-73.93781,40.77356],[-73.93786,40.77409],[-73.93766,40.77509],[-73.93705,40.77587],[-73.93638,40.77692],[-73.93609,40.77718],[-73.93586,40.77721],[-73.93508,40.77794],[-73.93474,40.77808],[-73.93391,40.77812],[-73.93278,40.77792],[-73.93272,40.77804],[-73.93179,40.77787],[-73.93105,40.77744],[-73.93107,40.77726],[-73.93063,40.77659],[-73.92988,40.77622],[-73.92861,40.77659],[-73.92828,40.7769],[-73.92632,40.77824],[-73.92557,40.77846],[-73.92482,40.77876],[-73.92423,40.7791],[-73.92319,40.78025],[-73.92296,40.78044],[-73.92263,40.78057],[-73.9221,40.78085],[-73.91909,40.78337],[-73.91819,40.78393],[-73.91774,40.78408],[-73.91724,40.78414],[-73.91717,40.78419],[-73.91718,40.78455],[-73.91683,40.78519],[-73.91575,40.78611],[-73.9154,40.78606],[-73.91526,40.78619],[-73.91559,40.78643],[-73.91424,40.78786],[-73.9126,40.78938],[-73.91223,40.78918],[-73.91207,40.78934],[-73.91195,40.7894],[-73.91208,40.78952],[-73.91177,40.78972],[-73.91162,40.78959],[-73.91125,40.78974],[-73.91113,40.79011],[-73.9103,40.79066],[-73.91067,40.79312],[-73.91246,40.7961],[-73.89987,40.79245],[-73.89218,40.79039],[-73.89197,40.79024],[-73.89177,40.79022],[-73.89161,40.79016],[-73.89141,40.79019],[-73.89116,40.79017],[-73.89092,40.79023],[-73.8908,40.79021],[-73.89057,40.79011],[-73.8903,40.78988],[-73.89013,40.78964],[-73.88989,40.78901],[-73.8898,40.78865],[-73.8894,40.78779],[-73.88905,40.78737],[-73.88856,40.78716],[-73.88831,40.78701],[-73.8877,40.78687],[-73.88728,40.78681],[-73.88715,40.78683],[-73.88692,40.78673],[-73.88613,40.78671],[-73.88596,40.78675],[-73.88577,40.78668],[-73.8853,40.78668],[-73.88522,40.78663],[-73.87831,40.78536],[-73.87776,40.78558],[-73.87737,40.78569],[-73.87677,40.78581],[-73.87629,40.78586],[-73.87508,40.78587],[-73.87351,40.78572],[-73.87298,40.78589],[-73.87288,40.78596],[-73.87281,40.7859],[-73.87277,40.78594],[-73.87287,40.78598],[-73.87279,40.78608],[-73.87226,40.78642],[-73.87211,40.78647],[-73.87163,40.7868],[-73.87148,40.78704],[-73.87137,40.78727],[-73.87107,40.78757],[-73.8708,40.78793],[-73.87079,40.78803],[-73.87095,40.78847],[-73.87098,40.78888],[-73.87095,40.78895],[-73.87097,40.78906],[-73.87021,40.79091],[-73.86712,40.79374],[-73.86297,40.79767],[-73.85307,40.80011],[-73.84665,40.80102],[-73.84408,40.80102],[-73.83541,40.8022],[-73.83082,40.80306],[-73.83023,40.80327],[-73.82758,40.80394],[-73.82344,40.80481],[-73.81742,40.80579],[-73.8113,40.8054],[-73.80454,40.80355],[-73.79975,40.8022],[-73.79713,40.80141],[-73.79356,40.80038],[-73.79002,40.80023],[-73.78792,40.80036],[-73.78732,40.80085],[-73.78475,40.80259],[-73.78268,40.80539],[-73.77956,40.81125],[-73.77896,40.81171],[-73.78019,40.8264],[-73.7578,40.84568],[-73.74806,40.87172],[-73.76099,40.87518],[-73.7812,40.88048],[-73.7858,40.8816],[-73.79199,40.88317],[-73.79328,40.88342],[-73.81418,40.8888],[-73.81505,40.88895],[-73.8156,40.88918],[-73.8161,40.88928],[-73.8176,40.88967],[-73.8185,40.88988],[-73.82296,40.89106],[-73.82324,40.8912],[-73.8233,40.89099],[-73.82313,40.89087],[-73.82311,40.89078],[-73.82312,40.89065],[-73.82325,40.89047],[-73.82322,40.89037],[-73.8233,40.89006],[-73.8231,40.88989],[-73.82267,40.88996],[-73.82251,40.88988],[-73.82236,40.88964],[-73.82237,40.88948],[-73.82364,40.88985],[-73.82402,40.88975],[-73.82405,40.88987],[-73.82401,40.88998],[-73.8244,40.88998],[-73.825,40.89018],[-73.82722,40.89079],[-73.82794,40.89093],[-73.82812,40.89105],[-73.82872,40.89127],[-73.83002,40.89169],[-73.83082,40.89188],[-73.8317,40.89218],[-73.8325,40.89238],[-73.83517,40.89317],[-73.83628,40.89353],[-73.83841,40.89406],[-73.83941,40.89669],[-73.83961,40.89714],[-73.83972,40.89751],[-73.83972,40.89769],[-73.83965,40.89789],[-73.83921,40.89882],[-73.83915,40.89906],[-73.83919,40.89936],[-73.83936,40.89971],[-73.84056,40.90128],[-73.84079,40.90169],[-73.84087,40.90198],[-73.84105,40.90316],[-73.84139,40.90417],[-73.84491,40.90419],[-73.84495,40.90471],[-73.8449,40.90508],[-73.84495,40.90556],[-73.84585,40.90576],[-73.84743,40.90624],[-73.84865,40.90678],[-73.85014,40.9075],[-73.85033,40.90728],[-73.85045,40.90718],[-73.85099,40.90654],[-73.85353,40.90747],[-73.85237,40.90888],[-73.85208,40.90889],[-73.85205,40.90896],[-73.85112,40.91001],[-73.85138,40.91004],[-73.85218,40.90951],[-73.85268,40.9099],[-73.85294,40.90992],[-73.854,40.90928],[-73.85423,40.90901],[-73.85434,40.90897],[-73.85488,40.90822],[-73.85448,40.90801],[-73.8543,40.90809],[-73.85398,40.90801],[-73.85382,40.90777],[-73.8538,40.90718],[-73.8541,40.90668],[-73.8547,40.90658],[-73.85569,40.90606],[-73.85611,40.90606],[-73.85632,40.90617],[-73.85633,40.9058],[-73.8562,40.90548],[-73.85596,40.90539],[-73.85594,40.90526],[-73.8562,40.90509],[-73.85639,40.90505],[-73.8567,40.90491],[-73.85732,40.90502],[-73.85759,40.90467],[-73.857,40.90438],[-73.857,40.90358],[-73.8572,40.90288],[-73.85771,40.90257],[-73.8582,40.90238],[-73.8583,40.90208],[-73.8591,40.90247],[-73.8596,40.90218],[-73.8593,40.90178],[-73.859,40.90148],[-73.8594,40.90138],[-73.8592,40.90088],[-73.8593,40.90049],[-73.85939,40.90038],[-73.86026,40.90062],[-73.86159,40.90105],[-73.8624,40.90134],[-73.86264,40.90147],[-73.86288,40.90154],[-73.86467,40.90179],[-73.86526,40.90195],[-73.86695,40.90248],[-73.86788,40.90298],[-73.87785,40.90592],[-73.87801,40.90597],[-73.87835,40.90598],[-73.87924,40.90637],[-73.88093,40.90683],[-73.88183,40.90713],[-73.88299,40.90742],[-73.88425,40.90751],[-73.88483,40.90772],[-73.8854,40.90798],[-73.88601,40.90798],[-73.89181,40.90978],[-73.8928,40.91006],[-73.89663,40.91132],[-73.89725,40.91166],[-73.89951,40.91198],[-73.90211,40.91288],[-73.91001,40.91508],[-73.91052,40.91528],[-73.91832,40.9177],[-73.91425,40.92796],[-73.90911,40.94589],[-73.90846,40.94788],[-73.89614,40.98187],[-73.89363,40.99717],[-73.90272,40.99733],[-73.92323,41.00653],[-73.9302,41.00971],[-73.95233,41.01968],[-73.95504,41.02086],[-73.97728,41.0308],[-74.05722,41.06628],[-74.09665,41.08384],[-74.11428,41.09156],[-74.12725,41.09731],[-74.15174,41.10811],[-74.16814,41.11531],[-74.2127,41.13434],[-74.21777,41.13602],[-74.22798,41.14036],[-74.2349,41.14327],[-74.25074,41.15017],[-74.26702,41.15772],[-74.27957,41.16301],[-74.28766,41.16653],[-74.29991,41.17187],[-74.32185,41.18156],[-74.32641,41.18361],[-74.33067,41.18546],[-74.34642,41.19273],[-74.3621,41.20042],[-74.37443,41.20685],[-74.39711,41.21872],[-74.42007,41.23014],[-74.42875,41.23441],[-74.43871,41.23924],[-74.45786,41.24843],[-74.47021,41.25409],[-74.49126,41.26347],[-74.50751,41.27153],[-74.51821,41.27654],[-74.52526,41.27989],[-74.53984,41.28673],[-74.56246,41.297],[-74.5717,41.30123],[-74.58997,41.30947],[-74.63097,41.32814],[-74.63979,41.33212],[-74.65436,41.33884],[-74.67081,41.34636],[-74.68691,41.35368],[-74.69188,41.35598],[-74.69558,41.35761],[-74.69496,41.35824],[-74.69445,41.35862],[-74.6933,41.35934],[-74.69115,41.36054],[-74.69026,41.36122],[-74.68995,41.36149],[-74.68975,41.36175],[-74.68962,41.36212],[-74.68956,41.36269],[-74.68968,41.36365],[-74.68991,41.36451],[-74.69003,41.36523],[-74.69033,41.36602],[-74.69053,41.36635],[-74.69138,41.36742],[-74.69181,41.36786],[-74.69298,41.36892],[-74.6935,41.36956],[-74.6938,41.36986],[-74.6941,41.37011],[-74.69471,41.37046],[-74.69643,41.37134],[-74.69832,41.37239],[-74.69986,41.37316],[-74.70301,41.37505],[-74.7059,41.37706],[-74.70731,41.37809],[-74.708,41.37868],[-74.70848,41.3792],[-74.7089,41.37978],[-74.70925,41.38031],[-74.71011,41.38187],[-74.71086,41.38352],[-74.71097,41.38371],[-74.71161,41.3855],[-74.71178,41.38609],[-74.71215,41.3879],[-74.71231,41.38834],[-74.71252,41.38876],[-74.71285,41.38929],[-74.71332,41.38994],[-74.7137,41.3904],[-74.71432,41.39107],[-74.71518,41.39192],[-74.71584,41.39257],[-74.71636,41.39302],[-74.71694,41.39343],[-74.71738,41.3937],[-74.71809,41.39404],[-74.7188,41.39433],[-74.71948,41.39453],[-74.72013,41.39466],[-74.72094,41.39476],[-74.72277,41.39492],[-74.72578,41.39497],[-74.72667,41.39502],[-74.72812,41.39515],[-74.72861,41.39522],[-74.72903,41.39533],[-74.72962,41.39557],[-74.73106,41.39606],[-74.73275,41.39674],[-74.73457,41.3974],[-74.73516,41.39773],[-74.73566,41.39806],[-74.73601,41.39833],[-74.73632,41.39867],[-74.73819,41.40122],[-74.73855,41.40174],[-74.73917,41.4028],[-74.74122,41.40543],[-74.74138,41.40569],[-74.74171,41.40669],[-74.74176,41.40695],[-74.74174,41.40878],[-74.7416,41.40951],[-74.74124,41.41078],[-74.74107,41.41128],[-74.74091,41.41163],[-74.74072,41.41189],[-74.74044,41.41216],[-74.73944,41.41286],[-74.73896,41.41315],[-74.73868,41.41342],[-74.73847,41.41376],[-74.73767,41.41525],[-74.7366,41.41818],[-74.73621,41.41902],[-74.7352,41.42094],[-74.73486,41.4219],[-74.73474,41.42247],[-74.73466,41.42299],[-74.73461,41.42413],[-74.73462,41.42456],[-74.73481,41.42592],[-74.73495,41.42637],[-74.73513,41.4268],[-74.73542,41.42732],[-74.7359,41.42803],[-74.73682,41.42923],[-74.73698,41.42951],[-74.7372,41.42977],[-74.73792,41.43034],[-74.73873,41.43078],[-74.73907,41.43089],[-74.73949,41.431],[-74.74093,41.43116],[-74.74146,41.43115],[-74.74215,41.43107],[-74.7431,41.4309],[-74.74478,41.43038],[-74.74862,41.42886],[-74.75068,41.42798],[-74.75094,41.42786],[-74.75137,41.42752],[-74.75339,41.42577],[-74.75418,41.42514],[-74.75461,41.42488],[-74.75532,41.42567],[-74.75593,41.42675],[-74.75642,41.42801],[-74.75548,41.42948],[-74.75414,41.43018],[-74.75289,41.4303],[-74.75203,41.4316],[-74.75187,41.43248],[-74.75257,41.43324],[-74.75383,41.43318],[-74.75509,41.43318],[-74.75611,41.43395],[-74.75634,41.43518],[-74.75658,41.43683],[-74.7589,41.44074],[-74.75948,41.44259],[-74.76019,41.44324],[-74.76231,41.44435],[-74.76262,41.44553],[-74.76262,41.4477],[-74.76247,41.44953],[-74.7613,41.45001],[-74.76052,41.45127],[-74.75942,41.45334],[-74.7588,41.45404],[-74.75863,41.45429],[-74.75857,41.45448],[-74.75865,41.45512],[-74.75884,41.45576],[-74.75925,41.45677],[-74.75939,41.45732],[-74.75946,41.45781],[-74.75954,41.45817],[-74.75976,41.45889],[-74.75974,41.45916],[-74.75977,41.45991],[-74.75984,41.46021],[-74.7599,41.46069],[-74.75984,41.46079],[-74.75957,41.46092],[-74.75921,41.46104],[-74.75866,41.46114],[-74.75641,41.46144],[-74.75503,41.46178],[-74.75323,41.4624],[-74.752,41.46296],[-74.75083,41.46371],[-74.75055,41.46396],[-74.75041,41.46433],[-74.75049,41.46506],[-74.75085,41.4657],[-74.75168,41.46641],[-74.75245,41.46699],[-74.75276,41.46736],[-74.75286,41.46758],[-74.75288,41.4678],[-74.75296,41.46809],[-74.75293,41.46839],[-74.75236,41.47169],[-74.75231,41.47211],[-74.75234,41.47264],[-74.75248,41.47287],[-74.75256,41.47312],[-74.75257,41.47343],[-74.75262,41.47369],[-74.75298,41.47438],[-74.75332,41.47476],[-74.75365,41.47502],[-74.75395,41.47538],[-74.75416,41.47576],[-74.75434,41.47629],[-74.7544,41.47737],[-74.75413,41.47826],[-74.7542,41.4785],[-74.7545,41.47885],[-74.75555,41.47956],[-74.75586,41.47955],[-74.7559,41.47962],[-74.75622,41.47974],[-74.75714,41.48043],[-74.75831,41.48088],[-74.75877,41.48112],[-74.75917,41.4814],[-74.75965,41.48186],[-74.75997,41.48243],[-74.76004,41.48286],[-74.76,41.48345],[-74.75993,41.48398],[-74.75976,41.48462],[-74.75974,41.48504],[-74.75985,41.48544],[-74.75996,41.48573],[-74.76044,41.48613],[-74.76189,41.48784],[-74.76204,41.48806],[-74.76211,41.48851],[-74.76205,41.48893],[-74.76171,41.48976],[-74.76144,41.49025],[-74.76091,41.49067],[-74.76065,41.49079],[-74.76008,41.49085],[-74.75868,41.49111],[-74.75801,41.4912],[-74.75637,41.49132],[-74.75577,41.49133],[-74.75501,41.49141],[-74.75413,41.49168],[-74.75359,41.49196],[-74.75311,41.49239],[-74.75253,41.49326],[-74.7524,41.49374],[-74.74998,41.49378],[-74.64309,41.49767],[-74.62461,41.4983],[-74.6192,41.49845],[-74.60185,41.49908],[-74.59579,41.49924],[-74.57538,41.50009],[-74.5719,41.50009],[-74.56076,41.50061],[-74.55737,41.50125],[-74.54877,41.50156],[-74.52975,41.50239],[-74.52733,41.50246],[-74.50809,41.50325],[-74.50449,41.50346],[-74.50129,41.50346],[-74.49634,41.50367],[-74.49536,41.50445],[-74.49415,41.50409],[-74.4938,41.50445],[-74.49323,41.50422],[-74.49268,41.50373],[-74.49169,41.5035],[-74.49132,41.5039],[-74.49116,41.50415],[-74.49057,41.50394],[-74.49022,41.5039],[-74.48999,41.50378],[-74.48973,41.50379],[-74.48959,41.50374],[-74.48923,41.50379],[-74.48852,41.50378],[-74.48835,41.50373],[-74.48796,41.50424],[-74.48757,41.50438],[-74.48726,41.50388],[-74.48703,41.50362],[-74.4865,41.50383],[-74.48604,41.50394],[-74.48589,41.50402],[-74.48494,41.50379],[-74.48479,41.504],[-74.48437,41.50424],[-74.48396,41.50426],[-74.48335,41.50405],[-74.48315,41.50443],[-74.48278,41.50426],[-74.48267,41.50426],[-74.48246,41.50396],[-74.48197,41.50397],[-74.48196,41.50413],[-74.47969,41.50404],[-74.47562,41.50395],[-74.4756,41.50452],[-74.47546,41.50495],[-74.47552,41.50511],[-74.4758,41.50552],[-74.4758,41.50605],[-74.4758,41.50614],[-74.47575,41.50623],[-74.47566,41.5063],[-74.47551,41.50631],[-74.47529,41.50613],[-74.47507,41.50606],[-74.47488,41.50605],[-74.47457,41.50609],[-74.47422,41.50625],[-74.47396,41.50646],[-74.47389,41.50666],[-74.47395,41.5069],[-74.47404,41.50695],[-74.47422,41.50696],[-74.47454,41.50686],[-74.47476,41.50689],[-74.47495,41.50699],[-74.47507,41.50723],[-74.47501,41.5074],[-74.47496,41.50745],[-74.47482,41.50747],[-74.47462,41.50741],[-74.47449,41.50743],[-74.4744,41.50747],[-74.47422,41.50772],[-74.47408,41.50836],[-74.47406,41.50873],[-74.47411,41.50894],[-74.47417,41.50897],[-74.47457,41.50898],[-74.47473,41.50905],[-74.47484,41.50917],[-74.47594,41.51001],[-74.4761,41.51024],[-74.47609,41.5104],[-74.47594,41.51051],[-74.47559,41.51066],[-74.47489,41.51078],[-74.47431,41.51094],[-74.47342,41.51136],[-74.47299,41.51143],[-74.47246,41.51145],[-74.4724,41.51149],[-74.47237,41.51154],[-74.47242,41.51192],[-74.47251,41.5121],[-74.47266,41.51228],[-74.47268,41.51244],[-74.47253,41.51266],[-74.47241,41.5127],[-74.4714,41.51279],[-74.47126,41.51286],[-74.47051,41.51347],[-74.47037,41.51355],[-74.46936,41.51379],[-74.46889,41.51404],[-74.46812,41.51496],[-74.46809,41.51505],[-74.4683,41.51571],[-74.46825,41.51584],[-74.46813,41.5159],[-74.46783,41.51583],[-74.46752,41.51582],[-74.46738,41.51585],[-74.46716,41.51595],[-74.46698,41.51598],[-74.46647,41.51637],[-74.46581,41.51672],[-74.46562,41.51688],[-74.46555,41.51704],[-74.46547,41.5175],[-74.4657,41.51812],[-74.46573,41.51833],[-74.46569,41.51844],[-74.46561,41.51854],[-74.46484,41.51937],[-74.4648,41.51949],[-74.46479,41.51969],[-74.46483,41.51987],[-74.46529,41.52088],[-74.46575,41.52277],[-74.46575,41.52286],[-74.46566,41.52301],[-74.46559,41.52307],[-74.46544,41.52309],[-74.46521,41.523],[-74.46486,41.52296],[-74.46479,41.52298],[-74.46442,41.52319],[-74.46427,41.52321],[-74.46389,41.52317],[-74.46337,41.52318],[-74.46288,41.52327],[-74.46273,41.52333],[-74.46236,41.52356],[-74.46185,41.52402],[-74.46164,41.52432],[-74.46151,41.52457],[-74.46133,41.52468],[-74.46103,41.52468],[-74.46048,41.5246],[-74.46035,41.52461],[-74.46024,41.52466],[-74.46004,41.52483],[-74.45982,41.52506],[-74.4598,41.52568],[-74.45972,41.52586],[-74.45936,41.52621],[-74.45922,41.52642],[-74.45909,41.52667],[-74.45879,41.52696],[-74.45849,41.52708],[-74.45766,41.52718],[-74.45715,41.5275],[-74.45705,41.52762],[-74.45698,41.52788],[-74.45699,41.52798],[-74.4571,41.52829],[-74.45724,41.52837],[-74.45772,41.52841],[-74.45784,41.52852],[-74.45791,41.52865],[-74.45788,41.52886],[-74.45746,41.52936],[-74.45713,41.52957],[-74.45682,41.52968],[-74.45605,41.52982],[-74.45566,41.52995],[-74.45545,41.53011],[-74.45533,41.53029],[-74.45529,41.53047],[-74.45532,41.53059],[-74.45538,41.53068],[-74.45576,41.53091],[-74.45583,41.53101],[-74.45594,41.53134],[-74.45596,41.53166],[-74.45604,41.53188],[-74.45597,41.53199],[-74.45582,41.53208],[-74.45573,41.53217],[-74.45542,41.53261],[-74.45516,41.53285],[-74.45478,41.53297],[-74.45469,41.53303],[-74.45454,41.53337],[-74.45438,41.53342],[-74.45425,41.53336],[-74.45416,41.53306],[-74.45409,41.53299],[-74.45371,41.53272],[-74.45336,41.53258],[-74.45315,41.53257],[-74.45291,41.53268],[-74.45275,41.5327],[-74.45248,41.53263],[-74.45235,41.53254],[-74.45223,41.53254],[-74.4518,41.53272],[-74.45115,41.53288],[-74.45081,41.53294],[-74.45046,41.53296],[-74.45028,41.53302],[-74.44981,41.5333],[-74.4496,41.53337],[-74.44916,41.53364],[-74.449,41.5338],[-74.44888,41.53401],[-74.44872,41.53413],[-74.44848,41.5342],[-74.44834,41.5342],[-74.44794,41.53435],[-74.44784,41.53449],[-74.44783,41.53461],[-74.44792,41.53501],[-74.44802,41.53523],[-74.448,41.53532],[-74.44796,41.53536],[-74.44737,41.53545],[-74.44708,41.53561],[-74.44611,41.5365],[-74.44579,41.53666],[-74.44535,41.53695],[-74.44477,41.53714],[-74.4446,41.53723],[-74.44433,41.5376],[-74.44421,41.53806],[-74.44406,41.53834],[-74.44381,41.53862],[-74.44365,41.53896],[-74.4437,41.53911],[-74.44377,41.53918],[-74.44384,41.53922],[-74.44412,41.53927],[-74.44419,41.53944],[-74.44382,41.5401],[-74.44369,41.54059],[-74.44369,41.54074],[-74.44379,41.54092],[-74.44392,41.54099],[-74.4441,41.54101],[-74.44456,41.54095],[-74.44577,41.54087],[-74.44594,41.54092],[-74.44604,41.54098],[-74.44612,41.54121],[-74.44579,41.54186],[-74.4456,41.54303],[-74.44556,41.54387],[-74.44543,41.54401],[-74.44518,41.54409],[-74.44496,41.54405],[-74.44478,41.54391],[-74.4447,41.54381],[-74.44449,41.54368],[-74.44433,41.54364],[-74.44389,41.54369],[-74.44372,41.54366],[-74.44338,41.5435],[-74.4432,41.54347],[-74.44293,41.54345],[-74.44211,41.5436],[-74.44179,41.54361],[-74.44125,41.54358],[-74.44063,41.54341],[-74.44006,41.54314],[-74.43978,41.54306],[-74.43955,41.54302],[-74.4392,41.54302],[-74.43857,41.54318],[-74.43807,41.54334],[-74.43777,41.54358],[-74.4377,41.54383],[-74.43773,41.54399],[-74.4378,41.54414],[-74.43848,41.54471],[-74.43878,41.54505],[-74.43884,41.54519],[-74.43881,41.54545],[-74.4385,41.54589],[-74.43836,41.54613],[-74.43834,41.54626],[-74.43834,41.54646],[-74.43863,41.54714],[-74.43864,41.54727],[-74.43859,41.54739],[-74.4385,41.54744],[-74.43823,41.54744],[-74.43796,41.54731],[-74.43708,41.54673],[-74.43633,41.54653],[-74.43613,41.54644],[-74.4359,41.54625],[-74.43551,41.54612],[-74.43509,41.54618],[-74.43485,41.54639],[-74.43479,41.54669],[-74.4348,41.54716],[-74.43489,41.54789],[-74.43504,41.5485],[-74.43527,41.5489],[-74.43593,41.5497],[-74.43604,41.54992],[-74.43612,41.5502],[-74.43612,41.5506],[-74.43619,41.55083],[-74.43617,41.55107],[-74.43591,41.55137],[-74.43531,41.55178],[-74.43488,41.55217],[-74.43469,41.55242],[-74.43439,41.55298],[-74.43414,41.55362],[-74.43389,41.55373],[-74.4337,41.55376],[-74.43349,41.55378],[-74.43296,41.55374],[-74.43178,41.55383],[-74.43103,41.55372],[-74.43051,41.55376],[-74.43029,41.55384],[-74.43024,41.55397],[-74.43026,41.55407],[-74.43042,41.55417],[-74.43124,41.55432],[-74.43141,41.55449],[-74.43144,41.55458],[-74.43139,41.55471],[-74.43048,41.55582],[-74.43027,41.55599],[-74.43016,41.55603],[-74.42991,41.55605],[-74.42841,41.55608],[-74.42744,41.55596],[-74.42692,41.55593],[-74.42653,41.55594],[-74.42622,41.55609],[-74.42613,41.55616],[-74.42612,41.55625],[-74.42625,41.55649],[-74.42658,41.55661],[-74.4269,41.55664],[-74.42761,41.55661],[-74.42809,41.55678],[-74.42879,41.55688],[-74.42917,41.55702],[-74.42945,41.55721],[-74.42969,41.55745],[-74.42983,41.55769],[-74.42996,41.55799],[-74.42997,41.55823],[-74.42993,41.55834],[-74.42982,41.55846],[-74.42958,41.55859],[-74.42897,41.55882],[-74.4285,41.55893],[-74.42804,41.55899],[-74.42715,41.55905],[-74.42678,41.55918],[-74.42504,41.5594],[-74.42464,41.55952],[-74.42452,41.5596],[-74.4243,41.55968],[-74.4239,41.55979],[-74.42331,41.55988],[-74.42311,41.55998],[-74.42303,41.56008],[-74.42298,41.5603],[-74.42305,41.56089],[-74.423,41.56128],[-74.42316,41.56181],[-74.42333,41.56215],[-74.42344,41.56264],[-74.4234,41.56274],[-74.42326,41.56288],[-74.4231,41.56297],[-74.42266,41.56303],[-74.42177,41.56294],[-74.42156,41.56286],[-74.42128,41.56243],[-74.42118,41.56235],[-74.42076,41.56224],[-74.42048,41.56221],[-74.42006,41.56225],[-74.41988,41.56231],[-74.41973,41.56243],[-74.41944,41.56291],[-74.41931,41.56322],[-74.41891,41.56359],[-74.41884,41.56377],[-74.41881,41.56432],[-74.41884,41.56453],[-74.41891,41.56468],[-74.41927,41.56501],[-74.41939,41.5653],[-74.41941,41.56543],[-74.41932,41.56563],[-74.41859,41.56636],[-74.41838,41.5667],[-74.41795,41.56764],[-74.41778,41.56791],[-74.41782,41.56815],[-74.41825,41.56861],[-74.41836,41.56877],[-74.41841,41.56893],[-74.4184,41.5694],[-74.41836,41.56953],[-74.4183,41.56965],[-74.41814,41.56977],[-74.41788,41.5699],[-74.41757,41.56993],[-74.41693,41.56982],[-74.41639,41.56958],[-74.41619,41.56941],[-74.41613,41.56929],[-74.41627,41.56876],[-74.41622,41.56865],[-74.4161,41.56856],[-74.41502,41.56805],[-74.41414,41.5678],[-74.41385,41.56779],[-74.41371,41.56782],[-74.41352,41.56791],[-74.41326,41.56823],[-74.41308,41.56868],[-74.41303,41.56874],[-74.41293,41.56878],[-74.4128,41.56879],[-74.41224,41.56861],[-74.41141,41.56851],[-74.40989,41.56822],[-74.40931,41.56821],[-74.40899,41.56826],[-74.40835,41.56827],[-74.40825,41.56831],[-74.40809,41.56844],[-74.40794,41.56866],[-74.40762,41.56889],[-74.40761,41.56896],[-74.40809,41.57039],[-74.40822,41.57051],[-74.40852,41.57056],[-74.40873,41.5705],[-74.4095,41.57052],[-74.41022,41.57047],[-74.41045,41.57049],[-74.4106,41.57052],[-74.41085,41.57066],[-74.41103,41.57083],[-74.41108,41.57101],[-74.41108,41.57113],[-74.41102,41.57123],[-74.41082,41.57138],[-74.40989,41.57174],[-74.40979,41.5718],[-74.4097,41.57191],[-74.40965,41.57202],[-74.40964,41.57215],[-74.40985,41.57254],[-74.40994,41.57283],[-74.4098,41.57329],[-74.40974,41.57339],[-74.40953,41.57355],[-74.40934,41.57361],[-74.40909,41.57384],[-74.40888,41.57437],[-74.40855,41.57491],[-74.40828,41.57518],[-74.4082,41.57522],[-74.40808,41.57523],[-74.40783,41.5752],[-74.4076,41.57497],[-74.40758,41.5748],[-74.40765,41.57466],[-74.40821,41.57418],[-74.40826,41.57402],[-74.40823,41.57391],[-74.40816,41.57381],[-74.40751,41.57308],[-74.40728,41.57262],[-74.40718,41.5725],[-74.40695,41.57232],[-74.40677,41.57225],[-74.40656,41.57222],[-74.4064,41.5723],[-74.40622,41.57245],[-74.40607,41.57276],[-74.40585,41.5729],[-74.40545,41.57287],[-74.40509,41.57289],[-74.40478,41.57295],[-74.40446,41.5731],[-74.40434,41.57324],[-74.40422,41.57349],[-74.40406,41.57393],[-74.40395,41.57413],[-74.40384,41.57425],[-74.4018,41.57536],[-74.4014,41.57544],[-74.40125,41.57541],[-74.40088,41.57521],[-74.4006,41.57522],[-74.4001,41.57517],[-74.39985,41.57522],[-74.39953,41.57544],[-74.39934,41.57549],[-74.39877,41.57545],[-74.39857,41.5754],[-74.39838,41.57533],[-74.39787,41.57504],[-74.39777,41.57503],[-74.39761,41.57509],[-74.39755,41.57518],[-74.39749,41.57552],[-74.39735,41.57574],[-74.39715,41.57591],[-74.39637,41.57625],[-74.3962,41.57637],[-74.39596,41.57666],[-74.39586,41.57686],[-74.39579,41.57711],[-74.3957,41.57807],[-74.39581,41.57866],[-74.39604,41.57904],[-74.39607,41.57914],[-74.39605,41.57966],[-74.396,41.5799],[-74.3959,41.58013],[-74.39543,41.58069],[-74.3942,41.58149],[-74.39355,41.58196],[-74.39342,41.582],[-74.39329,41.58202],[-74.39278,41.58192],[-74.39217,41.58199],[-74.39193,41.58208],[-74.39175,41.58209],[-74.39131,41.58206],[-74.39087,41.58219],[-74.39071,41.5823],[-74.39064,41.58257],[-74.39066,41.58284],[-74.39076,41.58294],[-74.39127,41.58328],[-74.39141,41.58348],[-74.39146,41.5837],[-74.39145,41.58404],[-74.39141,41.58423],[-74.39124,41.58454],[-74.39115,41.58466],[-74.3908,41.58575],[-74.39061,41.58622],[-74.39037,41.58638],[-74.39017,41.5864],[-74.38993,41.58631],[-74.38967,41.58588],[-74.38937,41.58561],[-74.38915,41.58548],[-74.38901,41.5853],[-74.38878,41.58446],[-74.38845,41.58364],[-74.38812,41.58333],[-74.38794,41.58327],[-74.38766,41.58325],[-74.38701,41.58327],[-74.38675,41.58324],[-74.38633,41.58314],[-74.38615,41.58313],[-74.38556,41.58324],[-74.38352,41.58388],[-74.38076,41.58616],[-74.38058,41.58637],[-74.38045,41.58657],[-74.38036,41.58682],[-74.38006,41.58731],[-74.37995,41.58742],[-74.37966,41.58747],[-74.37933,41.58734],[-74.37917,41.58716],[-74.3788,41.58662],[-74.37865,41.58648],[-74.37827,41.58636],[-74.37709,41.58652],[-74.3766,41.5867],[-74.3746,41.58759],[-74.37414,41.58775],[-74.37332,41.58793],[-74.3729,41.58794],[-74.37229,41.58791],[-74.37215,41.58794],[-74.371,41.58837],[-74.37072,41.58845],[-74.37032,41.58848],[-74.37009,41.58859],[-74.36975,41.58895],[-74.36973,41.58944],[-74.36966,41.5896],[-74.36933,41.59001],[-74.36914,41.59018],[-74.36899,41.59026],[-74.36818,41.59045],[-74.36737,41.59079],[-74.3665,41.59127],[-74.36594,41.59144],[-74.36484,41.59171],[-74.36347,41.59197],[-74.36305,41.59197],[-74.36149,41.59183],[-74.36128,41.59184],[-74.36033,41.59205],[-74.36006,41.59205],[-74.3598,41.59203],[-74.35861,41.5916],[-74.35849,41.59143],[-74.35848,41.5912],[-74.35845,41.59109],[-74.35818,41.59102],[-74.35802,41.59109],[-74.35787,41.59129],[-74.35776,41.59136],[-74.35739,41.59141],[-74.35601,41.59147],[-74.35469,41.5918],[-74.35433,41.59181],[-74.35389,41.5917],[-74.3537,41.59168],[-74.35352,41.59173],[-74.3534,41.59187],[-74.35338,41.59198],[-74.35341,41.5921],[-74.35387,41.59251],[-74.35398,41.59266],[-74.35402,41.59282],[-74.35394,41.59298],[-74.3538,41.59303],[-74.35349,41.59303],[-74.35261,41.59262],[-74.35244,41.59258],[-74.35225,41.5926],[-74.35211,41.59266],[-74.35205,41.59277],[-74.35205,41.59291],[-74.35218,41.59313],[-74.35229,41.59349],[-74.35228,41.59376],[-74.35225,41.59394],[-74.35197,41.59454],[-74.35196,41.59479],[-74.35206,41.59493],[-74.35232,41.59504],[-74.35251,41.59506],[-74.35297,41.59503],[-74.35311,41.59507],[-74.35321,41.59515],[-74.35324,41.59524],[-74.35319,41.59537],[-74.35262,41.59584],[-74.35251,41.59605],[-74.35251,41.59634],[-74.35216,41.59663],[-74.35205,41.59677],[-74.35193,41.59745],[-74.35183,41.59774],[-74.35163,41.59796],[-74.35134,41.59821],[-74.3511,41.59836],[-74.35073,41.59853],[-74.3504,41.59862],[-74.35008,41.59865],[-74.34935,41.59862],[-74.34876,41.59851],[-74.34738,41.59795],[-74.347,41.59784],[-74.34666,41.59778],[-74.3463,41.59778],[-74.34545,41.5979],[-74.34471,41.59785],[-74.34327,41.59722],[-74.34254,41.59683],[-74.34223,41.5966],[-74.34214,41.59646],[-74.3417,41.59514],[-74.34144,41.59474],[-74.34125,41.59452],[-74.34108,41.59444],[-74.34087,41.59439],[-74.34068,41.59438],[-74.33937,41.59476],[-74.33893,41.59484],[-74.33815,41.59488],[-74.3379,41.59493],[-74.33662,41.59537],[-74.33641,41.5955],[-74.33628,41.59566],[-74.33617,41.59616],[-74.33585,41.59674],[-74.33563,41.59704],[-74.33492,41.59748],[-74.33468,41.59752],[-74.3344,41.59751],[-74.33411,41.59732],[-74.33383,41.59692],[-74.33355,41.59675],[-74.333,41.59666],[-74.3324,41.59664],[-74.33203,41.59674],[-74.33055,41.59777],[-74.33021,41.59806],[-74.32975,41.59862],[-74.32973,41.59878],[-74.3298,41.59906],[-74.32984,41.59916],[-74.33016,41.59954],[-74.33034,41.6],[-74.33038,41.60025],[-74.33036,41.60057],[-74.33029,41.60083],[-74.33015,41.60114],[-74.32995,41.60137],[-74.32975,41.6015],[-74.32961,41.60155],[-74.32934,41.60155],[-74.32911,41.60148],[-74.32835,41.60146],[-74.32775,41.60154],[-74.32721,41.60166],[-74.32699,41.60173],[-74.32627,41.60222],[-74.32589,41.60241],[-74.32435,41.60291],[-74.32405,41.60296],[-74.32375,41.60296],[-74.32281,41.60274],[-74.32237,41.60269],[-74.3217,41.60269],[-74.32107,41.60272],[-74.32072,41.6028],[-74.32051,41.60285],[-74.32016,41.60301],[-74.31936,41.60352],[-74.31799,41.60464],[-74.31726,41.60504],[-74.31632,41.60543],[-74.31599,41.60569],[-74.31568,41.60604],[-74.31479,41.60745],[-74.31459,41.60804],[-74.31435,41.60959],[-74.31425,41.60986],[-74.31383,41.61027],[-74.31205,41.61127],[-74.31144,41.61145],[-74.31079,41.61149],[-74.31007,41.61144],[-74.30962,41.61131],[-74.30932,41.61115],[-74.30883,41.61074],[-74.30833,41.61005],[-74.30792,41.60936],[-74.30764,41.60908],[-74.30733,41.60887],[-74.30702,41.60882],[-74.3067,41.60882],[-74.30634,41.60889],[-74.30603,41.60904],[-74.30585,41.60919],[-74.30577,41.60938],[-74.30569,41.60979],[-74.30564,41.61024],[-74.30555,41.61056],[-74.30538,41.61087],[-74.30482,41.61147],[-74.3045,41.61189],[-74.30441,41.61215],[-74.30437,41.61259],[-74.30439,41.61293],[-74.30455,41.61383],[-74.30471,41.61525],[-74.30466,41.61543],[-74.30454,41.61559],[-74.30435,41.6157],[-74.30412,41.61579],[-74.30116,41.61621],[-74.30064,41.61631],[-74.30029,41.61643],[-74.29982,41.61674],[-74.29803,41.61813],[-74.29721,41.61872],[-74.29612,41.61936],[-74.29574,41.61966],[-74.29521,41.61968],[-74.29493,41.61957],[-74.2943,41.61912],[-74.29356,41.61879],[-74.29278,41.61827],[-74.29262,41.61824],[-74.2923,41.6183],[-74.29201,41.61846],[-74.29181,41.61872],[-74.29154,41.61888],[-74.29005,41.61938],[-74.2897,41.61961],[-74.28957,41.61981],[-74.2895,41.62002],[-74.28944,41.62055],[-74.28932,41.62104],[-74.28917,41.62128],[-74.28906,41.62134],[-74.28884,41.62139],[-74.28812,41.62141],[-74.2871,41.62134],[-74.28664,41.62136],[-74.28597,41.62149],[-74.28403,41.62282],[-74.28302,41.62378],[-74.28148,41.62472],[-74.28113,41.62503],[-74.28084,41.62522],[-74.28,41.62547],[-74.2797,41.62562],[-74.27911,41.62582],[-74.27882,41.62588],[-74.27806,41.62588],[-74.27766,41.62582],[-74.27679,41.62558],[-74.2764,41.62553],[-74.27597,41.62558],[-74.27579,41.62564],[-74.27541,41.62589],[-74.27506,41.62619],[-74.27325,41.62721],[-74.27288,41.62754],[-74.27255,41.62791],[-74.27191,41.62872],[-74.27169,41.6289],[-74.27104,41.62927],[-74.27065,41.62936],[-74.27041,41.62934],[-74.27021,41.62924],[-74.26989,41.62889],[-74.26964,41.62875],[-74.26928,41.62864],[-74.269,41.6286],[-74.26861,41.62862],[-74.26826,41.62869],[-74.26795,41.62878],[-74.26771,41.6289],[-74.26732,41.6292],[-74.26692,41.62958],[-74.26617,41.6304],[-74.26561,41.6312],[-74.26468,41.63225],[-74.26429,41.63263],[-74.26409,41.63274],[-74.26336,41.6326],[-74.25019,41.62932],[-74.25023,41.62509],[-74.25064,41.62171],[-74.25101,41.61492],[-74.25138,41.6093],[-74.2516,41.60537],[-74.24959,41.60483],[-74.24881,41.60469],[-74.24164,41.60299],[-74.2224,41.59866],[-74.21791,41.59771],[-74.20782,41.59543],[-74.2019,41.59422],[-74.19715,41.59299],[-74.19497,41.59253],[-74.19073,41.59145],[-74.18773,41.59086],[-74.18751,41.59079],[-74.18536,41.59413],[-74.18154,41.59336],[-74.1773,41.59273],[-74.17639,41.5924],[-74.17246,41.59159],[-74.17097,41.59125],[-74.1661,41.59043],[-74.15864,41.58901],[-74.15399,41.5879],[-74.14138,41.58555],[-74.13759,41.58469],[-74.12639,41.58254],[-74.12727,41.5871],[-74.12778,41.58832],[-74.12821,41.59012],[-74.12977,41.59619],[-74.13156,41.60383],[-74.13451,41.6157],[-74.12459,41.61341],[-74.11321,41.61069],[-74.09865,41.60726],[-74.09442,41.60545],[-74.09415,41.60491],[-74.09355,41.60391],[-74.09064,41.59963],[-74.0899,41.5986],[-74.08512,41.60028],[-74.08068,41.60161],[-74.0744,41.60366],[-74.07055,41.60517],[-74.06919,41.6056],[-74.06808,41.606],[-74.05579,41.58871],[-74.0538,41.58606],[-74.0538,41.58426],[-74.05394,41.58072],[-74.05369,41.58061],[-74.04226,41.58157],[-74.02681,41.58298],[-74.00427,41.58519],[-73.99958,41.58581],[-73.99505,41.58604],[-73.98617,41.58684],[-73.9787,41.58746],[-73.9593,41.58932],[-73.95331,41.58998],[-73.95258,41.59529],[-73.95258,41.60139],[-73.95208,41.61399],[-73.95258,41.62519],[-73.95148,41.62769],[-73.95048,41.63359],[-73.94878,41.64219],[-73.94898,41.64479],[-73.94818,41.65249],[-73.94688,41.65639],[-73.94738,41.66189],[-73.94738,41.66749],[-73.94518,41.67589],[-73.94328,41.67939],[-73.94248,41.68409],[-73.94348,41.69029],[-73.94578,41.69559],[-73.94668,41.6994],[-73.94608,41.70279],[-73.94498,41.71049],[-73.94448,41.71439],[-73.9423,41.72579],[-73.94108,41.73269],[-73.94108,41.73599],[-73.94102,41.7366],[-73.94118,41.73744],[-73.94174,41.73902],[-73.94083,41.75432],[-73.94099,41.75574],[-73.94171,41.75736],[-73.94243,41.75856],[-73.94403,41.76065],[-73.94659,41.76368],[-73.9504,41.76843],[-73.95113,41.76942],[-73.95161,41.77062],[-73.95184,41.7739],[-73.95245,41.78796],[-73.95198,41.79048],[-73.95201,41.79158],[-73.95037,41.79724],[-73.94979,41.79931],[-73.9496,41.80013],[-73.94965,41.802],[-73.94973,41.80339],[-73.9496,41.80597],[-73.94944,41.8071],[-73.94934,41.8087],[-73.94933,41.80961],[-73.94936,41.81134],[-73.9492,41.81244],[-73.94833,41.81574],[-73.94856,41.81744],[-73.94896,41.81862],[-73.94948,41.81997],[-73.94974,41.82121],[-73.94971,41.82244],[-73.94952,41.8239],[-73.94925,41.82532],[-73.94883,41.82697],[-73.94868,41.82833],[-73.949,41.83188],[-73.94979,41.83697],[-73.94979,41.83844],[-73.94968,41.84012],[-73.94937,41.84392],[-73.94931,41.84507],[-73.94894,41.84864],[-73.94878,41.84955],[-73.94848,41.8507],[-73.94809,41.85169],[-73.94741,41.85304],[-73.94659,41.85424],[-73.94542,41.8555],[-73.94432,41.85664],[-73.94193,41.85924],[-73.94097,41.86067],[-73.94035,41.86228],[-73.9399,41.86396],[-73.93958,41.86486],[-73.93939,41.86585],[-73.93929,41.86686],[-73.93934,41.8679],[-73.93958,41.87004],[-73.93992,41.87104],[-73.94012,41.87184],[-73.94032,41.87275],[-73.94075,41.87387],[-73.94128,41.87513],[-73.94188,41.8763],[-73.9434,41.87852],[-73.94403,41.87974],[-73.94464,41.88065],[-73.9451,41.88145],[-73.94563,41.88219],[-73.9463,41.883],[-73.94742,41.88408],[-73.94868,41.88537],[-73.94971,41.88659],[-73.951,41.88779],[-73.95206,41.889],[-73.95328,41.89024],[-73.9543,41.89144],[-73.95521,41.89291],[-73.9563,41.894],[-73.95744,41.89523],[-73.95958,41.89772],[-73.96083,41.89905],[-73.96158,41.90017],[-73.96222,41.90102],[-73.9623,41.90185],[-73.96249,41.90321],[-73.96272,41.90451],[-73.96278,41.90582],[-73.96325,41.90787],[-73.96419,41.91016],[-73.96437,41.91126],[-73.96443,41.91233],[-73.96441,41.91315],[-73.96424,41.91392],[-73.96349,41.91524],[-73.96268,41.91648],[-73.96185,41.91753],[-73.96067,41.91873],[-73.95977,41.91926],[-73.95881,41.91976],[-73.9583,41.92033],[-73.95804,41.92115],[-73.95769,41.92388],[-73.95742,41.92657],[-73.95673,41.93028],[-73.95603,41.93368],[-73.9556,41.93619],[-73.95539,41.93892],[-73.9551,41.94104],[-73.95497,41.94404],[-73.95459,41.94809],[-73.95421,41.95081],[-73.95371,41.95275],[-73.95313,41.95449],[-73.95302,41.95521],[-73.95283,41.95707],[-73.95154,41.96053],[-73.95088,41.96243],[-73.95008,41.96576],[-73.94921,41.96822],[-73.94841,41.97008],[-73.94721,41.97337],[-73.94668,41.97525],[-73.94566,41.97817],[-73.94507,41.97971],[-73.94432,41.98236],[-73.94406,41.98356],[-73.94366,41.98478],[-73.94323,41.98579],[-73.94308,41.98633],[-73.94267,41.98734],[-73.9424,41.9886],[-73.94214,41.99001],[-73.94201,41.99129],[-73.94152,41.99193],[-73.94156,41.99247],[-73.9407,41.99364],[-73.94024,41.99473],[-73.93979,41.99558],[-73.93974,41.99587],[-73.93977,41.99659],[-73.93996,41.99856],[-73.94004,41.999],[-73.93996,41.9994],[-73.93923,42.00075],[-73.93833,42.00265],[-73.93769,42.00451],[-73.9368,42.00665],[-73.93657,42.00756],[-73.93593,42.00854],[-73.93476,42.01158],[-73.93401,42.01364],[-73.93344,42.01566],[-73.93339,42.0164],[-73.93339,42.01748],[-73.93332,42.01849],[-73.93364,42.02056],[-73.93382,42.02134],[-73.93417,42.02211],[-73.93464,42.0233],[-73.9355,42.02459],[-73.936,42.02524],[-73.93638,42.02561],[-73.9368,42.0262],[-73.93703,42.02683],[-73.93715,42.02864],[-73.93729,42.02979],[-73.93703,42.03081],[-73.93702,42.03203],[-73.93705,42.03292],[-73.93692,42.03385],[-73.9367,42.0347],[-73.93623,42.03583],[-73.93558,42.03681],[-73.93452,42.03863],[-73.93417,42.03955],[-73.93406,42.04051],[-73.93408,42.04204],[-73.93424,42.04313],[-73.93439,42.04475],[-73.93417,42.04615],[-73.93391,42.04723],[-73.93372,42.04841],[-73.93363,42.04982],[-73.93344,42.05124],[-73.93305,42.05289],[-73.93287,42.05401],[-73.93276,42.05503],[-73.93276,42.05628],[-73.93292,42.05967],[-73.93273,42.06081],[-73.93257,42.06123],[-73.93228,42.06158],[-73.93139,42.06244],[-73.9306,42.06307],[-73.92876,42.06423],[-73.92838,42.06457],[-73.92823,42.06487],[-73.9282,42.0654],[-73.9282,42.06614],[-73.92831,42.06678],[-73.92729,42.06686],[-73.92729,42.06777],[-73.92691,42.06919],[-73.9263,42.07062],[-73.92619,42.07193],[-73.92635,42.07251],[-73.9271,42.0734],[-73.92846,42.07427],[-73.92975,42.07531],[-73.93007,42.07625],[-73.92963,42.07878],[-73.92159,42.07734],[-73.9171,42.07647],[-73.91559,42.08091],[-73.90863,42.07841],[-73.90779,42.07961],[-73.90319,42.07811],[-73.88431,42.07113],[-73.8711,42.06632],[-73.86833,42.06543],[-73.86664,42.06481],[-73.85857,42.06167],[-73.85053,42.05879],[-73.84218,42.05561],[-73.81864,42.04678],[-73.8101,42.04377],[-73.80973,42.0436],[-73.80689,42.04262],[-73.8065,42.04244],[-73.80124,42.04065],[-73.7861,42.03504],[-73.75954,42.02499],[-73.75599,42.02367],[-73.75567,42.02348],[-73.75538,42.02342],[-73.75181,42.02205],[-73.74514,42.01935],[-73.7356,42.01544],[-73.7324,42.01418],[-73.72575,42.01146],[-73.71563,42.0074],[-73.71356,42.00648],[-73.71093,42.00549],[-73.70945,42.00532],[-73.70657,42.00485],[-73.70311,42.00438],[-73.69775,42.00359],[-73.69213,42.00281],[-73.68629,42.00191],[-73.67608,42.00044],[-73.67232,42.00009],[-73.64219,41.99502],[-73.62879,41.99289],[-73.6245,41.99228],[-73.62002,41.99152],[-73.58618,41.98643],[-73.57542,41.98473],[-73.55605,41.98176],[-73.54261,41.97998],[-73.53964,41.9797],[-73.52707,41.97798],[-73.52536,42.00685],[-73.52142,42.04997],[-73.51099,42.04982],[-73.50991,42.04978],[-73.49957,42.04971],[-73.49702,42.04962],[-73.48732,42.04953],[-73.48887,42.01744],[-73.48962,42.00009],[-73.49223,41.96718],[-73.49299,41.95829],[-73.49339,41.95467],[-73.49344,41.95334],[-73.49394,41.94959],[-73.4966,41.9218],[-73.49705,41.91103],[-73.49732,41.90657],[-73.4983,41.89251],[-73.50198,41.85872],[-73.50194,41.85833],[-73.50527,41.82414],[-73.50531,41.82394],[-73.50525,41.82182],[-73.50709,41.8007],[-73.50818,41.78885],[-73.50848,41.78614],[-73.51096,41.75875],[-73.51125,41.75357],[-73.51131,41.75283],[-73.51192,41.74094],[-73.51319,41.7259],[-73.51429,41.71366],[-73.51602,41.69629],[-73.51656,41.68971],[-73.51678,41.68758],[-73.51777,41.67101],[-73.52002,41.6412],[-73.52104,41.61977],[-73.52146,41.61642],[-73.52387,41.59267],[-73.52599,41.57212],[-73.5261,41.56854],[-73.52741,41.55435],[-73.52769,41.54995],[-73.52895,41.53822],[-73.52931,41.53563],[-73.5325,41.50006],[-73.53386,41.48175],[-73.53395,41.48011],[-73.53396,41.47926],[-73.53404,41.47795],[-73.53437,41.47536],[-73.53467,41.47145],[-73.53497,41.4684],[-73.53497,41.46769],[-73.53507,41.46686],[-73.53507,41.46619],[-73.53521,41.46458],[-73.53525,41.46435],[-73.53527,41.46349],[-73.53557,41.46052],[-73.536,41.4528],[-73.53606,41.45019],[-73.53633,41.44663],[-73.53658,41.44492],[-73.53673,41.44361],[-73.53726,41.43791],[-73.53789,41.43189],[-73.5411,41.40647],[-73.54133,41.40532],[-73.54147,41.40439],[-73.54247,41.39259],[-73.54259,41.39025],[-73.54256,41.39019],[-73.54257,41.38974],[-73.54262,41.38941],[-73.54342,41.37662],[-73.54512,41.36329],[-73.54565,41.35784],[-73.54621,41.35261],[-73.54709,41.34312],[-73.54805,41.33538],[-73.54909,41.32513],[-73.54929,41.31958],[-73.54948,41.31675],[-73.5496,41.30711],[-73.54988,41.30152],[-73.55096,41.29542],[-73.54811,41.2921],[-73.5406,41.283],[-73.52628,41.26606],[-73.5253,41.26483],[-73.52342,41.26268],[-73.51746,41.25545],[-73.51295,41.2501],[-73.50264,41.23736],[-73.48798,41.21939],[-73.4827,41.21277],[-73.48534,41.21154],[-73.48684,41.21091],[-73.48841,41.21001],[-73.50396,41.20331],[-73.50917,41.20093],[-73.51399,41.19885],[-73.51418,41.19873],[-73.52098,41.19542],[-73.52234,41.19481],[-73.52334,41.19429],[-73.52375,41.1941],[-73.52426,41.19393],[-73.52484,41.19361],[-73.52629,41.193],[-73.536,41.18843],[-73.55147,41.18146],[-73.56494,41.17517],[-73.56616,41.17469],[-73.5788,41.16889],[-73.59183,41.163],[-73.597,41.16089],[-73.59725,41.16066],[-73.60019,41.15915],[-73.61362,41.15314],[-73.62435,41.14826],[-73.62457,41.14831],[-73.6288,41.14643],[-73.63021,41.14579],[-73.6337,41.14408],[-73.63446,41.14376],[-73.63474,41.14368],[-73.63564,41.14329],[-73.63601,41.14323],[-73.63735,41.14263],[-73.63775,41.14232],[-73.63967,41.1415],[-73.65167,41.1361],[-73.65437,41.1348],[-73.65547,41.1342],[-73.65614,41.13397],[-73.66057,41.132],[-73.66087,41.1318],[-73.66497,41.13],[-73.66803,41.12852],[-73.67642,41.12467],[-73.68947,41.1185],[-73.69605,41.11526],[-73.7007,41.11338],[-73.70284,41.11218],[-73.70354,41.11183],[-73.70553,41.11106],[-73.71223,41.10792],[-73.71376,41.10724],[-73.72777,41.1007],[-73.72621,41.09856],[-73.72338,41.09444],[-73.72102,41.09216],[-73.71868,41.09],[-73.71788,41.089],[-73.71706,41.08779],[-73.71581,41.08623],[-73.70507,41.0725],[-73.69468,41.05979],[-73.69421,41.05933],[-73.69286,41.05771],[-73.69235,41.05714],[-73.68953,41.05352],[-73.68885,41.05254],[-73.68842,41.05202],[-73.68789,41.05153],[-73.68717,41.0507],[-73.68247,41.0447],[-73.68184,41.04397],[-73.67977,41.04194],[-73.67928,41.04138],[-73.67878,41.04073],[-73.67856,41.0404],[-73.67592,41.03731],[-73.67574,41.037],[-73.67452,41.03563],[-73.67107,41.03153],[-73.67061,41.03083],[-73.67038,41.03006],[-73.66977,41.0294],[-73.66917,41.0285],[-73.66518,41.02362],[-73.66467,41.023],[-73.66418,41.02229],[-73.6636,41.02166],[-73.66276,41.02057],[-73.65945,41.01765],[-73.65899,41.01718],[-73.65868,41.01671],[-73.65787,41.0158],[-73.65737,41.0151],[-73.6569,41.01452],[-73.65612,41.01313],[-73.65541,41.01244],[-73.65525,41.01225],[-73.65524,41.01185],[-73.65606,41.00892],[-73.65721,41.0064],[-73.65808,41.00475],[-73.65856,41.00402],[-73.65969,41.00151],[-73.66013,41.00068],[-73.66027,41.00048],[-73.66021,41.00036],[-73.65931,40.99717],[-73.65949,40.99553],[-73.65965,40.99445],[-73.65959,40.99414],[-73.65911,40.99334],[-73.65797,40.992],[-73.65723,40.99091],[-73.65863,40.98926],[-73.65891,40.98899],[-73.65967,40.98791],[-73.65677,40.98451],[-73.61289,40.95094],[-73.59067,40.9557],[-73.52777,40.9689],[-73.49957,40.97474],[-73.38959,40.99793],[-73.37817,41.0001],[-73.37456,41.00106],[-73.27539,41.02112],[-73.24956,41.02587],[-73.23821,41.02849],[-73.2318,41.03008],[-73.2291,41.0306],[-73.18348,41.04205],[-72.99955,41.08711],[-72.80312,41.1251],[-72.74939,41.13531],[-72.5279,41.17777],[-72.24955,41.23053],[-72.14153,41.2501],[-72.08185,41.26222],[-72.01921,41.29059],[-71.99949,41.29579],[-71.92945,41.31039],[-71.90726,41.30448],[-71.87985,41.27625],[-71.87451,41.27069],[-71.85851,41.2537],[-71.85446,41.2501],[-71.79097,41.1841],[-71.79064,41.1251],[-71.79063,41.10184],[-71.78187,41.0962],[-71.77924,41.08844],[-71.77749,41.07716],[-71.77749,41.06729],[-71.78275,41.05531],[-71.79414,41.03698],[-71.80816,41.02781],[-71.83709,41.01089],[-71.86462,41.0001],[-71.86528,40.99958],[-71.86801,40.99825],[-71.87014,40.99697],[-71.87259,40.99607],[-71.87424,40.9956],[-71.87451,40.99546],[-71.87643,40.99472],[-71.88098,40.99345],[-71.88478,40.99227],[-71.89084,40.99142],[-71.89683,40.99063],[-71.89991,40.9905],[-71.90255,40.98967],[-71.91005,40.9879],[-71.91962,40.98552],[-71.92747,40.98331],[-71.9317,40.9825],[-71.93275,40.98195],[-71.97013,40.96775],[-71.99952,40.95602],[-72.05088,40.93759],[-72.12453,40.91136],[-72.22596,40.8751],[-72.24953,40.86677],[-72.37453,40.8186],[-72.39653,40.8126],[-72.49949,40.78238],[-72.60885,40.7501],[-72.62454,40.74557],[-72.74954,40.71341],[-72.82861,40.6869],[-72.87454,40.67502],[-73.014,40.6251],[-73.02571,40.62164],[-73.03208,40.61953],[-73.03899,40.61789],[-73.05112,40.61488],[-73.05416,40.61418],[-73.06409,40.61167],[-73.07201,40.60976],[-73.07913,40.60835],[-73.08515,40.60701],[-73.0953,40.60527],[-73.11209,40.60135],[-73.12456,40.59837],[-73.24956,40.56256],[-73.24964,40.56256],[-73.27402,40.55131],[-73.29144,40.55131],[-73.31234,40.55412],[-73.32627,40.55692],[-73.34369,40.55412],[-73.37852,40.54571],[-73.40638,40.53731],[-73.44121,40.53171],[-73.4656,40.52611],[-73.4865,40.5205],[-73.51784,40.52331],[-73.55267,40.52891],[-73.62457,40.53451],[-73.70609,40.53454],[-73.76878,40.53375],[-73.78397,40.53239],[-73.82616,40.52287],[-73.85484,40.512],[-73.87003,40.50249],[-73.87678,40.50113],[-73.88227,40.49521],[-73.88665,40.48979],[-73.88965,40.48651],[-73.90214,40.49212],[-73.97787,40.5191],[-74.04378,40.50783],[-74.22533,40.47658],[-74.25304,40.48666],[-74.25884,40.49887]]]}}]}